{"type":"FeatureCollection","features":[{"type":"Feature","properties":{"situacao":"licenciada","interessado":"COMPANHIA ESPIRITOSANTENSE DE SANEAMENTO","municipio":"VIANA","processo":"11422/2017","finalidade":"RESERVACAO","area_alagada_ha":108.7,"volume_m3":23060000.0},"geometry":{"type":"Point","coordinates":[-40.57086141,-20.37249507]}},{"type":"Feature","properties":{"situacao":"licenciada","interessado":"PETROVIX INCORPORACAO E LOCAC?ES IMOBILIARIA LTDA","municipio":"GUARAPARI","processo":"11929/2020","finalidade":"RESERVACAO","area_alagada_ha":4,"volume_m3":115764},"geometry":{"type":"Point","coordinates":[-40.55201813,-20.64752138]}},{"type":"Feature","properties":{"situacao":"licenciada","interessado":"LEONDRES DOMINGOS DE OLIVEIRA","municipio":"VIANA","processo":"14026/2021","finalidade":"DESSEDENTACAO DE ANIMAIS","area_alagada_ha":0.6,"volume_m3":270},"geometry":{"type":"Point","coordinates":[-40.53315992,-20.30887965]}},{"type":"Feature","properties":{"situacao":"licenciada","interessado":"ALCIANO RUDIO DE CARLI","municipio":"FUNDAO","processo":"1426/2016","finalidade":"CAPTACAO PARA IRRIGACAO","area_alagada_ha":1.27,"volume_m3":12697},"geometry":{"type":"Point","coordinates":[-40.18462842,-20.02698342]}},{"type":"Feature","properties":{"situacao":"licenciada","interessado":"COSME CARLOS DA SILVA","municipio":"CARIACICA","processo":"1476/2021","finalidade":"RESERVACAO","area_alagada_ha":0.5,"volume_m3":9000},"geometry":{"type":"Point","coordinates":[-40.4811299,-20.24601696]}},{"type":"Feature","properties":{"situacao":"licenciada","interessado":"SUZANO S.A.","municipio":"Vila Velha","processo":"13266/2024","finalidade":"Reservação","area_alagada_ha":6.33,"volume_m3":115322},"geometry":{"type":"Point","coordinates":[-40.40073586,-20.51281709]}},{"type":"Feature","properties":{"situacao":"licenciada","interessado":"Valdir Eggert","municipio":"Cariacica","processo":"22058/2022","finalidade":"Aquicultura, Ecoturismo/Turismo Rural, Captação para Irrigação, Reservação","area_alagada_ha":0.25,"volume_m3":1880},"geometry":{"type":"Point","coordinates":[-40.5203768,-20.29424781]}},{"type":"Feature","properties":{"situacao":"licenciada","interessado":"COMPANHIA ESPIRITO-SANTENSE DE SANEAMENTO","municipio":"Viana","processo":"11422/2017","finalidade":"Captação para abastecimento Público, Reservação","area_alagada_ha":108.7,"volume_m3":23060000.0},"geometry":{"type":"Point","coordinates":[-40.56677186,-20.37638924]}},{"type":"Feature","properties":{"situacao":"dispensada","interessado":"FALQUETO PARTICIPACÕES LTDA","municipio":"SERRA","processo":null,"finalidade":"MISTO","area_alagada_ha":"1,19","volume_m3":"48790"},"geometry":{"type":"Point","coordinates":[-40.308583,-20.14267723]}},{"type":"Feature","properties":{"situacao":"dispensada","interessado":"COMP. ESPIRITO SANTENSE DE SANEAMENTO-CESAN","municipio":"SERRA","processo":null,"finalidade":"MISTA","area_alagada_ha":"1,83","volume_m3":"33123"},"geometry":{"type":"Point","coordinates":[-40.38521703,-20.18145455]}},{"type":"Feature","properties":{"situacao":"dispensada","interessado":"PAULO DIAS ALMEIDA","municipio":"FUNDAO","processo":null,"finalidade":"TERRA","area_alagada_ha":"0,1","volume_m3":"30.000"},"geometry":{"type":"Point","coordinates":[-40.35508841,-19.97041362]}},{"type":"Feature","properties":{"situacao":"dispensada","interessado":"WALDEIR DOSSI MARGON","municipio":"FUNDAO","processo":null,"finalidade":"TERRA","area_alagada_ha":"3,57","volume_m3":"25.882,50"},"geometry":{"type":"Point","coordinates":[-40.43217521,-20.00638883]}},{"type":"Feature","properties":{"situacao":"dispensada","interessado":"CARLOS AUGUSTO TOFOLI","municipio":"FUNDAO","processo":null,"finalidade":"TERRA","area_alagada_ha":"1,36","volume_m3":"22900"},"geometry":{"type":"Point","coordinates":[-40.42371698,-19.97134876]}},{"type":"Feature","properties":{"situacao":"dispensada","interessado":"ROGER DARIO DELBONI","municipio":"FUNDAO","processo":null,"finalidade":"TERRA","area_alagada_ha":"1,37","volume_m3":"20.100,00"},"geometry":{"type":"Point","coordinates":[-40.41988228,-19.96782891]}},{"type":"Feature","properties":{"situacao":"dispensada","interessado":"ARQUIMEDES ANTONIO SABADINI","municipio":"FUNDAO","processo":null,"finalidade":"TERRA","area_alagada_ha":"1,48","volume_m3":"19.954"},"geometry":{"type":"Point","coordinates":[-40.48713377,-19.97601418]}},{"type":"Feature","properties":{"situacao":"dispensada","interessado":"COMP. ESPIRITO SANTENSE DE SANEAMENTO-CESAN","municipio":"VILA VELHA","processo":null,"finalidade":"MISTA","area_alagada_ha":"0,37","volume_m3":"15600"},"geometry":{"type":"Point","coordinates":[-40.35900682,-20.40198207]}},{"type":"Feature","properties":{"situacao":"dispensada","interessado":"OLI AUGUSTO FONSECA","municipio":"GUARAPARI","processo":null,"finalidade":"TERRA","area_alagada_ha":"0,7","volume_m3":"15244,44"},"geometry":{"type":"Point","coordinates":[-40.58721526,-20.58971254]}},{"type":"Feature","properties":{"situacao":"dispensada","interessado":"MARCELO GINO VESCOVI","municipio":"FUNDAO","processo":null,"finalidade":"TERRA","area_alagada_ha":"2,49","volume_m3":"14236,69"},"geometry":{"type":"Point","coordinates":[-40.41194758,-19.91045909]}},{"type":"Feature","properties":{"situacao":"dispensada","interessado":"FABIO LUIZ GEGENHEIMER","municipio":"CARIACICA","processo":null,"finalidade":"TERRA","area_alagada_ha":"0,87","volume_m3":"13.095"},"geometry":{"type":"Point","coordinates":[-40.56639408,-20.28755455]}},{"type":"Feature","properties":{"situacao":"dispensada","interessado":"MATRIX CONSTRUTORA E INCORPORADORA LTDA","municipio":"GUARAPARI","processo":null,"finalidade":"CONCRETO","area_alagada_ha":"1,71","volume_m3":"13.082,39"},"geometry":{"type":"Point","coordinates":[-40.55738797,-20.58385891]}},{"type":"Feature","properties":{"situacao":"dispensada","interessado":"JCC SERVICOS IMOBILIARIOS LTDA","municipio":"FUNDAO","processo":null,"finalidade":"TERRA","area_alagada_ha":"1","volume_m3":"12092"},"geometry":{"type":"Point","coordinates":[-40.34467687,-20.0272041]}},{"type":"Feature","properties":{"situacao":"dispensada","interessado":"JANILTON NUNES LIRIO","municipio":"FUNDAO","processo":null,"finalidade":"TERRA","area_alagada_ha":"1,3","volume_m3":"11.700,00"},"geometry":{"type":"Point","coordinates":[-40.4063245,-19.9733938]}},{"type":"Feature","properties":{"situacao":"dispensada","interessado":"ANTONIO FRANCISCO PANDOLFI","municipio":"FUNDAO","processo":null,"finalidade":"TERRA","area_alagada_ha":"0,85","volume_m3":"11305"},"geometry":{"type":"Point","coordinates":[-40.41208076,-19.91792969]}},{"type":"Feature","properties":{"situacao":"dispensada","interessado":"JANILTON NUNES LIRIO","municipio":"FUNDAO","processo":null,"finalidade":"TERRA","area_alagada_ha":"0,82","volume_m3":"11070"},"geometry":{"type":"Point","coordinates":[-40.39372415,-19.93902599]}},{"type":"Feature","properties":{"situacao":"dispensada","interessado":"ADRIANO PANDOLFI","municipio":"FUNDAO","processo":null,"finalidade":"TERRA","area_alagada_ha":"1","volume_m3":"10040"},"geometry":{"type":"Point","coordinates":[-40.42111549,-19.90487494]}},{"type":"Feature","properties":{"situacao":"dispensada","interessado":"MANOEL MESSIAS LIMA","municipio":"FUNDAO","processo":null,"finalidade":"TERRA","area_alagada_ha":"0,8","volume_m3":"10.000"},"geometry":{"type":"Point","coordinates":[-40.35883065,-19.97333033]}},{"type":"Feature","properties":{"situacao":"dispensada","interessado":"ORILDO JOSE SARNAGLIA","municipio":"FUNDAO ","processo":null,"finalidade":"TERRA ","area_alagada_ha":"0,77","volume_m3":"10.000"},"geometry":{"type":"Point","coordinates":[-40.4037395,-19.95340257]}},{"type":"Feature","properties":{"situacao":"dispensada","interessado":"JANILTON NUNES LYRIO","municipio":"FUNDAO","processo":null,"finalidade":"TERRA","area_alagada_ha":"0,9726","volume_m3":"10.000"},"geometry":{"type":"Point","coordinates":[-40.40631559,-19.97346615]}},{"type":"Feature","properties":{"situacao":"dispensada","interessado":"RUDELEI ANGELO DEGASPERI","municipio":"SERRA","processo":null,"finalidade":"TERRA","area_alagada_ha":"0,55","volume_m3":"9900"},"geometry":{"type":"Point","coordinates":[-40.41726282,-20.0647724]}},{"type":"Feature","properties":{"situacao":"dispensada","interessado":"DELCY WAGNER CIRILLO","municipio":"FUNDAO","processo":null,"finalidade":"TERRA","area_alagada_ha":"1","volume_m3":"9.890"},"geometry":{"type":"Point","coordinates":[-40.51452161,-19.92504579]}},{"type":"Feature","properties":{"situacao":"dispensada","interessado":"MANOEL MESSIAS LIMA","municipio":"FUNDAO","processo":null,"finalidade":"TERRA","area_alagada_ha":"0,65","volume_m3":"9750"},"geometry":{"type":"Point","coordinates":[-40.36013287,-19.97140498]}},{"type":"Feature","properties":{"situacao":"dispensada","interessado":"SERRAGRO AGROINDUSTRIAL LTDA - ME","municipio":"SERRA","processo":null,"finalidade":"TERRA","area_alagada_ha":"0,57","volume_m3":"9690"},"geometry":{"type":"Point","coordinates":[-40.28173021,-20.06872573]}},{"type":"Feature","properties":{"situacao":"dispensada","interessado":"NILSON CARLOS SACCANI","municipio":"FUNDAO ","processo":null,"finalidade":"TERRA","area_alagada_ha":"1","volume_m3":"9640"},"geometry":{"type":"Point","coordinates":[-40.43402368,-19.93495588]}},{"type":"Feature","properties":{"situacao":"dispensada","interessado":"FRANCISCO FERNANDO FACHETTI FILHO","municipio":"FUNDAO ","processo":null,"finalidade":"TERRA","area_alagada_ha":"1","volume_m3":"9.600"},"geometry":{"type":"Point","coordinates":[-40.42807695,-19.96420352]}},{"type":"Feature","properties":{"situacao":"dispensada","interessado":"FALQUETO PARTICIPACÕES LTDA","municipio":"SERRA","processo":null,"finalidade":"TERRA","area_alagada_ha":"0,68","volume_m3":"9.520"},"geometry":{"type":"Point","coordinates":[-40.30077589,-20.08472272]}},{"type":"Feature","properties":{"situacao":"dispensada","interessado":"ORLANDO FRANCISCO SARNAGLIA","municipio":"FUNDAO","processo":null,"finalidade":"TERRA","area_alagada_ha":"0,73","volume_m3":"9.500"},"geometry":{"type":"Point","coordinates":[-40.40263554,-19.95389916]}},{"type":"Feature","properties":{"situacao":"dispensada","interessado":"CLODOALDO DEGASPERI","municipio":"SERRA","processo":null,"finalidade":"TERRA","area_alagada_ha":"0,4","volume_m3":"9200"},"geometry":{"type":"Point","coordinates":[-40.41765992,-20.06533839]}},{"type":"Feature","properties":{"situacao":"dispensada","interessado":"DOMINGOS ARNALDO GIACOMIN","municipio":"GUARAPARI","processo":null,"finalidade":"TERRA","area_alagada_ha":"0,85","volume_m3":"9.200"},"geometry":{"type":"Point","coordinates":[-40.43733592,-20.53838208]}},{"type":"Feature","properties":{"situacao":"dispensada","interessado":"FERNANDO CORTELETTI E OUTROS","municipio":"SERRA","processo":null,"finalidade":"TERRA","area_alagada_ha":"0,6584","volume_m3":"8.888,40"},"geometry":{"type":"Point","coordinates":[-40.39685612,-20.0731202]}},{"type":"Feature","properties":{"situacao":"dispensada","interessado":"FERDINANDO MARIO GIURIZZATO","municipio":"FUNDAO","processo":null,"finalidade":"TERRA","area_alagada_ha":"0,5459","volume_m3":"8.500"},"geometry":{"type":"Point","coordinates":[-40.44951571,-19.95338705]}},{"type":"Feature","properties":{"situacao":"dispensada","interessado":"ARQUIMEDES ANTONIO SABAINI","municipio":"FUNDAO","processo":null,"finalidade":"TERRA","area_alagada_ha":"0,24","volume_m3":"8400"},"geometry":{"type":"Point","coordinates":[-40.3885488,-19.98520663]}},{"type":"Feature","properties":{"situacao":"dispensada","interessado":"NELSON BROETTO","municipio":"FUNDAO","processo":null,"finalidade":"TERRA","area_alagada_ha":"0,24","volume_m3":"8.400"},"geometry":{"type":"Point","coordinates":[-40.43281854,-19.91254178]}},{"type":"Feature","properties":{"situacao":"dispensada","interessado":"FERNANDO CORTELETTI E /OUTROS","municipio":"SERRA","processo":null,"finalidade":"TERRA","area_alagada_ha":"0,90885","volume_m3":"8.179,65"},"geometry":{"type":"Point","coordinates":[-40.4013104,-20.07401548]}},{"type":"Feature","properties":{"situacao":"dispensada","interessado":"FALQUETO PARTICIPACÕES LTDA-ME","municipio":"SERRA","processo":null,"finalidade":"MISTO","area_alagada_ha":"1","volume_m3":"8169,08"},"geometry":{"type":"Point","coordinates":[-40.30993126,-20.14145656]}},{"type":"Feature","properties":{"situacao":"dispensada","interessado":"PAULO ROBERTO MARCHETTI","municipio":"SERRA","processo":null,"finalidade":"TERRA","area_alagada_ha":"0,81","volume_m3":"8.100"},"geometry":{"type":"Point","coordinates":[-40.31546269,-20.06386102]}},{"type":"Feature","properties":{"situacao":"dispensada","interessado":"JOSE ALDANO PIMENTEL NETO","municipio":"SERRA","processo":null,"finalidade":"TERRA","area_alagada_ha":"0,81","volume_m3":"8.065"},"geometry":{"type":"Point","coordinates":[-40.34488224,-20.11745014]}},{"type":"Feature","properties":{"situacao":"dispensada","interessado":"ADRIANO PANDOLFI","municipio":"FUNDAO","processo":null,"finalidade":"TERRA","area_alagada_ha":"0,86","volume_m3":"7806,3"},"geometry":{"type":"Point","coordinates":[-40.41405539,-19.90579853]}},{"type":"Feature","properties":{"situacao":"dispensada","interessado":"MILES MARCOS GOMES PEREIRA","municipio":"FUNDAO","processo":null,"finalidade":"TERRA","area_alagada_ha":"0,47","volume_m3":"7.733,48"},"geometry":{"type":"Point","coordinates":[-40.35037629,-19.9803878]}},{"type":"Feature","properties":{"situacao":"dispensada","interessado":"ALESSANDRO RUDIO BORGES","municipio":"FUNDAO","processo":null,"finalidade":"TERRA","area_alagada_ha":"0,98","volume_m3":"7563"},"geometry":{"type":"Point","coordinates":[-40.39829219,-19.97495705]}},{"type":"Feature","properties":{"situacao":"dispensada","interessado":"CARLOS EDUARDO ASSIS DA SILVA","municipio":"FUNDAO","processo":null,"finalidade":"TERRA","area_alagada_ha":"0,47","volume_m3":"7520"},"geometry":{"type":"Point","coordinates":[-40.35858696,-19.94710426]}},{"type":"Feature","properties":{"situacao":"dispensada","interessado":"EDISON SALVADOR","municipio":"SERRA","processo":null,"finalidade":"TERRA","area_alagada_ha":"0,45","volume_m3":"7500"},"geometry":{"type":"Point","coordinates":[-40.33000335,-20.15071124]}},{"type":"Feature","properties":{"situacao":"dispensada","interessado":"EDIVAN BROETO","municipio":"FUNDAO","processo":null,"finalidade":"TERRA","area_alagada_ha":"0,82","volume_m3":"7.400"},"geometry":{"type":"Point","coordinates":[-40.38660118,-19.91541981]}},{"type":"Feature","properties":{"situacao":"dispensada","interessado":"DELLMAR TRANSPORTES S/A","municipio":"VIANA","processo":null,"finalidade":"TERRA","area_alagada_ha":"0,49","volume_m3":"7362"},"geometry":{"type":"Point","coordinates":[-40.4351391,-20.37633825]}},{"type":"Feature","properties":{"situacao":"dispensada","interessado":"PLINIO PACHECO DE OLIVEIRA","municipio":"SERRA","processo":null,"finalidade":"TERRA","area_alagada_ha":"0,61","volume_m3":"7291"},"geometry":{"type":"Point","coordinates":[-40.26815404,-20.10581256]}},{"type":"Feature","properties":{"situacao":"dispensada","interessado":"ADRIANO DELESPOSTE GRAZZIOTTI","municipio":"FUNDAO","processo":null,"finalidade":"TERRA","area_alagada_ha":"0,48","volume_m3":"7200"},"geometry":{"type":"Point","coordinates":[-40.39526061,-19.95187931]}},{"type":"Feature","properties":{"situacao":"dispensada","interessado":"AVERALDO DE BORTOLO","municipio":"FUNDAO","processo":null,"finalidade":"TERRA","area_alagada_ha":"0,7474","volume_m3":"7170"},"geometry":{"type":"Point","coordinates":[-40.37856591,-20.00760921]}},{"type":"Feature","properties":{"situacao":"dispensada","interessado":"AUDINETE ANDRADE COSTA","municipio":"FUNDAO","processo":null,"finalidade":"TERRA","area_alagada_ha":"0,34","volume_m3":"7.140"},"geometry":{"type":"Point","coordinates":[-40.34760534,-19.99504522]}},{"type":"Feature","properties":{"situacao":"dispensada","interessado":"THIAGO FIGUEIREDO BIANCARDI","municipio":"GUARAPARI","processo":null,"finalidade":"TERRA","area_alagada_ha":"0,85","volume_m3":"6.500"},"geometry":{"type":"Point","coordinates":[-40.47179349,-20.53227511]}},{"type":"Feature","properties":{"situacao":"dispensada","interessado":"ANDRESSA ALVES BERTOLDO E SILVA","municipio":"SERRA","processo":null,"finalidade":"TERRA","area_alagada_ha":"0,25","volume_m3":"6500"},"geometry":{"type":"Point","coordinates":[-40.39539825,-20.01526524]}},{"type":"Feature","properties":{"situacao":"dispensada","interessado":"AVERALDO DE BORTOLO","municipio":"FUNDAO","processo":null,"finalidade":"TERRA","area_alagada_ha":"0,4265","volume_m3":"6390"},"geometry":{"type":"Point","coordinates":[-40.37755506,-20.00128377]}},{"type":"Feature","properties":{"situacao":"dispensada","interessado":"SERRAGRO AGROINDUSTRIAL LTDA - ME","municipio":"SERRA","processo":null,"finalidade":"TERRA","area_alagada_ha":"0,52","volume_m3":"6255"},"geometry":{"type":"Point","coordinates":[-40.27144093,-20.06392122]}},{"type":"Feature","properties":{"situacao":"dispensada","interessado":"FERNANDA BANDEIRA BERTOLINI","municipio":"FUNDAO","processo":null,"finalidade":"TERRA","area_alagada_ha":"0,411","volume_m3":"6.165"},"geometry":{"type":"Point","coordinates":[-40.41460207,-19.95756261]}},{"type":"Feature","properties":{"situacao":"dispensada","interessado":"NARCISO ALTOE","municipio":"FUNDAO","processo":null,"finalidade":"TERRA","area_alagada_ha":"0,51","volume_m3":"6120"},"geometry":{"type":"Point","coordinates":[-40.3431132,-19.96570721]}},{"type":"Feature","properties":{"situacao":"dispensada","interessado":"EDENIS ANTUNES DE CASTRO","municipio":"SERRA","processo":null,"finalidade":"TERRA","area_alagada_ha":"0,4","volume_m3":"6.000"},"geometry":{"type":"Point","coordinates":[-40.32638759,-20.08043041]}},{"type":"Feature","properties":{"situacao":"dispensada","interessado":"CLODOALDO DEGASPERI","municipio":"SERRA","processo":null,"finalidade":"TERRA","area_alagada_ha":"0,17","volume_m3":"5950"},"geometry":{"type":"Point","coordinates":[-40.41824045,-20.0650356]}},{"type":"Feature","properties":{"situacao":"dispensada","interessado":"JOSE BERNARDO MOREIRA DOS SANTOS","municipio":"SERRA","processo":null,"finalidade":"TERRA","area_alagada_ha":"0,59","volume_m3":"5.900"},"geometry":{"type":"Point","coordinates":[-40.36805574,-20.15348243]}},{"type":"Feature","properties":{"situacao":"dispensada","interessado":"ALDANO PEREIRA DE ALMEIDA ","municipio":"FUNDAO","processo":null,"finalidade":"TERRA","area_alagada_ha":"0,65","volume_m3":"5860"},"geometry":{"type":"Point","coordinates":[-40.37015747,-19.97698357]}},{"type":"Feature","properties":{"situacao":"dispensada","interessado":"CONSTRUTORA E INCORP. DOMANI LTDA","municipio":"GUARAPARI","processo":null,"finalidade":"TERRA","area_alagada_ha":"0,56","volume_m3":"5720"},"geometry":{"type":"Point","coordinates":[-40.58941571,-20.60301665]}},{"type":"Feature","properties":{"situacao":"dispensada","interessado":"FERNANDO CORTELETTI E /OUTROS","municipio":"SERRA","processo":null,"finalidade":"TERRA","area_alagada_ha":"0,31305","volume_m3":"5.634,90"},"geometry":{"type":"Point","coordinates":[-40.39870346,-20.07333145]}},{"type":"Feature","properties":{"situacao":"dispensada","interessado":"MELINA BARRETO ZAROWNY","municipio":"FUNDAO","processo":null,"finalidade":"TERRA","area_alagada_ha":"0,28","volume_m3":"5600"},"geometry":{"type":"Point","coordinates":[-40.41750121,-19.9526608]}},{"type":"Feature","properties":{"situacao":"dispensada","interessado":"SERRAGRO AGROINDUSTRIAL LTDA - ME","municipio":"SERRA","processo":null,"finalidade":"TERRA","area_alagada_ha":"0,28","volume_m3":"5564"},"geometry":{"type":"Point","coordinates":[-40.28038127,-20.06981969]}},{"type":"Feature","properties":{"situacao":"dispensada","interessado":"FALQUETO PARTICIPACÕES LTDA","municipio":"SERRA","processo":null,"finalidade":"MISTO","area_alagada_ha":"0,37","volume_m3":"5550"},"geometry":{"type":"Point","coordinates":[-40.30644399,-20.14314485]}},{"type":"Feature","properties":{"situacao":"dispensada","interessado":"RICARDO JOSE SOBREIRA NUNES","municipio":"VILA VELHA","processo":null,"finalidade":"TERRA","area_alagada_ha":"0,36","volume_m3":"5400"},"geometry":{"type":"Point","coordinates":[-40.37572619,-20.42013629]}},{"type":"Feature","properties":{"situacao":"dispensada","interessado":"RICARDO JOSE SOBREIRA NUNES","municipio":"VILA VELHA","processo":null,"finalidade":"TERRA","area_alagada_ha":"0,08","volume_m3":"5400"},"geometry":{"type":"Point","coordinates":[-40.37524433,-20.41983293]}},{"type":"Feature","properties":{"situacao":"dispensada","interessado":"ARQUIMEDES ANTONIO SABAINI","municipio":"FUNDAO","processo":null,"finalidade":"TERRA","area_alagada_ha":"0,356","volume_m3":"5.340,00"},"geometry":{"type":"Point","coordinates":[-40.39560658,-19.9825131]}},{"type":"Feature","properties":{"situacao":"dispensada","interessado":"ARQUIMEDES ANTONIO SABAINI","municipio":"FUNDAO","processo":null,"finalidade":"TERRA","area_alagada_ha":"0,035","volume_m3":"5.340"},"geometry":{"type":"Point","coordinates":[-40.39525012,-19.98435897]}},{"type":"Feature","properties":{"situacao":"dispensada","interessado":"ELIO BAHIA SOUZA","municipio":"FUNDAO","processo":null,"finalidade":"TERRA","area_alagada_ha":"0,45","volume_m3":"5286"},"geometry":{"type":"Point","coordinates":[-40.36255861,-19.94452603]}},{"type":"Feature","properties":{"situacao":"dispensada","interessado":"JOILSON ROCHA NUNES ","municipio":"FUNDAO","processo":null,"finalidade":"TERRA","area_alagada_ha":"0,72","volume_m3":"5271"},"geometry":{"type":"Point","coordinates":[-40.37696286,-19.93088089]}},{"type":"Feature","properties":{"situacao":"dispensada","interessado":"DILCIMAR DE MORAES","municipio":"SERRA","processo":null,"finalidade":"TERRA","area_alagada_ha":"0,51","volume_m3":"5.113"},"geometry":{"type":"Point","coordinates":[-40.42816983,-20.10775177]}},{"type":"Feature","properties":{"situacao":"dispensada","interessado":"DORLI ALBERTO LUTSKE","municipio":"CARIACICA","processo":null,"finalidade":"TERRA","area_alagada_ha":"0,34","volume_m3":"5.100"},"geometry":{"type":"Point","coordinates":[-40.60320049,-20.26541405]}},{"type":"Feature","properties":{"situacao":"dispensada","interessado":"LINDAURA WAGNER SCHIMITEL","municipio":"FUNDAO","processo":null,"finalidade":"TERRA","area_alagada_ha":"0,25","volume_m3":"5.000"},"geometry":{"type":"Point","coordinates":[-40.45500699,-19.95727213]}},{"type":"Feature","properties":{"situacao":"dispensada","interessado":"VALTER MARCHIORI","municipio":"FUNDAO","processo":null,"finalidade":"TERRA","area_alagada_ha":"0,48","volume_m3":"4941,64"},"geometry":{"type":"Point","coordinates":[-40.44118388,-19.9743969]}},{"type":"Feature","properties":{"situacao":"dispensada","interessado":"CARLOS AUGUSTO ZANETTI","municipio":"FUNDAO","processo":null,"finalidade":"TERRA","area_alagada_ha":"0,94035","volume_m3":"4.866,30"},"geometry":{"type":"Point","coordinates":[-40.39314588,-19.98524284]}},{"type":"Feature","properties":{"situacao":"dispensada","interessado":"LAERCIO JORGE ZINGER","municipio":"FUNDAO","processo":null,"finalidade":"TERRA","area_alagada_ha":"0,4","volume_m3":"4860"},"geometry":{"type":"Point","coordinates":[-40.4157002,-19.94570045]}},{"type":"Feature","properties":{"situacao":"dispensada","interessado":"RUDELEI ANGELO DEGASPERI","municipio":"SERRA","processo":null,"finalidade":"TERRA","area_alagada_ha":"0,27","volume_m3":"4860"},"geometry":{"type":"Point","coordinates":[-40.41622329,-20.06506984]}},{"type":"Feature","properties":{"situacao":"dispensada","interessado":"JOSE ROCHA DE JESUS","municipio":"SERRA","processo":null,"finalidade":"TERRA","area_alagada_ha":"0,24","volume_m3":"4832"},"geometry":{"type":"Point","coordinates":[-40.40943999,-20.06566615]}},{"type":"Feature","properties":{"situacao":"dispensada","interessado":"CARLOS AUGUSTO ZANETTI","municipio":"FUNDAO","processo":null,"finalidade":"TERRA","area_alagada_ha":"0,88215","volume_m3":"4.763,60"},"geometry":{"type":"Point","coordinates":[-40.38777193,-19.98598066]}},{"type":"Feature","properties":{"situacao":"dispensada","interessado":"MOISES TARCISIO FALQUETO","municipio":"SERRA","processo":null,"finalidade":"TERRA","area_alagada_ha":"0,47","volume_m3":"4.700"},"geometry":{"type":"Point","coordinates":[-40.30654944,-20.14317117]}},{"type":"Feature","properties":{"situacao":"dispensada","interessado":"FERNANDO CORTELETTI E /OUTROS","municipio":"SERRA","processo":null,"finalidade":"TERRA","area_alagada_ha":"0,51705","volume_m3":"4.653,45"},"geometry":{"type":"Point","coordinates":[-40.40005553,-20.07376343]}},{"type":"Feature","properties":{"situacao":"dispensada","interessado":"WESLEY FERNANDES DE OLIVEIRA","municipio":"FUNDAO","processo":null,"finalidade":"TERRA","area_alagada_ha":"0,233","volume_m3":"4543,5"},"geometry":{"type":"Point","coordinates":[-40.37976161,-19.90881441]}},{"type":"Feature","properties":{"situacao":"dispensada","interessado":"DARLY RODRIGUES RAMOS","municipio":"FUNDAO","processo":null,"finalidade":"CONCRETO","area_alagada_ha":"0,22","volume_m3":"4.400"},"geometry":{"type":"Point","coordinates":[-40.40639892,-19.9257084]}},{"type":"Feature","properties":{"situacao":"dispensada","interessado":"ANTONIO CESAR ZANONE","municipio":"SERRA","processo":null,"finalidade":"TERRA","area_alagada_ha":"0,42","volume_m3":"4200"},"geometry":{"type":"Point","coordinates":[-40.40714008,-20.08865925]}},{"type":"Feature","properties":{"situacao":"dispensada","interessado":"JCC SERVICOS IMOBILIARIOS LTDA","municipio":"FUNDAO","processo":null,"finalidade":"TERRA","area_alagada_ha":"0,27","volume_m3":"4171,9"},"geometry":{"type":"Point","coordinates":[-40.3479641,-20.02258041]}},{"type":"Feature","properties":{"situacao":"dispensada","interessado":"PAULO MENDES PECANHA ","municipio":"FUNDAO","processo":null,"finalidade":"TERRA","area_alagada_ha":"0,59","volume_m3":"4057"},"geometry":{"type":"Point","coordinates":[-40.41427039,-19.96322995]}},{"type":"Feature","properties":{"situacao":"dispensada","interessado":"RICARDO JOSE SOBREIRA NUNES","municipio":"VILA VELHA","processo":null,"finalidade":"TERRA","area_alagada_ha":"0,27","volume_m3":"4050"},"geometry":{"type":"Point","coordinates":[-40.37158573,-20.42224683]}},{"type":"Feature","properties":{"situacao":"dispensada","interessado":"PARSEC EMPREENDIMENTOS EIRELI-EPP","municipio":"CARIACICA","processo":null,"finalidade":"TERRA","area_alagada_ha":"0,18","volume_m3":"4.000"},"geometry":{"type":"Point","coordinates":[-40.38494787,-20.39255389]}},{"type":"Feature","properties":{"situacao":"dispensada","interessado":"EVANDRO ZENI NUNES ","municipio":"FUNDAO","processo":null,"finalidade":"TERRA","area_alagada_ha":"0,27","volume_m3":"3970"},"geometry":{"type":"Point","coordinates":[-40.39465537,-20.01448508]}},{"type":"Feature","properties":{"situacao":"dispensada","interessado":"ALESSANDRO RUDIO BORGES","municipio":"FUNDAO","processo":null,"finalidade":"TERRA","area_alagada_ha":"0,3","volume_m3":"3910,61"},"geometry":{"type":"Point","coordinates":[-40.41237503,-19.98644588]}},{"type":"Feature","properties":{"situacao":"dispensada","interessado":"OLIVIO GAVAZZA PEDRONI","municipio":"FUNDAO","processo":null,"finalidade":"TERRA","area_alagada_ha":"0,26","volume_m3":"3.900"},"geometry":{"type":"Point","coordinates":[-40.42410378,-19.93565003]}},{"type":"Feature","properties":{"situacao":"dispensada","interessado":"ANTONIO RODRIGUES ALVARENGA","municipio":"FUNDAO","processo":null,"finalidade":"TERRA","area_alagada_ha":"0,22","volume_m3":"3750"},"geometry":{"type":"Point","coordinates":[-40.42818803,-19.95743574]}},{"type":"Feature","properties":{"situacao":"dispensada","interessado":"ZORZAL TERRAPLANAGEM E LOCACÕES LTDA","municipio":"CARIACICA","processo":null,"finalidade":"TERRA","area_alagada_ha":"0,25","volume_m3":"3.750"},"geometry":{"type":"Point","coordinates":[-40.37478038,-20.26670436]}},{"type":"Feature","properties":{"situacao":"dispensada","interessado":"RANIERE MEDANI","municipio":"FUNDAO","processo":null,"finalidade":"TERRA","area_alagada_ha":"0,5678","volume_m3":"3.654"},"geometry":{"type":"Point","coordinates":[-40.38513292,-19.90916115]}},{"type":"Feature","properties":{"situacao":"dispensada","interessado":"JOILSON ROCHA NUNES ","municipio":"FUNDAO","processo":null,"finalidade":"TERRA","area_alagada_ha":"0,55","volume_m3":"3634"},"geometry":{"type":"Point","coordinates":[-40.3764701,-19.93244772]}},{"type":"Feature","properties":{"situacao":"dispensada","interessado":"LEITE E ALMEIDA AGROPECUARIA","municipio":"GUARAPARI","processo":null,"finalidade":"TERRA","area_alagada_ha":"0,55","volume_m3":"3630,6"},"geometry":{"type":"Point","coordinates":[-40.63138446,-20.59535391]}},{"type":"Feature","properties":{"situacao":"dispensada","interessado":"MARIO CEZAR GIURIZZATO","municipio":"FUNDAO","processo":null,"finalidade":"TERRA","area_alagada_ha":"0,25","volume_m3":"3600"},"geometry":{"type":"Point","coordinates":[-40.44411944,-19.96201382]}},{"type":"Feature","properties":{"situacao":"dispensada","interessado":"CARLOS AUGUSTO TOFOLI","municipio":"FUNDAO","processo":null,"finalidade":"TERRA","area_alagada_ha":"0,2877","volume_m3":"3452"},"geometry":{"type":"Point","coordinates":[-40.42160086,-19.96873667]}},{"type":"Feature","properties":{"situacao":"dispensada","interessado":"JAIRO ANTONIO DE ALMEIDA","municipio":"FUNDAO","processo":null,"finalidade":"CONCRETO","area_alagada_ha":"0,7","volume_m3":"3423"},"geometry":{"type":"Point","coordinates":[-40.38152228,-19.91246885]}},{"type":"Feature","properties":{"situacao":"dispensada","interessado":"NEUCIMAR ALBERTO LUCAS","municipio":"FUNDAO","processo":null,"finalidade":"TERRA","area_alagada_ha":"0,34","volume_m3":"3400"},"geometry":{"type":"Point","coordinates":[-40.42156652,-19.93502889]}},{"type":"Feature","properties":{"situacao":"dispensada","interessado":"AUDINETE ANDRADE COSTA","municipio":"FUNDAO","processo":null,"finalidade":"TERRA","area_alagada_ha":"0,34","volume_m3":"3374"},"geometry":{"type":"Point","coordinates":[-40.34186208,-19.99513397]}},{"type":"Feature","properties":{"situacao":"dispensada","interessado":"DANIELLE TEIXEIRA PEDRINI","municipio":"FUNDAO","processo":null,"finalidade":"TERRA","area_alagada_ha":"0,215","volume_m3":"3231"},"geometry":{"type":"Point","coordinates":[-40.4100014,-19.95918027]}},{"type":"Feature","properties":{"situacao":"dispensada","interessado":"JANIA CLAUDIA CORREIA","municipio":"FUNDAO","processo":null,"finalidade":"TERRA","area_alagada_ha":"0,2466","volume_m3":"3208"},"geometry":{"type":"Point","coordinates":[-40.36656717,-19.95735168]}},{"type":"Feature","properties":{"situacao":"dispensada","interessado":"ANGELO EVILASIO PUPPIN","municipio":"GUARAPARI","processo":null,"finalidade":"TERRA","area_alagada_ha":"0,23","volume_m3":"3197"},"geometry":{"type":"Point","coordinates":[-40.60040763,-20.56044012]}},{"type":"Feature","properties":{"situacao":"dispensada","interessado":"RICARDO JOSE SOBREIRA NUNES","municipio":"VILA VELHA","processo":null,"finalidade":"TERRA","area_alagada_ha":"0,21","volume_m3":"3150"},"geometry":{"type":"Point","coordinates":[-40.37497979,-20.42025963]}},{"type":"Feature","properties":{"situacao":"dispensada","interessado":"JOSE RACANELLI","municipio":"FUNDAO","processo":null,"finalidade":"CONCRETO","area_alagada_ha":"0,2412","volume_m3":"3135,6"},"geometry":{"type":"Point","coordinates":[-40.41778107,-19.95404085]}},{"type":"Feature","properties":{"situacao":"dispensada","interessado":"ADORIS ZANI DE CARLI","municipio":"FUNDAO","processo":null,"finalidade":"TERRA","area_alagada_ha":"0,48","volume_m3":"3059"},"geometry":{"type":"Point","coordinates":[-40.39073124,-19.9529177]}},{"type":"Feature","properties":{"situacao":"dispensada","interessado":"FALQUETO PARTICIPACÕES LTDA","municipio":"SERRA","processo":null,"finalidade":"TERRA","area_alagada_ha":"0,23","volume_m3":"3.031"},"geometry":{"type":"Point","coordinates":[-40.29989348,-20.09136077]}},{"type":"Feature","properties":{"situacao":"dispensada","interessado":"WASHINGTON DOS SANTOS","municipio":"SERRA","processo":null,"finalidade":"TERRA","area_alagada_ha":"0,3","volume_m3":"3000"},"geometry":{"type":"Point","coordinates":[-40.36152897,-20.08693895]}},{"type":"Feature","properties":{"situacao":"dispensada","interessado":"MARLI DA PENHA BOSCHETTI","municipio":"GUARAPARI","processo":null,"finalidade":"TERRA","area_alagada_ha":"0,14","volume_m3":"3.000"},"geometry":{"type":"Point","coordinates":[-40.58482656,-20.55254361]}},{"type":"Feature","properties":{"situacao":"dispensada","interessado":"DULCINEIA BRAGA DEMUNER","municipio":"SERRA","processo":null,"finalidade":"TERRA","area_alagada_ha":"0,27","volume_m3":"2996"},"geometry":{"type":"Point","coordinates":[-40.42571742,-20.08512227]}},{"type":"Feature","properties":{"situacao":"dispensada","interessado":"ROSALINA AIGNER","municipio":"VIANA","processo":null,"finalidade":"TERRA","area_alagada_ha":"0,0846","volume_m3":"2962,4"},"geometry":{"type":"Point","coordinates":[-40.54021358,-20.31333463]}},{"type":"Feature","properties":{"situacao":"dispensada","interessado":"EDMILTON RIBEIRO AGUIAR JUNIOR","municipio":"GUARAPARI","processo":null,"finalidade":"TERRA","area_alagada_ha":"0,2","volume_m3":"2.960"},"geometry":{"type":"Point","coordinates":[-40.63434964,-20.66462002]}},{"type":"Feature","properties":{"situacao":"dispensada","interessado":"ALESSANDRO RUDIO BORGES","municipio":"FUNDAO","processo":null,"finalidade":"TERRA","area_alagada_ha":"0,45","volume_m3":"2900"},"geometry":{"type":"Point","coordinates":[-40.42164809,-19.99637301]}},{"type":"Feature","properties":{"situacao":"dispensada","interessado":"DARLI DOMINGOS DE CARLI AGOSTINI","municipio":"FUNDAO","processo":null,"finalidade":"TERRA","area_alagada_ha":"0,19","volume_m3":"2.850"},"geometry":{"type":"Point","coordinates":[-40.37918684,-19.91743802]}},{"type":"Feature","properties":{"situacao":"dispensada","interessado":"MARLI DA PENHA BOSCHETTI","municipio":"GUARAPARI","processo":null,"finalidade":"TERRA","area_alagada_ha":"0,14","volume_m3":"2.800"},"geometry":{"type":"Point","coordinates":[-40.58413179,-20.55213442]}},{"type":"Feature","properties":{"situacao":"dispensada","interessado":"JOSE PAULO MACICI JUNIOR","municipio":"FUNDAO","processo":null,"finalidade":"TERRA","area_alagada_ha":"0,4062","volume_m3":"2742,19"},"geometry":{"type":"Point","coordinates":[-40.38542622,-19.95048367]}},{"type":"Feature","properties":{"situacao":"dispensada","interessado":"CONRADO JOSE VIEIRA","municipio":"FUNDAO","processo":null,"finalidade":"TERRA","area_alagada_ha":"0,85","volume_m3":"2667"},"geometry":{"type":"Point","coordinates":[-40.38793589,-20.01340855]}},{"type":"Feature","properties":{"situacao":"dispensada","interessado":"CONRADO JOSE VIEIRA","municipio":"FUNDAO","processo":null,"finalidade":"TERRA","area_alagada_ha":"0,3","volume_m3":"2667"},"geometry":{"type":"Point","coordinates":[-40.38865424,-20.01139723]}},{"type":"Feature","properties":{"situacao":"dispensada","interessado":"FRANCISCO RUSSIN DE ABREU","municipio":"FUNDAO","processo":null,"finalidade":"TERRA","area_alagada_ha":"0,16","volume_m3":"2640"},"geometry":{"type":"Point","coordinates":[-40.37926791,-19.90144587]}},{"type":"Feature","properties":{"situacao":"dispensada","interessado":"VITOR EDSON FERREIRA RODRIGUES","municipio":"SERRA","processo":null,"finalidade":"TERRA","area_alagada_ha":"0,37","volume_m3":"2.611"},"geometry":{"type":"Point","coordinates":[-40.26702061,-20.1182798]}},{"type":"Feature","properties":{"situacao":"dispensada","interessado":"AFONSO CARLOS FAVARATO","municipio":"SERRA","processo":null,"finalidade":"TERRA","area_alagada_ha":"0,17","volume_m3":"2.527"},"geometry":{"type":"Point","coordinates":[-40.32602694,-20.07848161]}},{"type":"Feature","properties":{"situacao":"dispensada","interessado":"DORY NUNES DO AMARAL PEREIRA JUNIOR","municipio":"SERRA","processo":null,"finalidade":"TERRA","area_alagada_ha":"0,23","volume_m3":"2.300"},"geometry":{"type":"Point","coordinates":[-40.3429729,-20.10890887]}},{"type":"Feature","properties":{"situacao":"dispensada","interessado":"GILVANDRO BROETTO","municipio":"FUNDAO","processo":null,"finalidade":"TERRA","area_alagada_ha":"0,15","volume_m3":"2250"},"geometry":{"type":"Point","coordinates":[-40.39498471,-19.91610412]}},{"type":"Feature","properties":{"situacao":"dispensada","interessado":"COMP. ESPIRITO SANTENSE DE SANEAMENTO-CESAN","municipio":"GUARAPARI","processo":null,"finalidade":"MISTA","area_alagada_ha":"0,26","volume_m3":"2240"},"geometry":{"type":"Point","coordinates":[-40.68086668,-20.68529219]}},{"type":"Feature","properties":{"situacao":"dispensada","interessado":"REINALDO SOARES AREAS","municipio":"GUARAPARI","processo":null,"finalidade":"TERRA","area_alagada_ha":"0,22","volume_m3":"2.178"},"geometry":{"type":"Point","coordinates":[-40.58227808,-20.54907997]}},{"type":"Feature","properties":{"situacao":"dispensada","interessado":"PAULO MENDES PECANHA ","municipio":"FUNDAO","processo":null,"finalidade":"TERRA","area_alagada_ha":"0,31","volume_m3":"2022"},"geometry":{"type":"Point","coordinates":[-40.4139017,-19.96045926]}},{"type":"Feature","properties":{"situacao":"dispensada","interessado":"WESLEY FERNANDES DE OLIVEIRA","municipio":"FUNDAO","processo":null,"finalidade":"TERRA","area_alagada_ha":"0,0956","volume_m3":"2007"},"geometry":{"type":"Point","coordinates":[-40.37901464,-19.90859433]}},{"type":"Feature","properties":{"situacao":"dispensada","interessado":"COMP. ESPIRITO SANTENSE DE SANEAMENTO-CESAN","municipio":"GUARAPARI","processo":null,"finalidade":"CONCRETO","area_alagada_ha":"0,19","volume_m3":"2000"},"geometry":{"type":"Point","coordinates":[-40.55342336,-20.61104942]}},{"type":"Feature","properties":{"situacao":"dispensada","interessado":"COMP. ESPIRITO SANTENSE DE SANEAMENTO-CESAN","municipio":"GUARAPARI","processo":null,"finalidade":"CONCRETO","area_alagada_ha":"0,17","volume_m3":"2000"},"geometry":{"type":"Point","coordinates":[-40.54124218,-20.64480852]}},{"type":"Feature","properties":{"situacao":"dispensada","interessado":"EDSON FERREIRA DIAS","municipio":"CARIACICA","processo":null,"finalidade":"TERRA","area_alagada_ha":"0,08","volume_m3":"2000"},"geometry":{"type":"Point","coordinates":[-40.41162114,-20.24984253]}},{"type":"Feature","properties":{"situacao":"dispensada","interessado":"PARSEC EMPREENDIMENTOS EIRELI-EPP","municipio":"CARIACICA","processo":null,"finalidade":"TERRA","area_alagada_ha":"0,0893","volume_m3":"2.000"},"geometry":{"type":"Point","coordinates":[-40.38507466,-20.39173076]}},{"type":"Feature","properties":{"situacao":"dispensada","interessado":"REINALDO SOARES AREAS","municipio":"GUARAPARI","processo":null,"finalidade":"TERRA","area_alagada_ha":"0,18","volume_m3":"1.950"},"geometry":{"type":"Point","coordinates":[-40.58208416,-20.54235177]}},{"type":"Feature","properties":{"situacao":"dispensada","interessado":"JOSE VALDIMIR SACCANI","municipio":"FUNDAO ","processo":null,"finalidade":"TERRA","area_alagada_ha":"0,0767","volume_m3":"1.917,50"},"geometry":{"type":"Point","coordinates":[-40.44478355,-19.94469828]}},{"type":"Feature","properties":{"situacao":"dispensada","interessado":"ALESSANDRO RUDIO BORGES","municipio":"FUNDAO","processo":null,"finalidade":"TERRA","area_alagada_ha":"0,17","volume_m3":"1890"},"geometry":{"type":"Point","coordinates":[-40.39285593,-19.97943584]}},{"type":"Feature","properties":{"situacao":"dispensada","interessado":"THOMAZ DA SILVA","municipio":"VIANA","processo":null,"finalidade":"TERRA","area_alagada_ha":"0,092","volume_m3":"1836"},"geometry":{"type":"Point","coordinates":[-40.53163418,-20.30855876]}},{"type":"Feature","properties":{"situacao":"dispensada","interessado":"UILTON MARCIANO NUNES SIMÕES","municipio":"FUNDAO","processo":null,"finalidade":"TERRA","area_alagada_ha":"0,2","volume_m3":"1.800"},"geometry":{"type":"Point","coordinates":[-40.42632419,-19.97542951]}},{"type":"Feature","properties":{"situacao":"dispensada","interessado":"ROGERIO BODART RANGEL","municipio":"GUARAPARI","processo":null,"finalidade":"CONCRETO","area_alagada_ha":"0,15","volume_m3":"1800"},"geometry":{"type":"Point","coordinates":[-40.58197967,-20.6057407]}},{"type":"Feature","properties":{"situacao":"dispensada","interessado":"BRUNO SUBTIL","municipio":"GUARAPARI","processo":null,"finalidade":"TERRA","area_alagada_ha":"0,12","volume_m3":"1.800"},"geometry":{"type":"Point","coordinates":[-40.54675759,-20.51223632]}},{"type":"Feature","properties":{"situacao":"dispensada","interessado":"JOSE AUREO RIBEIRO","municipio":"FUNDAO","processo":null,"finalidade":"TERRA","area_alagada_ha":"0,1","volume_m3":"1750"},"geometry":{"type":"Point","coordinates":[-40.3666535,-19.9596097]}},{"type":"Feature","properties":{"situacao":"dispensada","interessado":"WALACE GUIMARAES AZEVEDO","municipio":"GUARAPARI","processo":null,"finalidade":"TERRA","area_alagada_ha":"0,115","volume_m3":"1725"},"geometry":{"type":"Point","coordinates":[-40.67667739,-20.48479701]}},{"type":"Feature","properties":{"situacao":"dispensada","interessado":"VITOR EDSON FERREIRA RODRIGUES","municipio":"SERRA","processo":null,"finalidade":"TERRA","area_alagada_ha":"0,33","volume_m3":"1.646"},"geometry":{"type":"Point","coordinates":[-40.271307,-20.11487894]}},{"type":"Feature","properties":{"situacao":"dispensada","interessado":"MOISES TARCISIO FALQUETO","municipio":"SERRA","processo":null,"finalidade":"TERRA","area_alagada_ha":"0,16","volume_m3":"1.626"},"geometry":{"type":"Point","coordinates":[-40.30550004,-20.14352227]}},{"type":"Feature","properties":{"situacao":"dispensada","interessado":"ISMAEL FERNANDES DE ALMEIDA","municipio":"FUNDAO","processo":null,"finalidade":"TERRA","area_alagada_ha":"0,08","volume_m3":"1600"},"geometry":{"type":"Point","coordinates":[-40.39730363,-19.96687884]}},{"type":"Feature","properties":{"situacao":"dispensada","interessado":"VITOR EDSON FERREIRA RODRIGUES","municipio":"SERRA","processo":null,"finalidade":"TERRA","area_alagada_ha":"0,22","volume_m3":"1.547"},"geometry":{"type":"Point","coordinates":[-40.26960405,-20.11957127]}},{"type":"Feature","properties":{"situacao":"dispensada","interessado":"EDIMAR NUNES","municipio":"SERRA","processo":null,"finalidade":"TERRA","area_alagada_ha":"0,15","volume_m3":"1.523"},"geometry":{"type":"Point","coordinates":[-40.42369765,-20.08489464]}},{"type":"Feature","properties":{"situacao":"dispensada","interessado":"SILVERIO JOSE SACCANI","municipio":"FUNDAO","processo":null,"finalidade":"TERRA","area_alagada_ha":"0,0563","volume_m3":"1407,5"},"geometry":{"type":"Point","coordinates":[-40.44100864,-19.93931726]}},{"type":"Feature","properties":{"situacao":"dispensada","interessado":"RANIERE MEDANI","municipio":"FUNDAO","processo":null,"finalidade":"TERRA","area_alagada_ha":"0,14","volume_m3":"1400"},"geometry":{"type":"Point","coordinates":[-40.38841589,-19.92523543]}},{"type":"Feature","properties":{"situacao":"dispensada","interessado":"PABLO DARE PEREIRA","municipio":"SERRA","processo":null,"finalidade":"CONCRETO","area_alagada_ha":"0,2221","volume_m3":"1.332"},"geometry":{"type":"Point","coordinates":[-40.37726541,-20.02181278]}},{"type":"Feature","properties":{"situacao":"dispensada","interessado":"UILTON MARCIANO NUNES SIMÕES","municipio":"FUNDAO","processo":null,"finalidade":"TERRA","area_alagada_ha":"0,13","volume_m3":"1.300"},"geometry":{"type":"Point","coordinates":[-40.42700611,-19.97581251]}},{"type":"Feature","properties":{"situacao":"dispensada","interessado":"RENAN LUIZ FERREIRA","municipio":"SERRA","processo":null,"finalidade":"TERRA","area_alagada_ha":"0,24","volume_m3":"1297"},"geometry":{"type":"Point","coordinates":[-40.36483131,-20.06741671]}},{"type":"Feature","properties":{"situacao":"dispensada","interessado":"EDIMAR NUNES","municipio":"SERRA","processo":null,"finalidade":"TERRA","area_alagada_ha":"0,14","volume_m3":"1.260"},"geometry":{"type":"Point","coordinates":[-40.42013003,-20.08374889]}},{"type":"Feature","properties":{"situacao":"dispensada","interessado":"EDIVAN BROETTO","municipio":"FUNDAO","processo":null,"finalidade":"TERRA","area_alagada_ha":"0,22","volume_m3":"1244,62"},"geometry":{"type":"Point","coordinates":[-40.38880687,-19.91531225]}},{"type":"Feature","properties":{"situacao":"dispensada","interessado":"WENDERSON FIALHO SILVA","municipio":"GUARAPARI","processo":null,"finalidade":"TERRA","area_alagada_ha":"0,07","volume_m3":"1200"},"geometry":{"type":"Point","coordinates":[-40.53696513,-20.62696922]}},{"type":"Feature","properties":{"situacao":"dispensada","interessado":"FALQUETO PARTICIPACÕES LTDA","municipio":"SERRA","processo":null,"finalidade":"TERRA","area_alagada_ha":"0,1","volume_m3":"1200"},"geometry":{"type":"Point","coordinates":[-40.30539647,-20.1437218]}},{"type":"Feature","properties":{"situacao":"dispensada","interessado":"ARISTEVO BRASSAMINI LOZADA","municipio":"GUARAPARI","processo":null,"finalidade":"TERRA","area_alagada_ha":"0,09","volume_m3":"1200"},"geometry":{"type":"Point","coordinates":[-40.5777181,-20.52434257]}},{"type":"Feature","properties":{"situacao":"dispensada","interessado":"AUREO BUZATTO","municipio":"GUARAPARI","processo":null,"finalidade":"TERRA","area_alagada_ha":"0,055","volume_m3":"1.200"},"geometry":{"type":"Point","coordinates":[-40.5652355,-20.55285723]}},{"type":"Feature","properties":{"situacao":"dispensada","interessado":"EDENIS ANTUNES DE CASTRO","municipio":"SERRA","processo":null,"finalidade":"TERRA","area_alagada_ha":"0,1","volume_m3":"1.160"},"geometry":{"type":"Point","coordinates":[-40.32634379,-20.0797712]}},{"type":"Feature","properties":{"situacao":"dispensada","interessado":"JOSE PAULO MACICI JUNIOR","municipio":"FUNDAO","processo":null,"finalidade":"TERRA","area_alagada_ha":"0,26","volume_m3":"1154,7"},"geometry":{"type":"Point","coordinates":[-40.38214914,-19.95269561]}},{"type":"Feature","properties":{"situacao":"dispensada","interessado":"JESSE DO CARMO CALIXTO","municipio":"FUNDAO","processo":null,"finalidade":"TERRA","area_alagada_ha":"0,24","volume_m3":"1112"},"geometry":{"type":"Point","coordinates":[-40.3863069,-20.01403567]}},{"type":"Feature","properties":{"situacao":"dispensada","interessado":"PAULO MENDES PECANHA ","municipio":"FUNDAO","processo":null,"finalidade":"TERRA","area_alagada_ha":"0,35","volume_m3":"1093,6"},"geometry":{"type":"Point","coordinates":[-40.41888722,-19.96234384]}},{"type":"Feature","properties":{"situacao":"dispensada","interessado":"COMP. ESPIRITO SANTENSE DE SANEAMENTO-CESAN","municipio":"VIANA","processo":null,"finalidade":"CONCRETO","area_alagada_ha":"0,075","volume_m3":"1058"},"geometry":{"type":"Point","coordinates":[-40.51551982,-20.37261413]}},{"type":"Feature","properties":{"situacao":"dispensada","interessado":"SAMUEL DAVI NOGAROL","municipio":"GUARAPARI","processo":null,"finalidade":"TERRA","area_alagada_ha":"0,08","volume_m3":"1000"},"geometry":{"type":"Point","coordinates":[-40.60961396,-20.70718264]}},{"type":"Feature","properties":{"situacao":"dispensada","interessado":"JOSE RAIMUNDO DOS SANTOS","municipio":"GUARAPARI","processo":null,"finalidade":"TERRA","area_alagada_ha":"0,08","volume_m3":"1000"},"geometry":{"type":"Point","coordinates":[-40.52109016,-20.64687532]}},{"type":"Feature","properties":{"situacao":"dispensada","interessado":"PARSEC EMPREENDIMENTOS EIRELI-EPP","municipio":"CARIACICA","processo":null,"finalidade":"TERRA","area_alagada_ha":"0,0322","volume_m3":"1.000"},"geometry":{"type":"Point","coordinates":[-40.38530941,-20.39119587]}},{"type":"Feature","properties":{"situacao":"dispensada","interessado":"LAJE EMPREENDIMENTOS MOBILIARIOS LTDA","municipio":"SERRA","processo":null,"finalidade":"TERRA","area_alagada_ha":"0,17","volume_m3":"961"},"geometry":{"type":"Point","coordinates":[-40.39966556,-20.0308614]}},{"type":"Feature","properties":{"situacao":"dispensada","interessado":"LUIS HENRIQUE SILVA DE OLIVEIRA","municipio":"GUARAPARI","processo":null,"finalidade":"TERRA","area_alagada_ha":"0,09","volume_m3":"950"},"geometry":{"type":"Point","coordinates":[-40.55294841,-20.5612968]}},{"type":"Feature","properties":{"situacao":"dispensada","interessado":"EDVANDRO DA SILVA MANDELI","municipio":"FUNDAO","processo":null,"finalidade":"TERRA","area_alagada_ha":"0,45","volume_m3":"900"},"geometry":{"type":"Point","coordinates":[-40.36055065,-19.92537864]}},{"type":"Feature","properties":{"situacao":"dispensada","interessado":"THIAGO BELSHOFF","municipio":"GUARAPARI","processo":null,"finalidade":"TERRA","area_alagada_ha":"0,07","volume_m3":"900"},"geometry":{"type":"Point","coordinates":[-40.53492413,-20.57264115]}},{"type":"Feature","properties":{"situacao":"dispensada","interessado":"JOAO LUIZ DE LAIA","municipio":"FUNDAO","processo":null,"finalidade":"TERRA","area_alagada_ha":"0,13","volume_m3":"886"},"geometry":{"type":"Point","coordinates":[-40.43955704,-19.93094497]}},{"type":"Feature","properties":{"situacao":"dispensada","interessado":"ISMAEL FERNANDES DE ALMEIDA","municipio":"FUNDAO ","processo":null,"finalidade":"TERRA","area_alagada_ha":"0,031","volume_m3":"825"},"geometry":{"type":"Point","coordinates":[-40.3971857,-19.96650935]}},{"type":"Feature","properties":{"situacao":"dispensada","interessado":"JOAO LUIZ DE LAIA","municipio":"FUNDAO","processo":null,"finalidade":"TERRA","area_alagada_ha":"0,1","volume_m3":"823,5"},"geometry":{"type":"Point","coordinates":[-40.4386756,-19.93172004]}},{"type":"Feature","properties":{"situacao":"dispensada","interessado":"EDIMAR NUNES","municipio":"SERRA","processo":null,"finalidade":"TERRA","area_alagada_ha":"0,1","volume_m3":"800"},"geometry":{"type":"Point","coordinates":[-40.41941183,-20.08788342]}},{"type":"Feature","properties":{"situacao":"dispensada","interessado":"ITAMAR LUIZ ALEPRANDI","municipio":"FUNDAO","processo":null,"finalidade":"TERRA","area_alagada_ha":"0,5","volume_m3":"780"},"geometry":{"type":"Point","coordinates":[-40.49388753,-19.85169827]}},{"type":"Feature","properties":{"situacao":"dispensada","interessado":"ROSA MARIA PEREIRA MEDEIROS","municipio":"FUNDAO","processo":null,"finalidade":"TERRA","area_alagada_ha":"0,05","volume_m3":"750"},"geometry":{"type":"Point","coordinates":[-40.33560821,-20.0264506]}},{"type":"Feature","properties":{"situacao":"dispensada","interessado":"ADEILSON MINCHIO BROETTO","municipio":"FUNDAO","processo":null,"finalidade":"TERRA","area_alagada_ha":"0,53","volume_m3":"743"},"geometry":{"type":"Point","coordinates":[-40.38932592,-19.91130582]}},{"type":"Feature","properties":{"situacao":"dispensada","interessado":"FALQUETO PARTICIPACÕES LTDA","municipio":"SERRA","processo":null,"finalidade":"TERRA","area_alagada_ha":"0,07","volume_m3":"711"},"geometry":{"type":"Point","coordinates":[-40.30001634,-20.08538786]}},{"type":"Feature","properties":{"situacao":"dispensada","interessado":"ELIO BAHIA SOUZA","municipio":"FUNDAO","processo":null,"finalidade":"TERRA","area_alagada_ha":"0,12","volume_m3":"700"},"geometry":{"type":"Point","coordinates":[-40.36055075,-19.945472]}},{"type":"Feature","properties":{"situacao":"dispensada","interessado":"HELIO JOSE VOLKERS","municipio":"CARIACICA","processo":null,"finalidade":"TERRA","area_alagada_ha":"0,05","volume_m3":"656,4"},"geometry":{"type":"Point","coordinates":[-40.56304323,-20.29426049]}},{"type":"Feature","properties":{"situacao":"dispensada","interessado":"MOISES TARCISIO FALQUETO","municipio":"SERRA","processo":null,"finalidade":"TERRA","area_alagada_ha":"0,06","volume_m3":"614,89"},"geometry":{"type":"Point","coordinates":[-40.30497298,-20.14456517]}},{"type":"Feature","properties":{"situacao":"dispensada","interessado":"JONAS DE PAULA BATISTA","municipio":"SERRA","processo":null,"finalidade":"TERRA","area_alagada_ha":"0,06","volume_m3":"600"},"geometry":{"type":"Point","coordinates":[-40.33223705,-20.09592609]}},{"type":"Feature","properties":{"situacao":"dispensada","interessado":"FALQUETO PARTICIPACÕES LTDA","municipio":"SERRA","processo":null,"finalidade":"TERRA","area_alagada_ha":"0,05","volume_m3":"600"},"geometry":{"type":"Point","coordinates":[-40.30486903,-20.14471953]}},{"type":"Feature","properties":{"situacao":"dispensada","interessado":"RUDELEI ANGELO DEGASPERI","municipio":"SERRA","processo":null,"finalidade":"TERRA","area_alagada_ha":"0,06","volume_m3":"600"},"geometry":{"type":"Point","coordinates":[-40.41584216,-20.06521745]}},{"type":"Feature","properties":{"situacao":"dispensada","interessado":"IVONE DA ROCHA SOUZA RIBEIRO","municipio":"GUARAPARI","processo":null,"finalidade":"TERRA","area_alagada_ha":"0,05","volume_m3":"550"},"geometry":{"type":"Point","coordinates":[-40.53547983,-20.59749676]}},{"type":"Feature","properties":{"situacao":"dispensada","interessado":"ALESSANDRO RUDIO BORGES","municipio":"FUNDAO","processo":null,"finalidade":"TERRA","area_alagada_ha":"0,05","volume_m3":"540"},"geometry":{"type":"Point","coordinates":[-40.42276481,-19.99514439]}},{"type":"Feature","properties":{"situacao":"dispensada","interessado":"COMP. ESPIRITO SANTENSE DE SANEAMENTO-CESAN","municipio":"VIANA","processo":null,"finalidade":"CONCRETO","area_alagada_ha":"0,033","volume_m3":"494"},"geometry":{"type":"Point","coordinates":[-40.51656796,-20.34162775]}},{"type":"Feature","properties":{"situacao":"dispensada","interessado":"ADELSON CARLOS COMPER","municipio":"FUNDAO","processo":null,"finalidade":"TERRA","area_alagada_ha":"0,04","volume_m3":"465"},"geometry":{"type":"Point","coordinates":[-40.43804312,-19.89452078]}},{"type":"Feature","properties":{"situacao":"dispensada","interessado":"JACOMO PASSAMAI","municipio":"CARIACICA","processo":null,"finalidade":"TERRA","area_alagada_ha":"0,09","volume_m3":"450"},"geometry":{"type":"Point","coordinates":[-40.4245015,-20.24410098]}},{"type":"Feature","properties":{"situacao":"dispensada","interessado":"ISMAEL RODRIGUES OLIVEIRA SANTOS","municipio":"GUARAPARI","processo":null,"finalidade":"TERRA","area_alagada_ha":"0,07","volume_m3":"435"},"geometry":{"type":"Point","coordinates":[-40.58608459,-20.61302016]}},{"type":"Feature","properties":{"situacao":"dispensada","interessado":"COMP. ESPIRITO SANTENSE DE SANEAMENTO-CESAN","municipio":"VIANA","processo":null,"finalidade":"TERRA","area_alagada_ha":"0,037","volume_m3":"409"},"geometry":{"type":"Point","coordinates":[-40.4919622,-20.45311975]}},{"type":"Feature","properties":{"situacao":"dispensada","interessado":"FALQUETO PARTICIPACÕES LTDA","municipio":"SERRA","processo":null,"finalidade":"TERRA","area_alagada_ha":"0,0508","volume_m3":"406"},"geometry":{"type":"Point","coordinates":[-40.29796807,-20.08865546]}},{"type":"Feature","properties":{"situacao":"dispensada","interessado":"ROMILDO DE SOUZA FELIX","municipio":"GUARAPARI","processo":null,"finalidade":"TERRA","area_alagada_ha":"0,04","volume_m3":"400"},"geometry":{"type":"Point","coordinates":[-40.56226358,-20.66402342]}},{"type":"Feature","properties":{"situacao":"dispensada","interessado":"ROMIILDO DE SOUZA FELIX","municipio":"GUARAPARI","processo":null,"finalidade":"TERRA","area_alagada_ha":"0,04","volume_m3":"400"},"geometry":{"type":"Point","coordinates":[-40.56339831,-20.66236001]}},{"type":"Feature","properties":{"situacao":"dispensada","interessado":"MARCUS AURELIUS NEVES GOMES","municipio":"GUARAPARI","processo":null,"finalidade":"TERRA","area_alagada_ha":"0,2","volume_m3":"400"},"geometry":{"type":"Point","coordinates":[-40.44436057,-20.56232687]}},{"type":"Feature","properties":{"situacao":"dispensada","interessado":"ADELSON CARLOS COMPER","municipio":"FUNDAO","processo":null,"finalidade":"TERRA","area_alagada_ha":"0,04","volume_m3":"375"},"geometry":{"type":"Point","coordinates":[-40.44095314,-19.89523808]}},{"type":"Feature","properties":{"situacao":"dispensada","interessado":"FALQUETO PARTICIPACÕES LTDA","municipio":"SERRA","processo":null,"finalidade":"TERRA","area_alagada_ha":"0,0406","volume_m3":"366"},"geometry":{"type":"Point","coordinates":[-40.29682152,-20.08878134]}},{"type":"Feature","properties":{"situacao":"dispensada","interessado":"ASSOCIACAO DA COMUNIDADE AGRICOLA DO ES","municipio":"VIANA","processo":null,"finalidade":"TERRA","area_alagada_ha":"0,0685","volume_m3":"353,76"},"geometry":{"type":"Point","coordinates":[-40.55262784,-20.30312504]}},{"type":"Feature","properties":{"situacao":"dispensada","interessado":"ROMILDO DE SOUZA FELIX","municipio":"GUARAPARI","processo":null,"finalidade":"TERRA","area_alagada_ha":"0,035","volume_m3":"350"},"geometry":{"type":"Point","coordinates":[-40.56143528,-20.66374185]}},{"type":"Feature","properties":{"situacao":"dispensada","interessado":"ROMIILDO DE SOUZA FELIX","municipio":"GUARAPARI","processo":null,"finalidade":"TERRA","area_alagada_ha":"0,03","volume_m3":"300"},"geometry":{"type":"Point","coordinates":[-40.56141581,-20.66371493]}},{"type":"Feature","properties":{"situacao":"dispensada","interessado":"ROMILDO DE SOUZA FELIX","municipio":"GUARAPARI","processo":null,"finalidade":"TERRA","area_alagada_ha":"0,03","volume_m3":"300"},"geometry":{"type":"Point","coordinates":[-40.56204358,-20.66409768]}},{"type":"Feature","properties":{"situacao":"dispensada","interessado":"SILVERIO JOSE SACCANI","municipio":"FUNDAO","processo":null,"finalidade":"TERRA","area_alagada_ha":"0,015","volume_m3":"300"},"geometry":{"type":"Point","coordinates":[-40.44207661,-19.93909176]}},{"type":"Feature","properties":{"situacao":"dispensada","interessado":"ISAC ELIAS DA SILVA","municipio":"VIANA","processo":null,"finalidade":"TERRA","area_alagada_ha":"0,0195","volume_m3":"292,5"},"geometry":{"type":"Point","coordinates":[-40.55793539,-20.30818198]}},{"type":"Feature","properties":{"situacao":"dispensada","interessado":"ISAC ELIAS DA SILVA","municipio":"VIANA","processo":null,"finalidade":"TERRA","area_alagada_ha":"0,02","volume_m3":"240"},"geometry":{"type":"Point","coordinates":[-40.55768617,-20.3081571]}},{"type":"Feature","properties":{"situacao":"dispensada","interessado":"3 IRMAOS AUTO PECAS LTDA","municipio":"GUARAPARI","processo":null,"finalidade":"CONCRETO","area_alagada_ha":"0,01","volume_m3":"234,3"},"geometry":{"type":"Point","coordinates":[-40.5358878,-20.59991414]}},{"type":"Feature","properties":{"situacao":"dispensada","interessado":"THIAGO GOBBI SERQUEIRA","municipio":"GUARAPARI","processo":null,"finalidade":"CONCRETO","area_alagada_ha":"0,02","volume_m3":"225"},"geometry":{"type":"Point","coordinates":[-40.5368147,-20.57943573]}},{"type":"Feature","properties":{"situacao":"dispensada","interessado":"PAULO MENDES PECANHA ","municipio":"FUNDAO","processo":null,"finalidade":"TERRA","area_alagada_ha":"0,08","volume_m3":"201,5"},"geometry":{"type":"Point","coordinates":[-40.42009183,-19.96134944]}},{"type":"Feature","properties":{"situacao":"dispensada","interessado":"RICARDO CAUS LOUREIRO ","municipio":"GUARAPARI","processo":null,"finalidade":"TERRA","area_alagada_ha":"0,13","volume_m3":"200"},"geometry":{"type":"Point","coordinates":[-40.55177542,-20.56196676]}},{"type":"Feature","properties":{"situacao":"dispensada","interessado":"ADILIO MARTINS JARDIM","municipio":"GUARAPARI","processo":null,"finalidade":"MISTA","area_alagada_ha":"0,025","volume_m3":"200"},"geometry":{"type":"Point","coordinates":[-40.59559159,-20.56771132]}},{"type":"Feature","properties":{"situacao":"dispensada","interessado":"COMP. ESPIRITO SANTENSE DE SANEAMENTO-CESAN","municipio":"GUARAPARI","processo":null,"finalidade":"CONCRETO","area_alagada_ha":"0,03","volume_m3":"196"},"geometry":{"type":"Point","coordinates":[-41.06130583,-20.37035302]}},{"type":"Feature","properties":{"situacao":"dispensada","interessado":"LAUDO DE FRANCO SEDA","municipio":"GUARAPARI","processo":null,"finalidade":"TERRA","area_alagada_ha":"0,02","volume_m3":"180"},"geometry":{"type":"Point","coordinates":[-40.54424148,-20.57868306]}},{"type":"Feature","properties":{"situacao":"dispensada","interessado":"GILBERTO DE SOUZA","municipio":"GUARAPARI","processo":null,"finalidade":"TERRA","area_alagada_ha":"0,02","volume_m3":"160"},"geometry":{"type":"Point","coordinates":[-40.67460223,-20.49320892]}},{"type":"Feature","properties":{"situacao":"dispensada","interessado":"EDIMAR NUNES","municipio":"SERRA","processo":null,"finalidade":"TERRA","area_alagada_ha":"0,0147","volume_m3":"102,9"},"geometry":{"type":"Point","coordinates":[-40.42359787,-20.08443469]}},{"type":"Feature","properties":{"situacao":"dispensada","interessado":"LINO BRAZ THOMES","municipio":"CARIACICA","processo":null,"finalidade":"TERRA","area_alagada_ha":"0,025","volume_m3":"100"},"geometry":{"type":"Point","coordinates":[-40.47618414,-20.31713901]}},{"type":"Feature","properties":{"situacao":"dispensada","interessado":"3 IRMAOS AUTO PECAS LTDA","municipio":"GUARAPARI","processo":null,"finalidade":"CONCRETO","area_alagada_ha":"0,01","volume_m3":"92,5"},"geometry":{"type":"Point","coordinates":[-40.53592735,-20.60003123]}},{"type":"Feature","properties":{"situacao":"dispensada","interessado":"3 IRMAOS AUTO PECAS LTDA","municipio":"GUARAPARI","processo":null,"finalidade":"CONCRETO","area_alagada_ha":"0,01","volume_m3":"70"},"geometry":{"type":"Point","coordinates":[-40.53582825,-20.59971593]}},{"type":"Feature","properties":{"situacao":"dispensada","interessado":"LINO BRAZ THOMES","municipio":"CARIACICA","processo":null,"finalidade":"CONCRETO","area_alagada_ha":"0,01","volume_m3":"50"},"geometry":{"type":"Point","coordinates":[-40.47806935,-20.31598479]}},{"type":"Feature","properties":{"situacao":"dispensada","interessado":"Luiz Maioli","municipio":"Guarapari","processo":null,"finalidade":"TERRA","area_alagada_ha":"0,026","volume_m3":"650"},"geometry":{"type":"Point","coordinates":[-40.66273849,-20.51764051]}},{"type":"Feature","properties":{"situacao":"dispensada","interessado":"Jakson Wander Simões Da Rós","municipio":"Fundão","processo":null,"finalidade":"TERRA","area_alagada_ha":"0,221","volume_m3":"745"},"geometry":{"type":"Point","coordinates":[-40.39074249,-19.93783871]}},{"type":"Feature","properties":{"situacao":"dispensada","interessado":"HENRY DELANO WYATT","municipio":"Fundão","processo":null,"finalidade":"TERRA","area_alagada_ha":"0,95","volume_m3":"20922"},"geometry":{"type":"Point","coordinates":[-40.41793325,-19.87788671]}},{"type":"Feature","properties":{"situacao":"dispensada","interessado":"VALTER MARCHIORI","municipio":"Fundão","processo":null,"finalidade":"TERRA","area_alagada_ha":"0,03","volume_m3":"421"},"geometry":{"type":"Point","coordinates":[-40.39952229,-20.00386717]}},{"type":"Feature","properties":{"situacao":"dispensada","interessado":"VALTER MARCHIORI","municipio":"Fundão","processo":null,"finalidade":"TERRA","area_alagada_ha":"0,04","volume_m3":"592"},"geometry":{"type":"Point","coordinates":[-40.39964661,-20.00387522]}},{"type":"Feature","properties":{"situacao":"dispensada","interessado":"Marcelo dos Santos","municipio":"Serra","processo":null,"finalidade":"TERRA","area_alagada_ha":"0,50","volume_m3":"13859"},"geometry":{"type":"Point","coordinates":[-40.38398691,-20.01871569]}},{"type":"Feature","properties":{"situacao":"dispensada","interessado":"Azul Empreedimentos Ltda","municipio":"Serra","processo":null,"finalidade":"TERRA","area_alagada_ha":"0,30","volume_m3":"5600"},"geometry":{"type":"Point","coordinates":[-40.33274262,-20.06070491]}},{"type":"Feature","properties":{"situacao":"dispensada","interessado":"Valleir Torezani ","municipio":"Guarapari","processo":null,"finalidade":"MISTO","area_alagada_ha":"15,00","volume_m3":"20000"},"geometry":{"type":"Point","coordinates":[-40.40889044,-20.53734182]}},{"type":"Feature","properties":{"situacao":"dispensada","interessado":"Douglas Cavati ","municipio":"Guarapari","processo":null,"finalidade":"TERRA","area_alagada_ha":"0,30","volume_m3":"7500"},"geometry":{"type":"Point","coordinates":[-40.67401291,-20.49014329]}},{"type":"Feature","properties":{"situacao":"dispensada","interessado":"Adeir Alves da Silva","municipio":"Viana","processo":null,"finalidade":"MISTO","area_alagada_ha":"0,08","volume_m3":"2087"},"geometry":{"type":"Point","coordinates":[-40.45854366,-20.34366663]}},{"type":"Feature","properties":{"situacao":"dispensada","interessado":"LUIZ CARLOS SIMER GIURIZZATO","municipio":"Fundão","processo":null,"finalidade":"TERRA","area_alagada_ha":"0,404","volume_m3":"20038"},"geometry":{"type":"Point","coordinates":[-40.44027364,-19.96360804]}},{"type":"Feature","properties":{"situacao":"dispensada","interessado":"Erildo Antonio Kiffer","municipio":"Viana","processo":null,"finalidade":"MISTO","area_alagada_ha":"0,306","volume_m3":"4584"},"geometry":{"type":"Point","coordinates":[-40.58302049,-20.34548286]}},{"type":"Feature","properties":{"situacao":"dispensada","interessado":"Martim Kuhl","municipio":"Guarapari","processo":null,"finalidade":"TERRA","area_alagada_ha":"0,430","volume_m3":"5160"},"geometry":{"type":"Point","coordinates":[-40.56334265,-20.68692247]}},{"type":"Feature","properties":{"situacao":"dispensada","interessado":"Carlos Roberto Vilela ","municipio":"Guarapari","processo":null,"finalidade":"TERRA","area_alagada_ha":"0,060","volume_m3":"2100"},"geometry":{"type":"Point","coordinates":[-40.67255466,-20.52448366]}},{"type":"Feature","properties":{"situacao":"dispensada","interessado":"Elizabete Fideles Singer ","municipio":"Guarapari","processo":null,"finalidade":"TERRA","area_alagada_ha":"0,011","volume_m3":"106"},"geometry":{"type":"Point","coordinates":[-40.59386965,-20.61061792]}},{"type":"Feature","properties":{"situacao":"dispensada","interessado":"Elizabete Fideles Singer ","municipio":"Guarapari","processo":null,"finalidade":"TERRA","area_alagada_ha":"0,023","volume_m3":"227,35"},"geometry":{"type":"Point","coordinates":[-40.59386965,-20.61061792]}},{"type":"Feature","properties":{"situacao":"dispensada","interessado":"Arnaldo Lantiman ","municipio":"Guarapari","processo":null,"finalidade":"TERRA","area_alagada_ha":"0,128","volume_m3":"1918"},"geometry":{"type":"Point","coordinates":[-40.53285111,-20.52829517]}},{"type":"Feature","properties":{"situacao":"dispensada","interessado":"André Frechiani Zanello","municipio":"Guarapari","processo":null,"finalidade":"MISTO","area_alagada_ha":"0,054","volume_m3":"580"},"geometry":{"type":"Point","coordinates":[-40.59308047,-20.61499737]}},{"type":"Feature","properties":{"situacao":"dispensada","interessado":"Icaro Portela Pinnheiro","municipio":"Guarapari","processo":null,"finalidade":"CONCRETO","area_alagada_ha":"0,020","volume_m3":"244"},"geometry":{"type":"Point","coordinates":[-40.56486557,-20.62754074]}},{"type":"Feature","properties":{"situacao":"dispensada","interessado":"Everaldo Arpini ","municipio":"Guarapari","processo":null,"finalidade":"TERRA","area_alagada_ha":"0,018","volume_m3":"270"},"geometry":{"type":"Point","coordinates":[-40.56058676,-20.56824721]}},{"type":"Feature","properties":{"situacao":"dispensada","interessado":"Lidiney Rossi ","municipio":"Guarapari","processo":null,"finalidade":"TERRA","area_alagada_ha":"0,110","volume_m3":"3850"},"geometry":{"type":"Point","coordinates":[-40.66746881,-20.52590569]}},{"type":"Feature","properties":{"situacao":"dispensada","interessado":"Daniel Braga Ceruttu Pinto ","municipio":"Guarapari","processo":null,"finalidade":"TERRA","area_alagada_ha":"0,012","volume_m3":"138,08"},"geometry":{"type":"Point","coordinates":[-40.59624085,-20.62087604]}},{"type":"Feature","properties":{"situacao":"dispensada","interessado":"Antonio Alveri Fernandes de Oliveira","municipio":"Viana","processo":null,"finalidade":"TERRA","area_alagada_ha":"0,780","volume_m3":"15634"},"geometry":{"type":"Point","coordinates":[-40.52234955,-20.3070137]}},{"type":"Feature","properties":{"situacao":"dispensada","interessado":"Martim Kuhl","municipio":"Guarapari","processo":null,"finalidade":"TERRA","area_alagada_ha":"0,430","volume_m3":"5160"},"geometry":{"type":"Point","coordinates":[-40.56334265,-20.68692247]}},{"type":"Feature","properties":{"situacao":"dispensada","interessado":"João Carlos Bortolini","municipio":"Fundão","processo":null,"finalidade":"TERRA","area_alagada_ha":"0,104","volume_m3":"1674"},"geometry":{"type":"Point","coordinates":[-40.45213078,-19.9164868]}},{"type":"Feature","properties":{"situacao":"dispensada","interessado":"Dalto Lougon Moulin","municipio":"Serra","processo":null,"finalidade":"TERRA","area_alagada_ha":"0,900","volume_m3":"9800"},"geometry":{"type":"Point","coordinates":[-40.29508147,-20.05739805]}},{"type":"Feature","properties":{"situacao":"dispensada","interessado":"Hikoto Hashizume","municipio":"Serra","processo":null,"finalidade":"TERRA","area_alagada_ha":"0,200","volume_m3":"4000"},"geometry":{"type":"Point","coordinates":[-40.39305957,-20.04707641]}},{"type":"Feature","properties":{"situacao":"dispensada","interessado":"Jefferson Luiz Hackart Teixeira","municipio":"Fundão","processo":null,"finalidade":"TERRA","area_alagada_ha":"0,064","volume_m3":"768"},"geometry":{"type":"Point","coordinates":[-40.36540929,-20.0391699]}},{"type":"Feature","properties":{"situacao":"dispensada","interessado":"Empreendimento Condominio  Buenos Aires","municipio":"Guarapari","processo":null,"finalidade":"TERRA","area_alagada_ha":"0,199","volume_m3":"1988"},"geometry":{"type":"Point","coordinates":[-40.54697874,-20.58948085]}},{"type":"Feature","properties":{"situacao":"dispensada","interessado":"Empreendimento Condominio  Buenos Aires","municipio":"Guarapari","processo":null,"finalidade":"CONCRETO","area_alagada_ha":"0,237","volume_m3":"1185,5"},"geometry":{"type":"Point","coordinates":[-40.54697874,-20.58948085]}},{"type":"Feature","properties":{"situacao":"dispensada","interessado":"Empreendimento Condominio  Buenos Aires","municipio":"Guarapari","processo":null,"finalidade":"CONCRETO","area_alagada_ha":"0,115","volume_m3":"573,5"},"geometry":{"type":"Point","coordinates":[-40.54697874,-20.58948085]}},{"type":"Feature","properties":{"situacao":"dispensada","interessado":"lisandro Pereira Rezende Lugon ","municipio":"Guarapari","processo":null,"finalidade":"TERRA","area_alagada_ha":"0,011","volume_m3":"105"},"geometry":{"type":"Point","coordinates":[-40.62517835,-20.49836688]}},{"type":"Feature","properties":{"situacao":"dispensada","interessado":"lisandro Pereira Rezende Lugon ","municipio":"Guarapari","processo":null,"finalidade":"CONCRETO","area_alagada_ha":"0,009","volume_m3":"130,5"},"geometry":{"type":"Point","coordinates":[-40.62505998,-20.49805182]}},{"type":"Feature","properties":{"situacao":"dispensada","interessado":"Real Economia Alimentos LTDA","municipio":"Guarapari","processo":null,"finalidade":"TERRA","area_alagada_ha":"0,216","volume_m3":"4326"},"geometry":{"type":"Point","coordinates":[-40.63788184,-20.47401997]}},{"type":"Feature","properties":{"situacao":"dispensada","interessado":" Gilberto Languer Hertel","municipio":"Viana","processo":null,"finalidade":"CONCRETO","area_alagada_ha":"0,009","volume_m3":"44"},"geometry":{"type":"Point","coordinates":[-40.62932229,-20.45409138]}},{"type":"Feature","properties":{"situacao":"dispensada","interessado":"Cláudio Vieira Leandro","municipio":"Viana","processo":null,"finalidade":"TERRA","area_alagada_ha":"0,048","volume_m3":"600"},"geometry":{"type":"Point","coordinates":[-40.54615054,-20.31234273]}},{"type":"Feature","properties":{"situacao":"dispensada","interessado":"Suzano S.A.","municipio":"Vila Velha","processo":null,"finalidade":"TERRA","area_alagada_ha":"2,320","volume_m3":"32701"},"geometry":{"type":"Point","coordinates":[-40.39429802,-20.52618524]}},{"type":"Feature","properties":{"situacao":"dispensada","interessado":"RONEY ARAÚJO DE CARLI","municipio":"Fundão","processo":null,"finalidade":"TERRA","area_alagada_ha":"0,301","volume_m3":"5596"},"geometry":{"type":"Point","coordinates":[-40.43426266,-20.00153848]}},{"type":"Feature","properties":{"situacao":"dispensada","interessado":"FRANCISCO IZAIAS CALIMAN","municipio":"Fundão","processo":null,"finalidade":"TERRA","area_alagada_ha":"0,568","volume_m3":"9119"},"geometry":{"type":"Point","coordinates":[-40.39681419,-19.94058279]}},{"type":"Feature","properties":{"situacao":"dispensada","interessado":"Carlos Henrique Pessanha ","municipio":"Guarapari","processo":null,"finalidade":"TERRA","area_alagada_ha":"0,120","volume_m3":"2300"},"geometry":{"type":"Point","coordinates":[-40.61266229,-20.64859134]}},{"type":"Feature","properties":{"situacao":"dispensada","interessado":"Geosmar Marques","municipio":"Guarapari","processo":null,"finalidade":"TERRA","area_alagada_ha":"0,070","volume_m3":"1050"},"geometry":{"type":"Point","coordinates":[-40.60914536,-20.62444193]}},{"type":"Feature","properties":{"situacao":"dispensada","interessado":"Douglas Alexandre Gomes Vieira","municipio":"Viana","processo":null,"finalidade":"MISTO","area_alagada_ha":"0,024","volume_m3":"239"},"geometry":{"type":"Point","coordinates":[-40.62332502,-20.45799572]}},{"type":"Feature","properties":{"situacao":"dispensada","interessado":"Arnaldo Grijo da Penha","municipio":"Guarapari","processo":null,"finalidade":"CONCRETO","area_alagada_ha":"0,004","volume_m3":"22"},"geometry":{"type":"Point","coordinates":[-40.6420464,-20.47532664]}},{"type":"Feature","properties":{"situacao":"dispensada","interessado":"Arnaldo Grijo da Penha","municipio":"Guarapari","processo":null,"finalidade":"CONCRETO","area_alagada_ha":"0,004","volume_m3":"22"},"geometry":{"type":"Point","coordinates":[-40.6422565,-20.47525239]}},{"type":"Feature","properties":{"situacao":"dispensada","interessado":"Arnaldo Grijo da Penha","municipio":"Guarapari","processo":null,"finalidade":"CONCRETO","area_alagada_ha":"0,004","volume_m3":"22"},"geometry":{"type":"Point","coordinates":[-40.64243784,-20.4751784]}},{"type":"Feature","properties":{"situacao":"dispensada","interessado":"Levi Dias de Oliveira","municipio":"Viana","processo":null,"finalidade":"CONCRETO","area_alagada_ha":"0,002","volume_m3":"16"},"geometry":{"type":"Point","coordinates":[-40.60491403,-20.44523061]}},{"type":"Feature","properties":{"situacao":"dispensada","interessado":"APS ADM E PRESTAÇÃO DE S. LTDA","municipio":"Fundão","processo":null,"finalidade":"TERRA","area_alagada_ha":"0,329","volume_m3":"8592"},"geometry":{"type":"Point","coordinates":[-40.35031317,-20.02229146]}},{"type":"Feature","properties":{"situacao":"dispensada","interessado":"APS ADM E PRESTAÇÃO DE S. LTDA","municipio":"Fundão","processo":null,"finalidade":"TERRA","area_alagada_ha":"0,603","volume_m3":"16829"},"geometry":{"type":"Point","coordinates":[-40.34797282,-20.02248096]}},{"type":"Feature","properties":{"situacao":"dispensada","interessado":"WEULLER DE CARLI HELMER","municipio":"Fundão","processo":null,"finalidade":"TERRA","area_alagada_ha":"0,602","volume_m3":"18055"},"geometry":{"type":"Point","coordinates":[-40.39796213,-19.9591942]}},{"type":"Feature","properties":{"situacao":"dispensada","interessado":"HELIO MARCOS DE MEIRA","municipio":"Serra","processo":null,"finalidade":"TERRA","area_alagada_ha":"0,200","volume_m3":"5029"},"geometry":{"type":"Point","coordinates":[-40.37634274,-19.94200746]}},{"type":"Feature","properties":{"situacao":"dispensada","interessado":"DANIELLE TEIXEIRA PEDRINI","municipio":"Fundão","processo":null,"finalidade":"TERRA","area_alagada_ha":"0,387","volume_m3":"6238"},"geometry":{"type":"Point","coordinates":[-40.45105009,-19.91111104]}},{"type":"Feature","properties":{"situacao":"dispensada","interessado":"VANDERLEI JOSÉ DA SILVA","municipio":"Serra","processo":null,"finalidade":"TERRA","area_alagada_ha":"0,300","volume_m3":"4500"},"geometry":{"type":"Point","coordinates":[-40.40723457,-20.08853201]}},{"type":"Feature","properties":{"situacao":"dispensada","interessado":"Suzano S.A","municipio":"Serra","processo":null,"finalidade":"TERRA","area_alagada_ha":"0,260","volume_m3":"3711"},"geometry":{"type":"Point","coordinates":[-40.23697741,-20.05382976]}},{"type":"Feature","properties":{"situacao":"dispensada","interessado":"Hewerton Gonçalves da Rocha","municipio":"Fundão","processo":null,"finalidade":"TERRA","area_alagada_ha":"0,263","volume_m3":"5531"},"geometry":{"type":"Point","coordinates":[-40.43642993,-19.93376195]}},{"type":"Feature","properties":{"situacao":"dispensada","interessado":"Roney Araujo de Carli","municipio":"Fundão","processo":null,"finalidade":"TERRA","area_alagada_ha":"0,120","volume_m3":"2500"},"geometry":{"type":"Point","coordinates":[-40.44154625,-19.99742288]}},{"type":"Feature","properties":{"situacao":"dispensada","interessado":"Roney Araujo de Carli","municipio":"Fundão","processo":null,"finalidade":"TERRA","area_alagada_ha":"0,130","volume_m3":"2800"},"geometry":{"type":"Point","coordinates":[-40.44147738,-19.99720662]}},{"type":"Feature","properties":{"situacao":"dispensada","interessado":"Roney Araujo de Carli","municipio":"Fundão","processo":null,"finalidade":"TERRA","area_alagada_ha":"2,200","volume_m3":"33000"},"geometry":{"type":"Point","coordinates":[-40.44156982,-19.99686255]}},{"type":"Feature","properties":{"situacao":"dispensada","interessado":"Roney Araujo de Carli","municipio":"Fundão","processo":null,"finalidade":"TERRA","area_alagada_ha":"0,140","volume_m3":"3000"},"geometry":{"type":"Point","coordinates":[-40.44195586,-19.997275]}},{"type":"Feature","properties":{"situacao":"dispensada","interessado":"Oli Augusto Fonseca","municipio":"Guarapari","processo":null,"finalidade":"TERRA","area_alagada_ha":"0,700","volume_m3":"4700"},"geometry":{"type":"Point","coordinates":[-40.58721526,-20.58971254]}},{"type":"Feature","properties":{"situacao":"dispensada","interessado":"Const. e Incorp. Domani LTDA","municipio":"Guarapari","processo":null,"finalidade":"TERRA","area_alagada_ha":"0,025","volume_m3":"300"},"geometry":{"type":"Point","coordinates":[-40.58972706,-20.59973466]}},{"type":"Feature","properties":{"situacao":"dispensada","interessado":"PPTA Investidora Imobiliaria LTDA","municipio":"Guarapari","processo":null,"finalidade":"TERRA","area_alagada_ha":"0,060","volume_m3":"1200"},"geometry":{"type":"Point","coordinates":[-40.5173487,-20.56076322]}},{"type":"Feature","properties":{"situacao":"dispensada","interessado":"Elifas Pessine Borges","municipio":"Guarapari","processo":null,"finalidade":"TERRA","area_alagada_ha":"0,190","volume_m3":"2000"},"geometry":{"type":"Point","coordinates":[-40.56000924,-20.57843323]}},{"type":"Feature","properties":{"situacao":"dispensada","interessado":"Simone Aparecida De Jesus Sutil Dos Santos","municipio":"Guarapari","processo":null,"finalidade":"TERRA","area_alagada_ha":"0,062","volume_m3":"650"},"geometry":{"type":"Point","coordinates":[-40.5591832,-20.61134987]}},{"type":"Feature","properties":{"situacao":"dispensada","interessado":"Renato Braga","municipio":"Guarapari","processo":null,"finalidade":"TERRA","area_alagada_ha":"0,100","volume_m3":"1500"},"geometry":{"type":"Point","coordinates":[-40.63506037,-20.5062596]}},{"type":"Feature","properties":{"situacao":"dispensada","interessado":"José Tarciso Da Silva","municipio":"Guarapari","processo":null,"finalidade":"CONCRETO","area_alagada_ha":"0,300","volume_m3":"3800"},"geometry":{"type":"Point","coordinates":[-40.547199,-20.63694121]}},{"type":"Feature","properties":{"situacao":"dispensada","interessado":"Arnaldo Grijo da Penha","municipio":"Guarapari","processo":null,"finalidade":"CONCRETO","area_alagada_ha":"0,008","volume_m3":"39"},"geometry":{"type":"Point","coordinates":[-40.64192503,-20.47473158]}},{"type":"Feature","properties":{"situacao":"dispensada","interessado":"Arnaldo Grijo da Penha","municipio":"Guarapari","processo":null,"finalidade":"CONCRETO","area_alagada_ha":"0,005","volume_m3":"23"},"geometry":{"type":"Point","coordinates":[-40.64184912,-20.47480457]}},{"type":"Feature","properties":{"situacao":"dispensada","interessado":"Arnaldo Grijo da Penha","municipio":"Guarapari","processo":null,"finalidade":"CONCRETO","area_alagada_ha":"0,010","volume_m3":"52"},"geometry":{"type":"Point","coordinates":[-40.64170699,-20.47495948]}},{"type":"Feature","properties":{"situacao":"dispensada","interessado":"Arnaldo Grijo da Penha","municipio":"Guarapari","processo":null,"finalidade":"CONCRETO","area_alagada_ha":"0,012","volume_m3":"116"},"geometry":{"type":"Point","coordinates":[-40.6420464,-20.47532664]}},{"type":"Feature","properties":{"situacao":"dispensada","interessado":"Arnaldo Grijo da Penha","municipio":"Guarapari","processo":null,"finalidade":"CONCRETO","area_alagada_ha":"0,007","volume_m3":"74"},"geometry":{"type":"Point","coordinates":[-40.6422565,-20.47525239]}},{"type":"Feature","properties":{"situacao":"dispensada","interessado":"Arnaldo Grijo da Penha","municipio":"Guarapari","processo":null,"finalidade":"CONCRETO","area_alagada_ha":"0,004","volume_m3":"22"},"geometry":{"type":"Point","coordinates":[-40.64243784,-20.4751784]}},{"type":"Feature","properties":{"situacao":"dispensada","interessado":"Arnaldo Grijo da Penha","municipio":"Guarapari","processo":null,"finalidade":"CONCRETO","area_alagada_ha":"0,012","volume_m3":"121"},"geometry":{"type":"Point","coordinates":[-40.64183678,-20.47544605]}},{"type":"Feature","properties":{"situacao":"dispensada","interessado":"Arnaldo Grijo da Penha","municipio":"Guarapari","processo":null,"finalidade":"CONCRETO","area_alagada_ha":"0,015","volume_m3":"154"},"geometry":{"type":"Point","coordinates":[-40.64502422,-20.4750094]}},{"type":"Feature","properties":{"situacao":"dispensada","interessado":"LACY EVANGELISTA SANTOS","municipio":"Fundão","processo":null,"finalidade":"TERRA","area_alagada_ha":"0,200","volume_m3":"5545"},"geometry":{"type":"Point","coordinates":[-40.38522814,-20.01418866]}},{"type":"Feature","properties":{"situacao":"dispensada","interessado":"JEFSON PEREIRA COLPANI","municipio":"Fundão","processo":null,"finalidade":"TERRA","area_alagada_ha":"0,110","volume_m3":"2037"},"geometry":{"type":"Point","coordinates":[-40.43375987,-19.93536457]}},{"type":"Feature","properties":{"situacao":"dispensada","interessado":"DANIELLE TEIXEIRA PEDRINI","municipio":"Fundão","processo":null,"finalidade":"TERRA","area_alagada_ha":"0,716","volume_m3":"11476"},"geometry":{"type":"Point","coordinates":[-40.45129795,-19.91315082]}},{"type":"Feature","properties":{"situacao":"dispensada","interessado":"João Paulo Trancoso Lyra","municipio":"Viana","processo":null,"finalidade":"MISTO","area_alagada_ha":"0,120","volume_m3":"2760"},"geometry":{"type":"Point","coordinates":[-40.50932422,-20.41027594]}},{"type":"Feature","properties":{"situacao":"dispensada","interessado":"João Paulo Trancoso Lyra","municipio":"Viana","processo":null,"finalidade":"MISTO","area_alagada_ha":"0,050","volume_m3":"750"},"geometry":{"type":"Point","coordinates":[-40.5080323,-20.41044973]}},{"type":"Feature","properties":{"situacao":"dispensada","interessado":"Maria Ivanildes Alves Marianelli","municipio":"Guarapari","processo":null,"finalidade":"MISTO","area_alagada_ha":"0,005","volume_m3":"50"},"geometry":{"type":"Point","coordinates":[-40.55416302,-20.49353374]}},{"type":"Feature","properties":{"situacao":"dispensada","interessado":"JORGE PEREIRA DO NASCIMENTO","municipio":"Fundão","processo":null,"finalidade":"TERRA","area_alagada_ha":"0,530","volume_m3":"12092"},"geometry":{"type":"Point","coordinates":[-40.40668097,-20.00170541]}},{"type":"Feature","properties":{"situacao":"dispensada","interessado":"THIAGO NASCIMENTO COSTA","municipio":"Fundão","processo":null,"finalidade":"TERRA","area_alagada_ha":"0,356","volume_m3":"9727"},"geometry":{"type":"Point","coordinates":[-40.485885,-19.92019209]}},{"type":"Feature","properties":{"situacao":"dispensada","interessado":"LUCAS ANTONIO SABAINI","municipio":"Fundão","processo":null,"finalidade":"TERRA","area_alagada_ha":"0,289","volume_m3":"7706"},"geometry":{"type":"Point","coordinates":[-40.38514519,-19.98504352]}},{"type":"Feature","properties":{"situacao":"dispensada","interessado":"Imero Devens Junior","municipio":"Guarapari","processo":null,"finalidade":"TERRA","area_alagada_ha":"0,320","volume_m3":"2800"},"geometry":{"type":"Point","coordinates":[-40.48000133,-20.54112165]}},{"type":"Feature","properties":{"situacao":"dispensada","interessado":"ANANIAS HENRIQUE WYATT NETO","municipio":"Fundão","processo":null,"finalidade":"TERRA","area_alagada_ha":"0,970","volume_m3":"14625"},"geometry":{"type":"Point","coordinates":[-40.45727101,-19.91764633]}},{"type":"Feature","properties":{"situacao":"dispensada","interessado":"JORIC SILVA PERINI","municipio":"Fundão","processo":null,"finalidade":"CONCRETO","area_alagada_ha":"0,193","volume_m3":"1929"},"geometry":{"type":"Point","coordinates":[-40.44569433,-19.90302356]}},{"type":"Feature","properties":{"situacao":"dispensada","interessado":"JOSE VARDELI RODRIGUES","municipio":"Fundão","processo":null,"finalidade":"TERRA","area_alagada_ha":"0,163","volume_m3":"2871"},"geometry":{"type":"Point","coordinates":[-40.39375393,-20.05533758]}},{"type":"Feature","properties":{"situacao":"dispensada","interessado":"MARCOS ROGERIO B. CASTELO","municipio":"Fundão","processo":null,"finalidade":"TERRA","area_alagada_ha":"0,272","volume_m3":"5907"},"geometry":{"type":"Point","coordinates":[-40.36057364,-20.02937742]}},{"type":"Feature","properties":{"situacao":"dispensada","interessado":"Gilberto Languer Hertel ","municipio":"Viana","processo":null,"finalidade":"CONCRETO","area_alagada_ha":"0,037","volume_m3":"187"},"geometry":{"type":"Point","coordinates":[-40.62965208,-20.45537104]}},{"type":"Feature","properties":{"situacao":"dispensada","interessado":"Gilberto Languer Hertel ","municipio":"Viana","processo":null,"finalidade":"CONCRETO","area_alagada_ha":"0,079","volume_m3":"395"},"geometry":{"type":"Point","coordinates":[-40.62957231,-20.45598606]}},{"type":"Feature","properties":{"situacao":"dispensada","interessado":"JACKSON WANDER SIMÕES DA RÓS","municipio":"Fundão","processo":null,"finalidade":"TERRA","area_alagada_ha":"1,333","volume_m3":"19"},"geometry":{"type":"Point","coordinates":[-40.39070919,-19.93839913]}},{"type":"Feature","properties":{"situacao":"dispensada","interessado":"AILTON NILDERIO PIMENTEL","municipio":"Serra","processo":null,"finalidade":"CONCRETO","area_alagada_ha":"0,168","volume_m3":"3354"},"geometry":{"type":"Point","coordinates":[-40.37324157,-20.09987613]}},{"type":"Feature","properties":{"situacao":"dispensada","interessado":"GILBER TREGNAGO GRAZZIOTTI","municipio":"Fundão","processo":null,"finalidade":"TERRA","area_alagada_ha":"0,252","volume_m3":"6888"},"geometry":{"type":"Point","coordinates":[-40.38828341,-19.92647422]}},{"type":"Feature","properties":{"situacao":"dispensada","interessado":"Adnilton Cardoso dos Santos","municipio":"Viana","processo":null,"finalidade":"TERRA","area_alagada_ha":"0,120","volume_m3":"2300"},"geometry":{"type":"Point","coordinates":[-40.61176662,-20.4617618]}},{"type":"Feature","properties":{"situacao":"dispensada","interessado":"Gilberto Languer Hertel ","municipio":"Viana","processo":null,"finalidade":"CONCRETO","area_alagada_ha":"0,037","volume_m3":"187"},"geometry":{"type":"Point","coordinates":[-40.62965208,-20.45537104]}},{"type":"Feature","properties":{"situacao":"dispensada","interessado":"Gilberto Languer Hertel ","municipio":"Viana","processo":null,"finalidade":"CONCRETO","area_alagada_ha":"0,079","volume_m3":"395"},"geometry":{"type":"Point","coordinates":[-40.62957231,-20.45598606]}},{"type":"Feature","properties":{"situacao":"dispensada","interessado":"IVANILDO MACEDO SANTOS","municipio":"Viana","processo":null,"finalidade":"CONCRETO","area_alagada_ha":"0,050","volume_m3":"750"},"geometry":{"type":"Point","coordinates":[-40.52211769,-20.31464035]}},{"type":"Feature","properties":{"situacao":"dispensada","interessado":"CARLOS ALBERTO RAASCH","municipio":"Serra","processo":null,"finalidade":"TERRA","area_alagada_ha":"0,006","volume_m3":"26"},"geometry":{"type":"Point","coordinates":[-40.42951236,-20.1144625]}},{"type":"Feature","properties":{"situacao":"dispensada","interessado":"CARLOS ALBERTO RAASCH","municipio":"Serra","processo":null,"finalidade":"TERRA","area_alagada_ha":"0,039","volume_m3":"308"},"geometry":{"type":"Point","coordinates":[-40.42907162,-20.11227071]}},{"type":"Feature","properties":{"situacao":"dispensada","interessado":"Cooperativa da Agricultura Familiar de Cariacica - CAFC-ES","municipio":"Cariacica","processo":null,"finalidade":"TERRA","area_alagada_ha":"0,13","volume_m3":"927"},"geometry":{"type":"Point","coordinates":[-40.45628453,-20.23826588]}},{"type":"Feature","properties":{"situacao":"dispensada","interessado":"Cooperativa da Agricultura Familiar de Cariacica - CAFC-ES","municipio":"Cariacica","processo":null,"finalidade":"TERRA","area_alagada_ha":"0,79","volume_m3":"5529"},"geometry":{"type":"Point","coordinates":[-40.45871952,-20.2355896]}},{"type":"Feature","properties":{"situacao":"dispensada","interessado":"Cooperativa da Agricultura Familiar de Cariacica - CAFC-ES","municipio":"Cariacica","processo":null,"finalidade":"TERRA","area_alagada_ha":"0,32","volume_m3":"12747"},"geometry":{"type":"Point","coordinates":[-40.45902196,-20.23620141]}},{"type":"Feature","properties":{"situacao":"dispensada","interessado":"ARILSON DA SILVA AUTEIRO","municipio":"Fundão","processo":null,"finalidade":"TERRA","area_alagada_ha":"0,17","volume_m3":"3175"},"geometry":{"type":"Point","coordinates":[-40.43813446,-19.93209484]}},{"type":"Feature","properties":{"situacao":"dispensada","interessado":"THIAGO NASCIMENTO COSTA","municipio":"Fundão","processo":null,"finalidade":"TERRA","area_alagada_ha":"0,10","volume_m3":"2684"},"geometry":{"type":"Point","coordinates":[-40.39159739,-19.93400131]}},{"type":"Feature","properties":{"situacao":"dispensada","interessado":"André Monteiro Lopes","municipio":"Cariacica","processo":null,"finalidade":"TERRA","area_alagada_ha":"0,28","volume_m3":"5000"},"geometry":{"type":"Point","coordinates":[-40.50737735,-20.31341292]}},{"type":"Feature","properties":{"situacao":"dispensada","interessado":"DOMINGOS SCAQUETTI","municipio":"Fundão","processo":null,"finalidade":"TERRA","area_alagada_ha":"0,06","volume_m3":"7432"},"geometry":{"type":"Point","coordinates":[-40.38393567,-19.90329789]}},{"type":"Feature","properties":{"situacao":"dispensada","interessado":"Fabio Carvalho de Lima","municipio":"Guarapari","processo":null,"finalidade":"TERRA","area_alagada_ha":"0,25","volume_m3":"5427"},"geometry":{"type":"Point","coordinates":[-40.55452655,-20.56748871]}},{"type":"Feature","properties":{"situacao":"dispensada","interessado":"Diego Ewald","municipio":"Guarapari","processo":null,"finalidade":"TERRA","area_alagada_ha":"0,22","volume_m3":"4050"},"geometry":{"type":"Point","coordinates":[-40.63507159,-20.50641306]}},{"type":"Feature","properties":{"situacao":"dispensada","interessado":"José Costa Araújo","municipio":"Guarapari","processo":null,"finalidade":"CONCRETO","area_alagada_ha":"0,05","volume_m3":"320"},"geometry":{"type":"Point","coordinates":[-40.5828931,-20.61986064]}},{"type":"Feature","properties":{"situacao":"dispensada","interessado":"José Costa Araújo","municipio":"Guarapari","processo":null,"finalidade":"CONCRETO","area_alagada_ha":"0,03","volume_m3":"260"},"geometry":{"type":"Point","coordinates":[-40.5823369,-20.61896239]}},{"type":"Feature","properties":{"situacao":"dispensada","interessado":"Imobiliaria e construtora valdecir torezani LTDA","municipio":"Guarapari","processo":null,"finalidade":"TERRA","area_alagada_ha":"0,60","volume_m3":"12042"},"geometry":{"type":"Point","coordinates":[-40.43385778,-20.5376972]}},{"type":"Feature","properties":{"situacao":"dispensada","interessado":"Jairo de Camargos Pereira","municipio":"Guarapari","processo":null,"finalidade":"TERRA","area_alagada_ha":"0,02","volume_m3":"380"},"geometry":{"type":"Point","coordinates":[-40.63060412,-20.53632846]}},{"type":"Feature","properties":{"situacao":"dispensada","interessado":"Luiz Alberto Pina","municipio":"Guarapari","processo":null,"finalidade":"TERRA","area_alagada_ha":"0,06","volume_m3":"905"},"geometry":{"type":"Point","coordinates":[-40.59123179,-20.51067787]}},{"type":"Feature","properties":{"situacao":"dispensada","interessado":"Luiz Alberto Pina","municipio":"Guarapari","processo":null,"finalidade":"TERRA","area_alagada_ha":"0,00","volume_m3":"36"},"geometry":{"type":"Point","coordinates":[-40.59151514,-20.51119018]}},{"type":"Feature","properties":{"situacao":"dispensada","interessado":"Luiz Alberto Pina","municipio":"Guarapari","processo":null,"finalidade":"TERRA","area_alagada_ha":"0,01","volume_m3":"90"},"geometry":{"type":"Point","coordinates":[-40.59363582,-20.51135139]}},{"type":"Feature","properties":{"situacao":"dispensada","interessado":"Luiz Alberto Pina","municipio":"Guarapari","processo":null,"finalidade":"TERRA","area_alagada_ha":"0,05","volume_m3":"590"},"geometry":{"type":"Point","coordinates":[-40.59153011,-20.51078354]}},{"type":"Feature","properties":{"situacao":"dispensada","interessado":"Boulevard Premium Guarapari Empreendimento Imobiliário SPE Ltda","municipio":"Guarapari","processo":null,"finalidade":"TERRA","area_alagada_ha":"0,74","volume_m3":"6550"},"geometry":{"type":"Point","coordinates":[-40.49616994,-20.63642436]}},{"type":"Feature","properties":{"situacao":"dispensada","interessado":"Cooperativa da Agricultura Familiar de Cariacica - CAFC-ES","municipio":"Cariacica","processo":null,"finalidade":"TERRA","area_alagada_ha":"0,56","volume_m3":"5583"},"geometry":{"type":"Point","coordinates":[-40.45871952,-20.2355896]}},{"type":"Feature","properties":{"situacao":"dispensada","interessado":"BRUNNO DA SILVA BORGES","municipio":"Serra","processo":null,"finalidade":"TERRA","area_alagada_ha":"0,25","volume_m3":"6686"},"geometry":{"type":"Point","coordinates":[-40.38958885,-20.02856471]}},{"type":"Feature","properties":{"situacao":"dispensada","interessado":"VALTER MARCHIORI","municipio":"Fundão","processo":null,"finalidade":"TERRA","area_alagada_ha":"0,35","volume_m3":"6287"},"geometry":{"type":"Point","coordinates":[-40.36611593,-19.98926583]}},{"type":"Feature","properties":{"situacao":"dispensada","interessado":"Gilcimar Coco Machado","municipio":"Guarapari","processo":null,"finalidade":"MISTO","area_alagada_ha":"0,01","volume_m3":"52"},"geometry":{"type":"Point","coordinates":[-40.65943066,-20.50163811]}},{"type":"Feature","properties":{"situacao":"dispensada","interessado":"Gilcimar Coco Machado","municipio":"Guarapari","processo":null,"finalidade":"MISTO","area_alagada_ha":"0,02","volume_m3":"270"},"geometry":{"type":"Point","coordinates":[-40.6593053,-20.50246133]}},{"type":"Feature","properties":{"situacao":"dispensada","interessado":"Maicon Cao Pereira","municipio":"Guarapari","processo":null,"finalidade":"TERRA","area_alagada_ha":"0,20","volume_m3":"2100"},"geometry":{"type":"Point","coordinates":[-40.6464852,-20.47088539]}}]}