{"type": "FeatureCollection", "features": [{"type": "Feature", "properties": {"id": "3201308", "name": "Cariacica", "description": "Cariacica"}, "geometry": {"type": "Polygon", "coordinates": [[[-40.4406200113, -20.2249562803], [-40.4352032382, -20.2290368577], [-40.4300501161, -20.2267744279], [-40.4130459273, -20.2285126571], [-40.4085784296, -20.231176561], [-40.3852075731, -20.2230333706], [-40.374007096, -20.2143211375], [-40.369755591, -20.2156740993], [-40.3695222702, -20.2157607262], [-40.3575776876, -20.2374812799], [-40.3396901205, -20.2488684237], [-40.3395240032, -20.2598050904], [-40.3278761928, -20.2572705629], [-40.3313630402, -20.2631324031], [-40.3441019025, -20.2795977064], [-40.3500611964, -20.2846385712], [-40.3548166557, -20.2964468787], [-40.3633188573, -20.3052006127], [-40.3633596045, -20.3152735273], [-40.3553706268, -20.3264475808], [-40.357857318, -20.3491154757], [-40.3654238723, -20.3702091036], [-40.3659271062, -20.3947472372], [-40.3707174645, -20.3992082762], [-40.3846776993, -20.3937861281], [-40.3943375593, -20.3958940511], [-40.39484033, -20.3907875895], [-40.4056841918, -20.3787556021], [-40.4042583409, -20.3582751519], [-40.4196298865, -20.3407737018], [-40.4285713105, -20.3403953033], [-40.4354734207, -20.3345589125], [-40.438736475, -20.3324399033], [-40.4525552114, -20.3396433974], [-40.4580855576, -20.3316135489], [-40.480336037, -20.3435334461], [-40.4855756139, -20.347116822], [-40.5149345637, -20.3468812007], [-40.5211868634, -20.3245532054], [-40.5212819868, -20.2908465524], [-40.5318328872, -20.2921104434], [-40.5331992426, -20.290784581], [-40.548687705, -20.301758399], [-40.560108807, -20.3009773923], [-40.5637852391, -20.3038183094], [-40.5677699601, -20.2992117757], [-40.5665383774, -20.2914771395], [-40.5729839133, -20.2861074361], [-40.5719428744, -20.2798079663], [-40.5762208866, -20.2786777683], [-40.5822870046, -20.2919843532], [-40.5850815738, -20.2930211069], [-40.5999526003, -20.2782265668], [-40.6040788644, -20.2672717271], [-40.6057692583, -20.2518352831], [-40.5946719128, -20.2449945973], [-40.5916036275, -20.2518547821], [-40.5958546453, -20.2618424471], [-40.5934078601, -20.2714476621], [-40.584231259, -20.2682116013], [-40.5586894466, -20.2700225109], [-40.5309313642, -20.2534028804], [-40.5263348425, -20.2454827855], [-40.5002652456, -20.2277357644], [-40.4966841962, -20.2364210495], [-40.4952207805, -20.2379383829], [-40.49204371, -20.2391674667], [-40.4886667403, -20.2328828103], [-40.4812863927, -20.2337580556], [-40.4647326341, -20.2187781251], [-40.4619164032, -20.2217107545], [-40.4406200113, -20.2249562803]]]}}, {"type": "Feature", "properties": {"id": "3202207", "name": "Fundão", "description": "Fundão"}, "geometry": {"type": "Polygon", "coordinates": [[[-40.4674107784, -19.8676652993], [-40.4544243561, -19.8811840781], [-40.4530486009, -19.8650491276], [-40.447795502, -19.8631139241], [-40.4470584194, -19.858714186], [-40.4416956593, -19.8586461466], [-40.4349556878, -19.8833577118], [-40.4250062779, -19.8926904187], [-40.4246440222, -19.9067762295], [-40.413155763, -19.9067109777], [-40.4026717213, -19.9064901814], [-40.3731937748, -19.9058660063], [-40.3565567618, -19.9121218707], [-40.3490944949, -19.9050263089], [-40.3456484653, -19.9067522719], [-40.3374888042, -19.9027952378], [-40.3320479126, -19.9057350212], [-40.3312211741, -19.9327256317], [-40.3214283308, -19.9432056488], [-40.3123001292, -19.9430001216], [-40.3154015049, -19.9482947037], [-40.3093732802, -19.9509288065], [-40.3085895475, -19.9591797559], [-40.3044582394, -19.9620572044], [-40.3028930208, -19.9708580366], [-40.2810619125, -19.9768120417], [-40.277410998, -19.9898634884], [-40.2710900261, -19.9904386981], [-40.2680259514, -19.9943551577], [-40.2691421663, -20.0025331861], [-40.2661067694, -20.003571495], [-40.2658125883, -20.0096736697], [-40.2594291981, -20.0095672716], [-40.2513289001, -20.0009315782], [-40.2384859718, -20.0092467426], [-40.2193957916, -20.0032468759], [-40.1881229551, -20.0120059044], [-40.1775428636, -20.013387177], [-40.1697001139, -20.0150720118], [-40.1641885207, -20.0090749303], [-40.1536611395, -20.0131639492], [-40.1585832867, -20.0380958426], [-40.1815923094, -20.0413523051], [-40.1903463538, -20.0560795187], [-40.1948140493, -20.0538659684], [-40.1901416946, -20.0447223964], [-40.1950611812, -20.0357731756], [-40.2000503271, -20.0355569798], [-40.2039614225, -20.0308034096], [-40.2165754598, -20.0265962151], [-40.2477812479, -20.0374746451], [-40.253443403, -20.0320021192], [-40.2574548208, -20.0406924728], [-40.2637710642, -20.0307893328], [-40.2723941677, -20.0370216609], [-40.2746137292, -20.0354143846], [-40.2715920784, -20.029875511], [-40.2774536018, -20.0287465671], [-40.2805736884, -20.0314514294], [-40.2904438726, -20.0229637147], [-40.2932166346, -20.0249668586], [-40.303213118, -20.0207583527], [-40.3021180204, -20.0248756967], [-40.3184199471, -20.0296081629], [-40.3263791283, -20.0288171459], [-40.3335358659, -20.0342704641], [-40.3435052398, -20.0363434691], [-40.3493817669, -20.0468140252], [-40.3563134721, -20.0485948401], [-40.3606717055, -20.0420526987], [-40.3672383611, -20.0394984082], [-40.3735882025, -20.0233375414], [-40.3793384263, -20.0237347585], [-40.3848204611, -20.0139604617], [-40.3983874702, -20.0148646772], [-40.4090069048, -20.017194892], [-40.4162153289, -20.0164739315], [-40.4174043056, -20.0127354686], [-40.4251889227, -20.0094444164], [-40.4469046805, -19.9939961734], [-40.4508196999, -19.9707949217], [-40.4486084356, -19.9544348401], [-40.4521227576, -19.9452090884], [-40.4525439899, -19.9360363843], [-40.4560884614, -19.9355215716], [-40.4677631419, -19.9334272352], [-40.4751819806, -19.9369339969], [-40.474804516, -19.9053337787], [-40.4893346722, -19.8917503355], [-40.4911177723, -19.8897293236], [-40.4989463502, -19.8798420364], [-40.5045100772, -19.8803083507], [-40.5046273947, -19.8535511051], [-40.4929971343, -19.8506285635], [-40.484821381, -19.8541524742], [-40.4821731236, -19.8550181875], [-40.4809546622, -19.8654296573], [-40.4781191266, -19.8683832636], [-40.4674107784, -19.8676652993]]]}}, {"type": "Feature", "properties": {"id": "3202405", "name": "Guarapari", "description": "Guarapari"}, "geometry": {"type": "MultiPolygon", "coordinates": [[[[-40.3952767283, -20.6213012949], [-40.3952478852, -20.6216837885], [-40.396081773, -20.6217356143], [-40.3960805794, -20.6213658419], [-40.3952767283, -20.6213012949]]], [[[-40.3793370095, -20.6144364183], [-40.3825080979, -20.6150973025], [-40.3823441695, -20.6132398916], [-40.3797690837, -20.6128336574], [-40.3793370095, -20.6144364183]]], [[[-40.375139211, -20.6135999569], [-40.3776840022, -20.6138518158], [-40.3775959685, -20.611986129], [-40.3754730596, -20.6117535361], [-40.375139211, -20.6135999569]]], [[[-40.3724614734, -20.6126586462], [-40.3742046039, -20.6129177172], [-40.3745981257, -20.6117409268], [-40.3725061352, -20.6114965359], [-40.3724614734, -20.6126586462]]], [[[-40.3803070118, -20.6122516361], [-40.3821328541, -20.612543537], [-40.3824687301, -20.6114816482], [-40.3807999848, -20.6110497508], [-40.3803070118, -20.6122516361]]], [[[-40.3870598531, -20.6103017772], [-40.3881688622, -20.6103871776], [-40.3883038672, -20.6098421847], [-40.3871976461, -20.6097366611], [-40.3870598531, -20.6103017772]]], [[[-40.373544964, -20.6081383163], [-40.3731875324, -20.6113394767], [-40.3755250135, -20.6105106172], [-40.373544964, -20.6081383163]]], [[[-40.3902672603, -20.5969071997], [-40.3901453117, -20.597829948], [-40.3917724432, -20.5979224325], [-40.3916650363, -20.5970023721], [-40.3902672603, -20.5969071997]]], [[[-40.6505586824, -20.4583791536], [-40.6442804896, -20.4666361855], [-40.6347119987, -20.4675219582], [-40.6335661467, -20.4713570664], [-40.6258465148, -20.467783988], [-40.6047891245, -20.4868795017], [-40.599291189, -20.4819905975], [-40.5911848633, -20.4828015307], [-40.5814171932, -20.4770121562], [-40.5748584168, -20.4786374543], [-40.5517384701, -20.4736016058], [-40.5465418715, -20.4758376197], [-40.5377200777, -20.4724886284], [-40.4842392791, -20.505324861], [-40.4746133776, -20.5065561351], [-40.4554690392, -20.5090038799], [-40.3904819458, -20.5172925752], [-40.3798461484, -20.5186466026], [-40.378969511, -20.5254044163], [-40.3745436889, -20.5287423201], [-40.3762707023, -20.5364119452], [-40.4002284437, -20.5762506729], [-40.4034409928, -20.598554593], [-40.4199753744, -20.6212609535], [-40.4258824042, -20.6334600037], [-40.4225194834, -20.634948314], [-40.4243955222, -20.6373621525], [-40.4277480056, -20.6350734348], [-40.4328820044, -20.6422566134], [-40.4374581427, -20.6340301777], [-40.4497113231, -20.6377537607], [-40.4451172215, -20.6313119021], [-40.4482163883, -20.626455659], [-40.4637387005, -20.6236715769], [-40.4640636973, -20.6302185599], [-40.4697101358, -20.63372973], [-40.4657667507, -20.6356071404], [-40.469832452, -20.6385292617], [-40.4637237596, -20.6461496855], [-40.4677872353, -20.6456793368], [-40.4720924911, -20.6504652556], [-40.4713175677, -20.6533365857], [-40.4647204796, -20.6521290806], [-40.4675735192, -20.6599476417], [-40.4750659304, -20.6610549114], [-40.4734936808, -20.6550904715], [-40.4829593481, -20.6533284158], [-40.4941027016, -20.6602809373], [-40.4968989464, -20.665868696], [-40.502797962, -20.666890139], [-40.5046106249, -20.6680967552], [-40.505485828, -20.6670498888], [-40.5044766224, -20.666417922], [-40.5200374977, -20.6620397559], [-40.524651758, -20.6635231867], [-40.5266461394, -20.6551463971], [-40.5292832945, -20.6767162141], [-40.5364566097, -20.6741596458], [-40.5396500902, -20.6764554738], [-40.5407377098, -20.6726108471], [-40.5443150875, -20.6730866369], [-40.5388194709, -20.6779944208], [-40.5349332862, -20.6757872076], [-40.5292915713, -20.6779210427], [-40.5367564497, -20.6851904564], [-40.5223137415, -20.6909253808], [-40.5164813195, -20.6852146593], [-40.5307592735, -20.6841913988], [-40.5271754072, -20.6789528288], [-40.5271173081, -20.6684628576], [-40.5230122928, -20.6673014636], [-40.5263719161, -20.6666726115], [-40.5174785298, -20.6649044592], [-40.5048745315, -20.6706649465], [-40.49308473, -20.6641327391], [-40.490808001, -20.6672997589], [-40.4960645629, -20.6714349884], [-40.4956733489, -20.6766981541], [-40.5013854193, -20.6762811269], [-40.5112880021, -20.6926400113], [-40.5236249058, -20.7230735447], [-40.5205612579, -20.7302134932], [-40.5264534257, -20.728676024], [-40.5255630947, -20.7342891225], [-40.5335816483, -20.7355113689], [-40.5325936088, -20.7404455566], [-40.5371961721, -20.744990516], [-40.5371565111, -20.7388971371], [-40.5494444044, -20.7405705532], [-40.5706220148, -20.7658443362], [-40.5757996815, -20.7569076255], [-40.5846378671, -20.7416491172], [-40.6358192783, -20.6508316514], [-40.647604488, -20.6277421375], [-40.6470467532, -20.6171303522], [-40.6448785299, -20.5856422614], [-40.6444675483, -20.5848606908], [-40.6427518983, -20.5587807367], [-40.6377370402, -20.5506246394], [-40.6394952206, -20.546761436], [-40.6471869227, -20.5461609596], [-40.6667589542, -20.5580047245], [-40.6769806368, -20.5661352472], [-40.6725116204, -20.573826711], [-40.6815365494, -20.5784870596], [-40.6843762062, -20.5661839478], [-40.6810245865, -20.5565137667], [-40.6758636379, -20.5540789126], [-40.6729289693, -20.5572718804], [-40.6705042319, -20.5512015369], [-40.6726969374, -20.5443777751], [-40.7024728143, -20.5362446975], [-40.7011583956, -20.525246785], [-40.6912724654, -20.5244541461], [-40.6956384946, -20.5203588314], [-40.6924617441, -20.5114724215], [-40.6950748581, -20.5044633731], [-40.6911532651, -20.4985122036], [-40.6848690961, -20.4995905011], [-40.6824898999, -20.4874557805], [-40.6772403429, -20.4888151875], [-40.6768193384, -20.4848095005], [-40.6780423578, -20.4816405922], [-40.6737517516, -20.4798511001], [-40.6797636167, -20.4739605103], [-40.6753980912, -20.4653202911], [-40.6691125176, -20.4662444843], [-40.6638097476, -20.4624425698], [-40.6586443175, -20.4653692525], [-40.6579572535, -20.4601047968], [-40.6505586824, -20.4583791536]]]]}}, {"type": "Feature", "properties": {"id": "3205002", "name": "Serra", "description": "Serra"}, "geometry": {"type": "Polygon", "coordinates": [[[-40.3848204611, -20.0139604617], [-40.3793384263, -20.0237347585], [-40.3735882025, -20.0233375414], [-40.3672383611, -20.0394984082], [-40.3606717055, -20.0420526987], [-40.3563134721, -20.0485948401], [-40.3493817669, -20.0468140252], [-40.3435052398, -20.0363434691], [-40.3335358659, -20.0342704641], [-40.3263791283, -20.0288171459], [-40.3184199471, -20.0296081629], [-40.3021180204, -20.0248756967], [-40.303213118, -20.0207583527], [-40.2932166346, -20.0249668586], [-40.2904438726, -20.0229637147], [-40.2805736884, -20.0314514294], [-40.2774536018, -20.0287465671], [-40.2715920784, -20.029875511], [-40.2746137292, -20.0354143846], [-40.2723941677, -20.0370216609], [-40.2637710642, -20.0307893328], [-40.2574548208, -20.0406924728], [-40.253443403, -20.0320021192], [-40.2477812479, -20.0374746451], [-40.2165754598, -20.0265962151], [-40.2039614225, -20.0308034096], [-40.2000503271, -20.0355569798], [-40.1950611812, -20.0357731756], [-40.1901416946, -20.0447223964], [-40.1948140493, -20.0538659684], [-40.1903463538, -20.0560795187], [-40.1789779062, -20.0659634716], [-40.1724421978, -20.0742630768], [-40.1716263719, -20.1029332933], [-40.1709692075, -20.1098859396], [-40.183644249, -20.154229099], [-40.1843081408, -20.174405038], [-40.1900613883, -20.1835669109], [-40.1923520593, -20.2017998934], [-40.1974033485, -20.2163509899], [-40.212786649, -20.2393002289], [-40.2224269971, -20.2393623284], [-40.260960486, -20.2396069996], [-40.261392374, -20.2396099975], [-40.2924979471, -20.2396621161], [-40.2936066638, -20.2396566073], [-40.3292309294, -20.2394833485], [-40.326680412, -20.2485078389], [-40.3278761928, -20.2572705629], [-40.3395240032, -20.2598050904], [-40.3396901205, -20.2488684237], [-40.3575776876, -20.2374812799], [-40.3695222702, -20.2157607262], [-40.369755591, -20.2156740993], [-40.374007096, -20.2143211375], [-40.378696905, -20.2097236658], [-40.3836491653, -20.1985065593], [-40.3819567129, -20.1909716912], [-40.3930248353, -20.172227329], [-40.3992461159, -20.1715914758], [-40.4016754303, -20.1674724869], [-40.4114680352, -20.1696197621], [-40.415344397, -20.162158447], [-40.4238521054, -20.159595662], [-40.4234831414, -20.1552429024], [-40.429327077, -20.1511859728], [-40.4359325771, -20.1359113509], [-40.4352226589, -20.0969081246], [-40.4224610906, -20.0432048671], [-40.4162153289, -20.0164739315], [-40.4090069048, -20.017194892], [-40.3983874702, -20.0148646772], [-40.3848204611, -20.0139604617]]]}}, {"type": "Feature", "properties": {"id": "3205101", "name": "Viana", "description": "Viana"}, "geometry": {"type": "Polygon", "coordinates": [[[-40.5677699601, -20.2992117757], [-40.5637852391, -20.3038183094], [-40.560108807, -20.3009773923], [-40.548687705, -20.301758399], [-40.5331992426, -20.290784581], [-40.5318328872, -20.2921104434], [-40.5212819868, -20.2908465524], [-40.5211868634, -20.3245532054], [-40.5149345637, -20.3468812007], [-40.4855756139, -20.347116822], [-40.480336037, -20.3435334461], [-40.4580855576, -20.3316135489], [-40.4525552114, -20.3396433974], [-40.438736475, -20.3324399033], [-40.4354734207, -20.3345589125], [-40.4285713105, -20.3403953033], [-40.4196298865, -20.3407737018], [-40.4042583409, -20.3582751519], [-40.4056841918, -20.3787556021], [-40.39484033, -20.3907875895], [-40.3943375593, -20.3958940511], [-40.3846776993, -20.3937861281], [-40.3707174645, -20.3992082762], [-40.3739536708, -20.4020367213], [-40.3901096931, -20.4085058502], [-40.3908208205, -20.4133627401], [-40.3907677824, -20.418989871], [-40.396296908, -20.4226531819], [-40.4274991145, -20.4254635813], [-40.4372847381, -20.4325938353], [-40.4591031952, -20.4322179055], [-40.4637510612, -20.4320672387], [-40.4720426833, -20.4617118824], [-40.4842392791, -20.505324861], [-40.5377200777, -20.4724886284], [-40.5465418715, -20.4758376197], [-40.5517384701, -20.4736016058], [-40.5748584168, -20.4786374543], [-40.5814171932, -20.4770121562], [-40.5911848633, -20.4828015307], [-40.599291189, -20.4819905975], [-40.6047891245, -20.4868795017], [-40.6258465148, -20.467783988], [-40.6323537923, -20.4618621562], [-40.6218411639, -20.4352885313], [-40.6252241993, -20.4240635599], [-40.6159690244, -20.4213236842], [-40.6148052787, -20.4133906559], [-40.5876213357, -20.4150252421], [-40.5575517642, -20.4085324191], [-40.5501168468, -20.4039687185], [-40.5433707729, -20.4023693777], [-40.5477586901, -20.3991432891], [-40.5339023223, -20.3893111144], [-40.5441843571, -20.3843378388], [-40.5525703693, -20.3885606796], [-40.561068489, -20.3881858307], [-40.5630636694, -20.3857156044], [-40.5594027899, -20.372108499], [-40.5697632869, -20.3775683149], [-40.5719236738, -20.3722153613], [-40.5801301363, -20.3686133998], [-40.5795771501, -20.3621332442], [-40.5857369887, -20.3673442227], [-40.5925209, -20.3667313366], [-40.594504831, -20.362190862], [-40.5884181576, -20.3490516503], [-40.5822410376, -20.3430895213], [-40.5853180169, -20.3414351937], [-40.5847040612, -20.3337144674], [-40.5794840084, -20.3219036511], [-40.5825232796, -20.3045594667], [-40.5822870046, -20.2919843532], [-40.5762208866, -20.2786777683], [-40.5719428744, -20.2798079663], [-40.5729839133, -20.2861074361], [-40.5665383774, -20.2914771395], [-40.5677699601, -20.2992117757]]]}}, {"type": "Feature", "properties": {"id": "3205200", "name": "Vila Velha", "description": "Vila Velha"}, "geometry": {"type": "MultiPolygon", "coordinates": [[[[-40.3563581101, -20.5236331997], [-40.356500731, -20.5241101679], [-40.3575475742, -20.5241738724], [-40.3576887265, -20.5236868922], [-40.3563581101, -20.5236331997]]], [[[-40.3099671051, -20.4210144161], [-40.3118798452, -20.4211923116], [-40.311793626, -20.4203245939], [-40.310168406, -20.4201891267], [-40.3099671051, -20.4210144161]]], [[[-40.2949606794, -20.3809566998], [-40.2978929508, -20.3814320192], [-40.2970196798, -20.3794510683], [-40.2952732816, -20.3797908182], [-40.2949606794, -20.3809566998]]], [[[-40.277441017, -20.364679599], [-40.2790304363, -20.3648432544], [-40.279265096, -20.3636785371], [-40.2775092476, -20.3635913833], [-40.277441017, -20.364679599]]], [[[-40.27913926, -20.3629413686], [-40.280425116, -20.3630710772], [-40.2808287329, -20.3621111503], [-40.2792735508, -20.3621119188], [-40.27913926, -20.3629413686]]], [[[-40.252481384, -20.3531463062], [-40.2537333586, -20.3535121994], [-40.2542253782, -20.3524045242], [-40.2528104177, -20.3521728263], [-40.252481384, -20.3531463062]]], [[[-40.2801196218, -20.3542733847], [-40.2818352465, -20.3544325114], [-40.2816086563, -20.3533835266], [-40.2803842356, -20.3533195757], [-40.2801196218, -20.3542733847]]], [[[-40.2709001572, -20.3342133493], [-40.2721039357, -20.3352206271], [-40.2724352743, -20.3337274679], [-40.271237625, -20.3333677031], [-40.2709001572, -20.3342133493]]], [[[-40.2701717844, -20.3325363132], [-40.2711248147, -20.3329126599], [-40.2717676796, -20.3321116682], [-40.2709878624, -20.3317433191], [-40.2701717844, -20.3325363132]]], [[[-40.2674842456, -20.3319251443], [-40.2692474208, -20.3322151997], [-40.2694225255, -20.3307710556], [-40.2677633022, -20.3304792676], [-40.2674842456, -20.3319251443]]], [[[-40.2708189183, -20.3217844434], [-40.2723154989, -20.3219178334], [-40.2728339054, -20.3202984765], [-40.2709607218, -20.3199081524], [-40.2708189183, -20.3217844434]]], [[[-40.2681501782, -20.3202502459], [-40.2693538905, -20.3212574686], [-40.270201809, -20.3200558773], [-40.2687118865, -20.319378499], [-40.2681501782, -20.3202502459]]], [[[-40.3253006816, -20.3220214007], [-40.3218990561, -20.3254346291], [-40.3207730053, -20.3254979238], [-40.3175213464, -20.3238259029], [-40.3115767856, -20.3295982734], [-40.302982407, -20.3227336483], [-40.2927949181, -20.3264299006], [-40.2937140023, -20.3288110676], [-40.2891913071, -20.3232657906], [-40.2836146804, -20.3245885706], [-40.2758740357, -20.3197644215], [-40.2736919216, -20.3248732216], [-40.2687408062, -20.3244844464], [-40.2704590702, -20.3299092452], [-40.2749091528, -20.3298768691], [-40.2745420307, -20.3337663028], [-40.2769871415, -20.3321798713], [-40.2819344234, -20.3359060789], [-40.2847939195, -20.3523445105], [-40.2962921487, -20.3607239564], [-40.3094658523, -20.3809781744], [-40.322255047, -20.4101420686], [-40.3231116277, -20.422147686], [-40.320163969, -20.426051035], [-40.3485900904, -20.4767380119], [-40.3564103781, -20.4980127125], [-40.3583217306, -20.5185299645], [-40.3658206803, -20.5204468866], [-40.3762707023, -20.5364119452], [-40.3745436889, -20.5287423201], [-40.378969511, -20.5254044163], [-40.3798461484, -20.5186466026], [-40.3904819458, -20.5172925752], [-40.4554690392, -20.5090038799], [-40.4746133776, -20.5065561351], [-40.4842392791, -20.505324861], [-40.4720426833, -20.4617118824], [-40.4637510612, -20.4320672387], [-40.4591031952, -20.4322179055], [-40.4372847381, -20.4325938353], [-40.4274991145, -20.4254635813], [-40.396296908, -20.4226531819], [-40.3907677824, -20.418989871], [-40.3908208205, -20.4133627401], [-40.3901096931, -20.4085058502], [-40.3739536708, -20.4020367213], [-40.3707174645, -20.3992082762], [-40.3659271062, -20.3947472372], [-40.3654238723, -20.3702091036], [-40.357857318, -20.3491154757], [-40.3553706268, -20.3264475808], [-40.3513652433, -20.3269368006], [-40.3451521775, -20.3259921865], [-40.3253006816, -20.3220214007]]]]}}, {"type": "Feature", "properties": {"id": "3205309", "name": "Vitória", "description": "Vitória"}, "geometry": {"type": "MultiPolygon", "coordinates": [[[[-40.2502267496, -20.3517071357], [-40.2519150953, -20.3520084944], [-40.2516568775, -20.350939462], [-40.2503063244, -20.3508249598], [-40.2502267496, -20.3517071357]]], [[[-40.2418353921, -20.2938989107], [-40.241957278, -20.2945729103], [-40.2429081432, -20.2945221965], [-40.2426949395, -20.2939127734], [-40.2418353921, -20.2938989107]]], [[[-40.2294039411, -20.2581765969], [-40.238476194, -20.2801954197], [-40.2370934668, -20.2890086779], [-40.2500857798, -20.2945950952], [-40.2535519357, -20.2889746053], [-40.2504572448, -20.2795195158], [-40.2560654794, -20.2678884915], [-40.2612820475, -20.265908838], [-40.2855415437, -20.276858811], [-40.2916475235, -20.2852594226], [-40.2891908243, -20.2934619748], [-40.2842136382, -20.294049746], [-40.2912782554, -20.3012636289], [-40.2786726006, -20.2980830446], [-40.2769324533, -20.3003336699], [-40.2829311069, -20.3046817325], [-40.2917701876, -20.3053551761], [-40.2908979187, -20.3080207365], [-40.2798872321, -20.3068775752], [-40.2768124766, -20.3105497783], [-40.2882844134, -20.3138465605], [-40.2891913071, -20.3232657906], [-40.2937140023, -20.3288110676], [-40.2927949181, -20.3264299006], [-40.302982407, -20.3227336483], [-40.3115767856, -20.3295982734], [-40.3175213464, -20.3238259029], [-40.3207730053, -20.3254979238], [-40.3218990561, -20.3254346291], [-40.3253006816, -20.3220214007], [-40.3451521775, -20.3259921865], [-40.3513652433, -20.3269368006], [-40.3553706268, -20.3264475808], [-40.3633596045, -20.3152735273], [-40.3633188573, -20.3052006127], [-40.3548166557, -20.2964468787], [-40.3500611964, -20.2846385712], [-40.3441019025, -20.2795977064], [-40.3313630402, -20.2631324031], [-40.3278761928, -20.2572705629], [-40.326680412, -20.2485078389], [-40.3292309294, -20.2394833485], [-40.2936066638, -20.2396566073], [-40.2924979471, -20.2396621161], [-40.261392374, -20.2396099975], [-40.260960486, -20.2396069996], [-40.2224269971, -20.2393623284], [-40.212786649, -20.2393002289], [-40.2294039411, -20.2581765969]]]]}}]}