{"type":"FeatureCollection", "features": [
{"type":"Feature","geometry":{"type":"Polygon","coordinates":[[[-40.48652,-19.86629],[-40.48974,-19.86456],[-40.49038,-19.86795],[-40.4903,-19.88027],[-40.49117,-19.8844],[-40.49114,-19.89178],[-40.49246,-19.89438],[-40.49044,-19.9012],[-40.49434,-19.90569],[-40.49274,-19.90646],[-40.49223,-19.90848],[-40.49046,-19.91005],[-40.49029,-19.91151],[-40.48635,-19.91588],[-40.48784,-19.91616],[-40.48906,-19.918],[-40.49198,-19.91991],[-40.49325,-19.92612],[-40.48787,-19.93409],[-40.48574,-19.93626],[-40.48379,-19.93691],[-40.48088,-19.93663],[-40.47535,-19.93741],[-40.46963,-19.93583],[-40.46898,-19.93476],[-40.46422,-19.93443],[-40.46206,-19.9348],[-40.46089,-19.93573],[-40.45889,-19.93522],[-40.45607,-19.93662],[-40.45279,-19.93723],[-40.452,-19.93462],[-40.4524,-19.93193],[-40.45167,-19.92505],[-40.45089,-19.92367],[-40.44967,-19.92378],[-40.44879,-19.92477],[-40.44754,-19.92401],[-40.44609,-19.92473],[-40.44325,-19.92338],[-40.43848,-19.91979],[-40.43744,-19.91798],[-40.43758,-19.91609],[-40.433,-19.91172],[-40.4327,-19.90798],[-40.43364,-19.90519],[-40.43364,-19.90157],[-40.43459,-19.90053],[-40.43492,-19.89794],[-40.43879,-19.88954],[-40.43906,-19.88712],[-40.44045,-19.88622],[-40.44107,-19.88817],[-40.44347,-19.88882],[-40.4437,-19.89104],[-40.44497,-19.89326],[-40.44711,-19.89298],[-40.45029,-19.89055],[-40.45263,-19.89308],[-40.45313,-19.89548],[-40.45394,-19.89545],[-40.45458,-19.88999],[-40.45396,-19.88897],[-40.45469,-19.88583],[-40.45409,-19.88233],[-40.45809,-19.87916],[-40.45921,-19.87949],[-40.46072,-19.87797],[-40.46568,-19.86899],[-40.46966,-19.86743],[-40.47321,-19.86742],[-40.4778,-19.86856],[-40.48131,-19.86571],[-40.48652,-19.86629]]]},"properties":{"tipo":"unidade_conservacao","nome":"ÁREA DE PROTEÇÃO AMBIENTAL DO PICO DO GOIAPABA-AÇU","categoria":"Área de Proteção Ambiental","grupo":"Uso Sustentável","esfera":"Estadual","municipio":"FUNDÃO (ES), SANTA TERESA (ES)","area_ha":"3523.85","situacao":"Ativo"}},
{"type":"Feature","geometry":{"type":"Polygon","coordinates":[[[-40.38102,-20.53874],[-40.38147,-20.53842],[-40.38287,-20.53757],[-40.38328,-20.53727],[-40.38614,-20.53543],[-40.38686,-20.53499],[-40.40665,-20.5605],[-40.40703,-20.56112],[-40.4072,-20.56147],[-40.40818,-20.56343],[-40.4085,-20.56408],[-40.40872,-20.56489],[-40.40883,-20.5651],[-40.40908,-20.5652],[-40.41547,-20.57781],[-40.41578,-20.57835],[-40.41662,-20.57994],[-40.41731,-20.58093],[-40.4177,-20.58144],[-40.41797,-20.58174],[-40.41849,-20.58227],[-40.41909,-20.5828],[-40.42096,-20.58428],[-40.42167,-20.58477],[-40.42178,-20.58486],[-40.42202,-20.58504],[-40.42231,-20.58525],[-40.42264,-20.58549],[-40.42283,-20.58566],[-40.42304,-20.58586],[-40.42317,-20.58599],[-40.42374,-20.58667],[-40.42424,-20.58755],[-40.42729,-20.60765],[-40.4331,-20.62168],[-40.42597,-20.63049],[-40.42589,-20.63023],[-40.42578,-20.62989],[-40.42562,-20.62954],[-40.4249,-20.62808],[-40.42256,-20.62371],[-40.42122,-20.62163],[-40.41949,-20.61868],[-40.41931,-20.6184],[-40.41927,-20.61835],[-40.41921,-20.61827],[-40.41903,-20.61801],[-40.41876,-20.61758],[-40.41783,-20.61647],[-40.41754,-20.6165],[-40.41714,-20.61646],[-40.41711,-20.61642],[-40.41697,-20.61641],[-40.41688,-20.61631],[-40.41626,-20.61621],[-40.4166,-20.61583],[-40.41592,-20.61456],[-40.40778,-20.60396],[-40.40469,-20.59917],[-40.40396,-20.59577],[-40.40373,-20.58587],[-40.40259,-20.58117],[-40.40008,-20.57372],[-40.3952,-20.56285],[-40.39274,-20.55827],[-40.39234,-20.55775],[-40.39216,-20.55739],[-40.39193,-20.55702],[-40.39082,-20.55524],[-40.38855,-20.55179],[-40.38738,-20.54996],[-40.38636,-20.54848],[-40.3854,-20.54734],[-40.38517,-20.54703],[-40.38506,-20.54688],[-40.38492,-20.54668],[-40.38468,-20.54636],[-40.38454,-20.54616],[-40.38364,-20.54498],[-40.38314,-20.5443],[-40.3826,-20.54344],[-40.38188,-20.54244],[-40.38155,-20.54198],[-40.38149,-20.54189],[-40.3814,-20.54177],[-40.38081,-20.54106],[-40.38027,-20.54042],[-40.37977,-20.53957],[-40.37973,-20.53953],[-40.37975,-20.53952],[-40.38055,-20.53901],[-40.38056,-20.53902],[-40.38102,-20.53874]]]},"properties":{"tipo":"unidade_conservacao","nome":"PARQUE ESTADUAL PAULO CÉSAR VINHA","categoria":"Parque","grupo":"Proteção Integral","esfera":"Estadual","municipio":"GUARAPARI (ES)","area_ha":"1504.53","situacao":"Ativo"}},
{"type":"Feature","geometry":{"type":"Polygon","coordinates":[[[-40.22217,-20.23397],[-40.2198,-20.23989],[-40.21831,-20.24196],[-40.21492,-20.24308],[-40.21271,-20.23924],[-40.21307,-20.23791],[-40.21562,-20.23607],[-40.21566,-20.23531],[-40.21405,-20.2326],[-40.20952,-20.22944],[-40.21287,-20.22299],[-40.21913,-20.21807],[-40.21982,-20.21997],[-40.22241,-20.21912],[-40.22394,-20.22125],[-40.23257,-20.2194],[-40.23645,-20.21205],[-40.24121,-20.21454],[-40.23958,-20.2177],[-40.23362,-20.22176],[-40.23146,-20.22772],[-40.22879,-20.23073],[-40.22411,-20.23195],[-40.22217,-20.23397]]]},"properties":{"tipo":"unidade_conservacao","nome":"ÁREA DE PROTEÇÃO AMBIENTAL DE PRAIA MOLE","categoria":"Área de Proteção Ambiental","grupo":"Uso Sustentável","esfera":"Estadual","municipio":"SERRA (ES)","area_ha":"398.33","situacao":"Ativo"}},
{"type":"Feature","geometry":{"type":"Polygon","coordinates":[[[-40.40629,-20.51159],[-40.41726,-20.51734],[-40.43,-20.53144],[-40.42804,-20.54838],[-40.43891,-20.55686],[-40.44173,-20.56987],[-40.44424,-20.58812],[-40.43468,-20.60207],[-40.45927,-20.60796],[-40.44834,-20.62141],[-40.44852,-20.62251],[-40.44609,-20.62237],[-40.44684,-20.62363],[-40.44663,-20.62383],[-40.44563,-20.62356],[-40.44385,-20.62394],[-40.4436,-20.62504],[-40.44405,-20.62708],[-40.44391,-20.63015],[-40.44479,-20.6314],[-40.44911,-20.63386],[-40.45055,-20.63519],[-40.45078,-20.63629],[-40.45113,-20.66964],[-40.44939,-20.66969],[-40.44906,-20.66985],[-40.44865,-20.67028],[-40.44827,-20.67104],[-40.44815,-20.67164],[-40.4482,-20.67242],[-40.44972,-20.67602],[-40.45007,-20.67716],[-40.45009,-20.67844],[-40.44991,-20.67902],[-40.44933,-20.67997],[-40.44814,-20.68044],[-40.44688,-20.68064],[-40.44564,-20.68066],[-40.44493,-20.68058],[-40.44467,-20.68047],[-40.44415,-20.68023],[-40.44269,-20.67948],[-40.44134,-20.67806],[-40.43486,-20.6637],[-40.43208,-20.66018],[-40.43076,-20.65933],[-40.41364,-20.65105],[-40.41228,-20.64946],[-40.40976,-20.64557],[-40.40183,-20.63884],[-40.40143,-20.63774],[-40.40133,-20.63671],[-40.40134,-20.63548],[-40.40172,-20.63427],[-40.4018,-20.6336],[-40.4012,-20.63281],[-40.40081,-20.63257],[-40.40043,-20.63252],[-40.40001,-20.63258],[-40.39944,-20.63298],[-40.39206,-20.63977],[-40.39047,-20.64039],[-40.38831,-20.64042],[-40.38806,-20.6404],[-40.38748,-20.6403],[-40.38281,-20.63891],[-40.38149,-20.63862],[-40.37782,-20.63591],[-40.37578,-20.63008],[-40.36801,-20.62214],[-40.36405,-20.61449],[-40.36428,-20.61292],[-40.3665,-20.60956],[-40.36721,-20.60527],[-40.36494,-20.5962],[-40.36304,-20.59145],[-40.3626,-20.57894],[-40.36179,-20.5775],[-40.35611,-20.5743],[-40.35428,-20.57221],[-40.34454,-20.55721],[-40.34265,-20.55525],[-40.34214,-20.55495],[-40.34146,-20.55486],[-40.3408,-20.55479],[-40.34014,-20.55465],[-40.33968,-20.5545],[-40.33881,-20.55422],[-40.33709,-20.55225],[-40.33597,-20.5436],[-40.33195,-20.5374],[-40.3685,-20.52459],[-40.37339,-20.52284],[-40.38806,-20.51776],[-40.39351,-20.52381],[-40.40629,-20.51159]],[[-40.38102,-20.53874],[-40.38056,-20.53902],[-40.38055,-20.53901],[-40.37975,-20.53952],[-40.37973,-20.53953],[-40.37977,-20.53957],[-40.38027,-20.54042],[-40.38081,-20.54106],[-40.3814,-20.54177],[-40.38149,-20.54189],[-40.38155,-20.54198],[-40.38188,-20.54244],[-40.3826,-20.54344],[-40.38314,-20.5443],[-40.38364,-20.54498],[-40.38454,-20.54616],[-40.38468,-20.54636],[-40.38492,-20.54668],[-40.38506,-20.54688],[-40.38517,-20.54703],[-40.3854,-20.54734],[-40.38636,-20.54848],[-40.38738,-20.54996],[-40.38855,-20.55179],[-40.39082,-20.55524],[-40.39193,-20.55702],[-40.39216,-20.55739],[-40.39234,-20.55775],[-40.39274,-20.55827],[-40.3952,-20.56285],[-40.40008,-20.57372],[-40.40259,-20.58117],[-40.40373,-20.58587],[-40.40396,-20.59577],[-40.40469,-20.59917],[-40.40778,-20.60396],[-40.41592,-20.61456],[-40.4166,-20.61583],[-40.41626,-20.61621],[-40.41688,-20.61631],[-40.41697,-20.61641],[-40.41711,-20.61642],[-40.41714,-20.61646],[-40.41754,-20.6165],[-40.41783,-20.61647],[-40.41876,-20.61758],[-40.41903,-20.61801],[-40.41921,-20.61827],[-40.41927,-20.61835],[-40.41931,-20.6184],[-40.41949,-20.61868],[-40.42122,-20.62163],[-40.42256,-20.62371],[-40.4249,-20.62808],[-40.42562,-20.62954],[-40.42578,-20.62989],[-40.42589,-20.63023],[-40.42597,-20.63049],[-40.4331,-20.62168],[-40.42729,-20.60765],[-40.42424,-20.58755],[-40.42374,-20.58667],[-40.42317,-20.58599],[-40.42304,-20.58586],[-40.42283,-20.58566],[-40.42264,-20.58549],[-40.42231,-20.58525],[-40.42202,-20.58504],[-40.42178,-20.58486],[-40.42167,-20.58477],[-40.42096,-20.58428],[-40.41909,-20.5828],[-40.41849,-20.58227],[-40.41797,-20.58174],[-40.4177,-20.58144],[-40.41731,-20.58093],[-40.41662,-20.57994],[-40.41578,-20.57835],[-40.41547,-20.57781],[-40.40908,-20.5652],[-40.40883,-20.5651],[-40.40872,-20.56489],[-40.4085,-20.56408],[-40.40818,-20.56343],[-40.4072,-20.56147],[-40.40703,-20.56112],[-40.40665,-20.5605],[-40.38686,-20.53499],[-40.38614,-20.53543],[-40.38328,-20.53727],[-40.38287,-20.53757],[-40.38147,-20.53842],[-40.38102,-20.53874]]]},"properties":{"tipo":"unidade_conservacao","nome":"ÁREA DE PROTEÇÃO AMBIENTAL DE SETIBA","categoria":"Área de Proteção Ambiental","grupo":"Uso Sustentável","esfera":"Estadual","municipio":"GUARAPARI (ES), VILA VELHA (ES)","area_ha":"10971.45","situacao":"Ativo"}},
{"type":"Feature","geometry":{"type":"Polygon","coordinates":[[[-40.56223,-20.6691],[-40.56076,-20.67097],[-40.55965,-20.67063],[-40.55726,-20.67189],[-40.55663,-20.67319],[-40.55756,-20.674],[-40.55722,-20.67462],[-40.55537,-20.67442],[-40.55426,-20.67313],[-40.55316,-20.67355],[-40.55306,-20.67472],[-40.55216,-20.67524],[-40.55222,-20.67654],[-40.55051,-20.67613],[-40.55055,-20.67409],[-40.54874,-20.6751],[-40.54774,-20.67336],[-40.54717,-20.67348],[-40.54828,-20.67738],[-40.54812,-20.67925],[-40.54515,-20.67825],[-40.54371,-20.67946],[-40.54308,-20.67813],[-40.54149,-20.68025],[-40.53773,-20.68187],[-40.53686,-20.68151],[-40.53656,-20.6801],[-40.53479,-20.67953],[-40.53649,-20.68296],[-40.53767,-20.68266],[-40.53852,-20.68383],[-40.54143,-20.68378],[-40.54263,-20.6858],[-40.54834,-20.68768],[-40.54918,-20.68899],[-40.55059,-20.68887],[-40.55115,-20.68961],[-40.55073,-20.69024],[-40.54628,-20.68921],[-40.54564,-20.68948],[-40.5462,-20.69051],[-40.54761,-20.69068],[-40.54631,-20.6916],[-40.54148,-20.68923],[-40.53318,-20.68759],[-40.53163,-20.68925],[-40.52533,-20.69068],[-40.52112,-20.69557],[-40.51615,-20.69213],[-40.51624,-20.6914],[-40.51495,-20.69058],[-40.51417,-20.69102],[-40.51115,-20.68928],[-40.51016,-20.68518],[-40.50928,-20.68521],[-40.50788,-20.68386],[-40.5107,-20.68248],[-40.513,-20.68235],[-40.51389,-20.68477],[-40.51508,-20.68471],[-40.51642,-20.68324],[-40.51715,-20.68099],[-40.52087,-20.68124],[-40.52032,-20.67846],[-40.52131,-20.67803],[-40.52196,-20.67625],[-40.52425,-20.67502],[-40.52423,-20.67368],[-40.52386,-20.67182],[-40.52304,-20.67175],[-40.52091,-20.66906],[-40.52118,-20.66824],[-40.5198,-20.66721],[-40.51978,-20.66598],[-40.51625,-20.67004],[-40.51535,-20.66847],[-40.51241,-20.66883],[-40.50913,-20.67061],[-40.50446,-20.67086],[-40.50024,-20.66998],[-40.49899,-20.66905],[-40.50112,-20.66761],[-40.50036,-20.6669],[-40.50069,-20.66575],[-40.49912,-20.66596],[-40.49822,-20.66472],[-40.49992,-20.66409],[-40.50194,-20.66589],[-40.50554,-20.66699],[-40.50609,-20.66638],[-40.5136,-20.66598],[-40.51413,-20.66301],[-40.51347,-20.66229],[-40.51468,-20.66059],[-40.51263,-20.65958],[-40.5133,-20.65808],[-40.5112,-20.65866],[-40.51053,-20.65827],[-40.51149,-20.65733],[-40.51561,-20.65597],[-40.51599,-20.65533],[-40.51502,-20.6543],[-40.51534,-20.6537],[-40.5173,-20.6556],[-40.5165,-20.6572],[-40.51713,-20.65841],[-40.5161,-20.66007],[-40.51675,-20.66212],[-40.51813,-20.66215],[-40.51847,-20.66286],[-40.52355,-20.66178],[-40.52499,-20.66219],[-40.52449,-20.66087],[-40.52533,-20.66033],[-40.52603,-20.65623],[-40.52545,-20.65321],[-40.52448,-20.65248],[-40.5261,-20.6513],[-40.52766,-20.65292],[-40.52705,-20.65397],[-40.52764,-20.65744],[-40.527,-20.65989],[-40.528,-20.66052],[-40.52719,-20.66179],[-40.52737,-20.66269],[-40.52915,-20.66395],[-40.5282,-20.66514],[-40.53003,-20.66674],[-40.53,-20.67321],[-40.53089,-20.67256],[-40.53155,-20.66792],[-40.5323,-20.6675],[-40.53686,-20.66819],[-40.53704,-20.66913],[-40.53401,-20.6693],[-40.53417,-20.6703],[-40.53332,-20.67098],[-40.53529,-20.67107],[-40.53685,-20.6726],[-40.53786,-20.67274],[-40.54372,-20.6698],[-40.54938,-20.67123],[-40.55079,-20.67097],[-40.55284,-20.66775],[-40.55346,-20.66819],[-40.55339,-20.67001],[-40.55445,-20.66917],[-40.55727,-20.66971],[-40.55891,-20.66798],[-40.56004,-20.6689],[-40.56177,-20.66855],[-40.56223,-20.6691]]]},"properties":{"tipo":"unidade_conservacao","nome":"RESERVA ESTADUAL DE DESENVOLVIMENTO SUSTENTÁVEL CONCHA D´OSTRA","categoria":"Reserva de Desenvolvimento Sustentável","grupo":"Uso Sustentável","esfera":"Estadual","municipio":"GUARAPARI (ES)","area_ha":"953.66","situacao":"Ativo"}},
{"type":"Feature","geometry":{"type":"Polygon","coordinates":[[[-40.47455,-19.91716],[-40.47066,-19.91688],[-40.46955,-19.91243],[-40.47344,-19.89966],[-40.4776,-19.90549],[-40.47455,-19.91716]]]},"properties":{"tipo":"unidade_conservacao","nome":"PARQUE NATURAL MUNICIPAL GOIAPABA-AÇU","categoria":"Parque","grupo":"Proteção Integral","esfera":"Municipal","municipio":"FUNDÃO (ES)","area_ha":"","situacao":"Ativo"}},
{"type":"Feature","geometry":{"type":"Polygon","coordinates":[[[-40.49219,-20.38839],[-40.49298,-20.3872],[-40.49422,-20.38832],[-40.49317,-20.38959],[-40.49219,-20.38839]]]},"properties":{"tipo":"unidade_conservacao","nome":"PARQUE NATURAL MUNICIPAL ROTA DAS GARÇAS","categoria":"Parque","grupo":"Proteção Integral","esfera":"Municipal","municipio":"VIANA (ES)","area_ha":"3.32","situacao":"Ativo"}},
{"type":"Feature","geometry":{"type":"Polygon","coordinates":[[[-40.31005,-20.19373],[-40.30294,-20.18994],[-40.30113,-20.19004],[-40.29801,-20.19305],[-40.29401,-20.19128],[-40.28982,-20.18609],[-40.29097,-20.18289],[-40.29219,-20.18168],[-40.29235,-20.1791],[-40.29027,-20.17689],[-40.28578,-20.17641],[-40.28452,-20.17302],[-40.28307,-20.17291],[-40.28451,-20.16832],[-40.28336,-20.16885],[-40.28254,-20.17041],[-40.28214,-20.16959],[-40.28084,-20.17001],[-40.2789,-20.1691],[-40.28108,-20.16642],[-40.27885,-20.16578],[-40.27755,-20.1661],[-40.27855,-20.1636],[-40.28142,-20.16007],[-40.28305,-20.15606],[-40.28747,-20.1584],[-40.2914,-20.15853],[-40.29456,-20.15477],[-40.2993,-20.1522],[-40.30365,-20.14608],[-40.3109,-20.14665],[-40.31182,-20.14759],[-40.31385,-20.1468],[-40.31493,-20.14418],[-40.31664,-20.14305],[-40.31924,-20.14392],[-40.32171,-20.14356],[-40.32284,-20.14458],[-40.324,-20.1439],[-40.32503,-20.14417],[-40.32707,-20.1461],[-40.32708,-20.14431],[-40.32864,-20.14263],[-40.33433,-20.14568],[-40.33497,-20.14668],[-40.33484,-20.15338],[-40.33698,-20.15681],[-40.3365,-20.16106],[-40.33693,-20.16898],[-40.34134,-20.1705],[-40.34169,-20.1717],[-40.34096,-20.17384],[-40.33991,-20.17418],[-40.3377,-20.17714],[-40.33481,-20.17522],[-40.33386,-20.17886],[-40.33092,-20.18299],[-40.3283,-20.18419],[-40.32747,-20.18691],[-40.3258,-20.18693],[-40.32444,-20.18834],[-40.31989,-20.18939],[-40.31903,-20.19045],[-40.31912,-20.1894],[-40.31725,-20.18858],[-40.31256,-20.19053],[-40.31005,-20.19373]]]},"properties":{"tipo":"unidade_conservacao","nome":"ÁREA DE PROTEÇÃO AMBIENTAL ESTADUAL MESTRE ÁLVARO","categoria":"Área de Proteção Ambiental","grupo":"Uso Sustentável","esfera":"Municipal","municipio":"SERRA (ES)","area_ha":"2393.16","situacao":"Ativo"}},
{"type":"Feature","geometry":{"type":"Polygon","coordinates":[[[-40.21251,-20.1476],[-40.21225,-20.14676],[-40.21367,-20.14641],[-40.21583,-20.14452],[-40.22158,-20.14307],[-40.22078,-20.14149],[-40.22135,-20.14109],[-40.22242,-20.14219],[-40.22131,-20.14475],[-40.21982,-20.14573],[-40.21786,-20.14581],[-40.21677,-20.14747],[-40.21474,-20.14781],[-40.21574,-20.14895],[-40.2194,-20.14946],[-40.22198,-20.14804],[-40.22255,-20.14664],[-40.22217,-20.14494],[-40.22332,-20.14338],[-40.22354,-20.14545],[-40.2247,-20.14509],[-40.22501,-20.14337],[-40.22578,-20.143],[-40.22638,-20.1445],[-40.22786,-20.14365],[-40.22815,-20.14288],[-40.22627,-20.14197],[-40.22802,-20.14182],[-40.22654,-20.14078],[-40.22769,-20.13974],[-40.22897,-20.14083],[-40.23036,-20.14056],[-40.2296,-20.13932],[-40.23021,-20.13854],[-40.23244,-20.13853],[-40.23306,-20.13925],[-40.23179,-20.13997],[-40.23277,-20.14104],[-40.22946,-20.14203],[-40.22916,-20.14401],[-40.22825,-20.14507],[-40.23048,-20.14486],[-40.23135,-20.14341],[-40.23204,-20.14442],[-40.23397,-20.1438],[-40.23491,-20.14234],[-40.23431,-20.14079],[-40.2357,-20.13837],[-40.23652,-20.13818],[-40.23698,-20.1388],[-40.23772,-20.13769],[-40.24293,-20.13682],[-40.24414,-20.13737],[-40.23785,-20.13885],[-40.23599,-20.14018],[-40.23554,-20.14115],[-40.23654,-20.14125],[-40.24322,-20.1386],[-40.2432,-20.13987],[-40.24207,-20.14005],[-40.24207,-20.14087],[-40.24111,-20.14053],[-40.24096,-20.1412],[-40.23855,-20.14179],[-40.23833,-20.14298],[-40.23735,-20.14223],[-40.23545,-20.14356],[-40.23487,-20.14556],[-40.23703,-20.14542],[-40.23595,-20.14626],[-40.23364,-20.14553],[-40.23251,-20.14616],[-40.22663,-20.14605],[-40.22359,-20.14721],[-40.22317,-20.14912],[-40.22908,-20.14721],[-40.2312,-20.14752],[-40.23215,-20.14926],[-40.2363,-20.14824],[-40.24007,-20.14583],[-40.24155,-20.14293],[-40.24409,-20.14163],[-40.24458,-20.14235],[-40.24163,-20.14418],[-40.24193,-20.14493],[-40.24431,-20.14564],[-40.24583,-20.1452],[-40.24702,-20.14322],[-40.24938,-20.14223],[-40.24916,-20.1434],[-40.24731,-20.14517],[-40.24811,-20.14596],[-40.25059,-20.14526],[-40.25302,-20.14266],[-40.25527,-20.14454],[-40.2583,-20.14241],[-40.25894,-20.14266],[-40.25862,-20.14475],[-40.25521,-20.14574],[-40.25354,-20.14493],[-40.25225,-20.14576],[-40.25217,-20.14666],[-40.24997,-20.14763],[-40.25281,-20.14971],[-40.25386,-20.14771],[-40.25595,-20.14651],[-40.25797,-20.14628],[-40.25766,-20.14755],[-40.25684,-20.14689],[-40.25496,-20.14802],[-40.25383,-20.1502],[-40.25425,-20.15131],[-40.25599,-20.15173],[-40.25744,-20.15131],[-40.25933,-20.14863],[-40.26165,-20.14786],[-40.26391,-20.14585],[-40.26197,-20.14883],[-40.25975,-20.1494],[-40.25833,-20.15111],[-40.25832,-20.15253],[-40.26012,-20.15321],[-40.26268,-20.15289],[-40.26679,-20.14598],[-40.2681,-20.14526],[-40.26899,-20.14551],[-40.26755,-20.14735],[-40.26987,-20.14697],[-40.27118,-20.14838],[-40.27247,-20.14757],[-40.27519,-20.14869],[-40.2752,-20.1497],[-40.2728,-20.14871],[-40.27162,-20.14947],[-40.26967,-20.14798],[-40.26715,-20.148],[-40.26312,-20.15437],[-40.26841,-20.15556],[-40.26923,-20.15467],[-40.27424,-20.15311],[-40.27668,-20.15074],[-40.27552,-20.15301],[-40.27576,-20.15512],[-40.27398,-20.15386],[-40.27025,-20.15485],[-40.26778,-20.15627],[-40.25799,-20.15324],[-40.2572,-20.15385],[-40.25782,-20.15494],[-40.26102,-20.15647],[-40.26236,-20.15912],[-40.26585,-20.15972],[-40.26669,-20.1623],[-40.26932,-20.16578],[-40.26889,-20.16981],[-40.27,-20.16935],[-40.26911,-20.17075],[-40.26791,-20.16934],[-40.2677,-20.17209],[-40.26649,-20.17171],[-40.26541,-20.17009],[-40.26817,-20.16704],[-40.26783,-20.16495],[-40.26542,-20.16022],[-40.26358,-20.16013],[-40.26132,-20.16184],[-40.25986,-20.15646],[-40.25922,-20.15637],[-40.25878,-20.15758],[-40.25789,-20.15729],[-40.25781,-20.15582],[-40.25583,-20.1539],[-40.25516,-20.15539],[-40.25418,-20.15531],[-40.25471,-20.15327],[-40.24851,-20.14931],[-40.24763,-20.14749],[-40.24607,-20.14798],[-40.24386,-20.14672],[-40.24089,-20.1467],[-40.23464,-20.14987],[-40.23373,-20.15118],[-40.23422,-20.15275],[-40.23748,-20.15578],[-40.24034,-20.15268],[-40.24183,-20.15366],[-40.24074,-20.15339],[-40.23965,-20.15432],[-40.23925,-20.15583],[-40.24008,-20.15726],[-40.24218,-20.1572],[-40.24315,-20.15647],[-40.24397,-20.15401],[-40.24583,-20.15548],[-40.24675,-20.15328],[-40.24803,-20.15211],[-40.24714,-20.15463],[-40.2487,-20.1555],[-40.25108,-20.15448],[-40.25064,-20.15652],[-40.25258,-20.15664],[-40.25283,-20.15739],[-40.25223,-20.15814],[-40.24762,-20.15665],[-40.24513,-20.15686],[-40.24462,-20.15747],[-40.24493,-20.1594],[-40.2489,-20.16096],[-40.2504,-20.16071],[-40.25092,-20.15983],[-40.25256,-20.15973],[-40.25377,-20.16121],[-40.24928,-20.16264],[-40.24512,-20.16107],[-40.24466,-20.16015],[-40.24309,-20.16019],[-40.24251,-20.15914],[-40.24107,-20.15848],[-40.24062,-20.15913],[-40.23731,-20.1578],[-40.23519,-20.156],[-40.23301,-20.15561],[-40.23226,-20.15235],[-40.23085,-20.15227],[-40.22851,-20.15055],[-40.22775,-20.1518],[-40.22615,-20.15063],[-40.21934,-20.15141],[-40.21657,-20.15113],[-40.21584,-20.15182],[-40.21834,-20.15324],[-40.2236,-20.15346],[-40.22365,-20.15422],[-40.21916,-20.15444],[-40.2171,-20.15527],[-40.21292,-20.15362],[-40.21457,-20.15551],[-40.21635,-20.1562],[-40.21888,-20.15556],[-40.22332,-20.15577],[-40.22516,-20.15863],[-40.22718,-20.15759],[-40.22701,-20.15978],[-40.23019,-20.15881],[-40.23689,-20.15982],[-40.24066,-20.16154],[-40.24128,-20.16192],[-40.24099,-20.16302],[-40.23351,-20.16023],[-40.22824,-20.16214],[-40.22889,-20.16393],[-40.23193,-20.16372],[-40.23261,-20.16511],[-40.23449,-20.16367],[-40.23654,-20.16456],[-40.23538,-20.16601],[-40.2365,-20.16717],[-40.23854,-20.16559],[-40.24217,-20.16526],[-40.24225,-20.16613],[-40.24033,-20.16658],[-40.23962,-20.16793],[-40.24173,-20.16897],[-40.24528,-20.16746],[-40.24891,-20.16716],[-40.24924,-20.1644],[-40.25116,-20.16409],[-40.25121,-20.1661],[-40.25186,-20.1668],[-40.25349,-20.16639],[-40.25545,-20.16187],[-40.25752,-20.1631],[-40.25933,-20.16279],[-40.26084,-20.16415],[-40.26315,-20.16494],[-40.26381,-20.16672],[-40.25921,-20.16541],[-40.25629,-20.16529],[-40.25594,-20.1662],[-40.26117,-20.17],[-40.26414,-20.16843],[-40.26371,-20.17172],[-40.2657,-20.17198],[-40.26732,-20.17358],[-40.2651,-20.17299],[-40.26441,-20.17461],[-40.26509,-20.17548],[-40.26453,-20.17689],[-40.26293,-20.17277],[-40.25704,-20.17019],[-40.25678,-20.16912],[-40.25514,-20.16816],[-40.25365,-20.1684],[-40.25378,-20.17146],[-40.25285,-20.17143],[-40.25138,-20.1699],[-40.25039,-20.16994],[-40.24933,-20.17149],[-40.24874,-20.16851],[-40.24473,-20.16927],[-40.24548,-20.17021],[-40.24528,-20.17135],[-40.24061,-20.17115],[-40.24398,-20.17351],[-40.24348,-20.17409],[-40.24142,-20.1735],[-40.24124,-20.17427],[-40.2441,-20.1762],[-40.24508,-20.1779],[-40.24973,-20.17646],[-40.25086,-20.17544],[-40.25303,-20.1757],[-40.25558,-20.1739],[-40.25992,-20.17367],[-40.26154,-20.17607],[-40.26357,-20.17639],[-40.26476,-20.17843],[-40.2618,-20.17795],[-40.25958,-20.17595],[-40.25694,-20.1756],[-40.25333,-20.17731],[-40.2508,-20.17753],[-40.25059,-20.17807],[-40.25203,-20.17967],[-40.25051,-20.18025],[-40.25159,-20.18303],[-40.25571,-20.18109],[-40.25934,-20.18197],[-40.26128,-20.1835],[-40.26245,-20.18779],[-40.26195,-20.18796],[-40.26039,-20.18384],[-40.25771,-20.18235],[-40.25536,-20.18267],[-40.25203,-20.18437],[-40.25345,-20.18822],[-40.25617,-20.18972],[-40.25941,-20.1908],[-40.26022,-20.18989],[-40.25953,-20.18774],[-40.26053,-20.18807],[-40.26038,-20.19113],[-40.25849,-20.19138],[-40.26024,-20.19247],[-40.26065,-20.19368],[-40.25823,-20.1939],[-40.25819,-20.19309],[-40.25911,-20.19272],[-40.25743,-20.19216],[-40.25725,-20.19145],[-40.25792,-20.19108],[-40.25653,-20.19069],[-40.25664,-20.19149],[-40.25576,-20.1917],[-40.25379,-20.1902],[-40.25287,-20.19108],[-40.25364,-20.19346],[-40.25182,-20.19401],[-40.25123,-20.19116],[-40.25171,-20.18887],[-40.24961,-20.18778],[-40.25095,-20.1871],[-40.25105,-20.18636],[-40.25012,-20.18556],[-40.24946,-20.18325],[-40.248,-20.18282],[-40.24688,-20.18454],[-40.24629,-20.18203],[-40.24311,-20.18047],[-40.24286,-20.18108],[-40.24419,-20.18207],[-40.24417,-20.185],[-40.24335,-20.18376],[-40.24143,-20.18374],[-40.24163,-20.1829],[-40.24003,-20.18315],[-40.24093,-20.17995],[-40.24199,-20.17897],[-40.24151,-20.17685],[-40.24102,-20.17713],[-40.24131,-20.1784],[-40.23972,-20.17902],[-40.23974,-20.18197],[-40.23889,-20.18205],[-40.23794,-20.1836],[-40.23807,-20.18222],[-40.23899,-20.18157],[-40.2388,-20.18051],[-40.23646,-20.18122],[-40.23754,-20.17883],[-40.23647,-20.17793],[-40.23938,-20.17754],[-40.23685,-20.17608],[-40.23665,-20.17045],[-40.23547,-20.17021],[-40.23364,-20.1685],[-40.23268,-20.16921],[-40.23179,-20.16896],[-40.23116,-20.16774],[-40.22957,-20.16733],[-40.23086,-20.1707],[-40.23189,-20.17037],[-40.23417,-20.17113],[-40.23479,-20.1725],[-40.23254,-20.17178],[-40.23163,-20.17269],[-40.23402,-20.17419],[-40.23594,-20.17431],[-40.23589,-20.17602],[-40.23425,-20.17559],[-40.23482,-20.17667],[-40.23382,-20.17966],[-40.23282,-20.18004],[-40.23365,-20.17728],[-40.23246,-20.17487],[-40.23161,-20.17501],[-40.2318,-20.17662],[-40.23033,-20.17586],[-40.22856,-20.17597],[-40.22787,-20.1746],[-40.22957,-20.17408],[-40.22975,-20.17338],[-40.22863,-20.17227],[-40.2287,-20.17147],[-40.22692,-20.17178],[-40.22752,-20.17033],[-40.22606,-20.16594],[-40.22323,-20.16361],[-40.22189,-20.16149],[-40.21947,-20.16236],[-40.22308,-20.16714],[-40.22486,-20.1678],[-40.22521,-20.17038],[-40.22382,-20.17113],[-40.227,-20.17262],[-40.22829,-20.17873],[-40.22721,-20.17716],[-40.22526,-20.17714],[-40.22471,-20.17496],[-40.22417,-20.17489],[-40.22429,-20.17681],[-40.22219,-20.17568],[-40.22209,-20.17286],[-40.22069,-20.17468],[-40.2198,-20.17069],[-40.21819,-20.16916],[-40.22007,-20.16914],[-40.22023,-20.16814],[-40.21828,-20.16749],[-40.21848,-20.16586],[-40.21644,-20.16587],[-40.21685,-20.1648],[-40.21579,-20.16373],[-40.21396,-20.16515],[-40.21421,-20.16178],[-40.21544,-20.16026],[-40.2106,-20.1561],[-40.20987,-20.15631],[-40.2101,-20.15799],[-40.21258,-20.16204],[-40.20984,-20.16135],[-40.20685,-20.16229],[-40.20679,-20.16295],[-40.20875,-20.16354],[-40.20996,-20.16317],[-40.21064,-20.16447],[-40.21264,-20.16493],[-40.21268,-20.1695],[-40.21149,-20.16789],[-40.20914,-20.1672],[-40.20912,-20.16569],[-40.20729,-20.16755],[-40.20716,-20.16886],[-40.20444,-20.16697],[-40.20496,-20.16508],[-40.20442,-20.16421],[-40.20375,-20.16533],[-40.20391,-20.16707],[-40.20258,-20.1658],[-40.19994,-20.16508],[-40.20149,-20.16329],[-40.19982,-20.16283],[-40.19963,-20.16223],[-40.2033,-20.16173],[-40.19891,-20.15985],[-40.20089,-20.15906],[-40.2031,-20.15922],[-40.20138,-20.15751],[-40.19861,-20.15908],[-40.19827,-20.16039],[-40.19903,-20.1618],[-40.19807,-20.1619],[-40.19801,-20.16345],[-40.1973,-20.16329],[-40.19722,-20.15855],[-40.19863,-20.15616],[-40.20263,-20.15344],[-40.20525,-20.15303],[-40.21115,-20.15039],[-40.21251,-20.1476]]]},"properties":{"tipo":"unidade_conservacao","nome":"ÁREA DE PROTEÇÃO AMBIENTAL MUNICIPAL DA LAGOA JACUNÉM","categoria":"Área de Proteção Ambiental","grupo":"Uso Sustentável","esfera":"Municipal","municipio":"SERRA (ES)","area_ha":"1331.77","situacao":"Ativo"}},
{"type":"Feature","geometry":{"type":"Polygon","coordinates":[[[-40.21096,-20.20434],[-40.21307,-20.20311],[-40.21595,-20.20401],[-40.21831,-20.20386],[-40.22101,-20.20534],[-40.22074,-20.20789],[-40.21899,-20.20793],[-40.21895,-20.21033],[-40.21681,-20.21124],[-40.21696,-20.21201],[-40.21393,-20.20988],[-40.21293,-20.21031],[-40.21255,-20.21316],[-40.21175,-20.21327],[-40.20887,-20.20825],[-40.20923,-20.20546],[-40.21096,-20.20434]]]},"properties":{"tipo":"unidade_conservacao","nome":"PARQUE NATURAL MUNICIPAL DE BICANGA","categoria":"Parque","grupo":"Proteção Integral","esfera":"Municipal","municipio":"SERRA (ES)","area_ha":"87.99","situacao":"Ativo"}},
{"type":"Feature","geometry":{"type":"Polygon","coordinates":[[[-40.44926,-20.29374],[-40.44933,-20.29542],[-40.44736,-20.29731],[-40.44696,-20.29841],[-40.44723,-20.30171],[-40.44605,-20.30418],[-40.44497,-20.30598],[-40.44415,-20.30716],[-40.44071,-20.31021],[-40.4378,-20.31047],[-40.43657,-20.30867],[-40.43312,-20.30828],[-40.42878,-20.30944],[-40.4278,-20.30945],[-40.42667,-20.30604],[-40.42665,-20.30209],[-40.427,-20.30118],[-40.42852,-20.30073],[-40.43204,-20.30139],[-40.43222,-20.29837],[-40.4309,-20.29809],[-40.42889,-20.29554],[-40.42924,-20.29095],[-40.43038,-20.29074],[-40.43131,-20.28839],[-40.43248,-20.28862],[-40.43287,-20.28708],[-40.43476,-20.2874],[-40.43566,-20.28643],[-40.4378,-20.28618],[-40.43862,-20.28699],[-40.44184,-20.28831],[-40.44291,-20.28918],[-40.44381,-20.28859],[-40.44771,-20.29152],[-40.44926,-20.29374]]]},"properties":{"tipo":"unidade_conservacao","nome":"PARQUE NATURAL MUNICIPAL DO MONTE MOCHUARA","categoria":"Parque","grupo":"Proteção Integral","esfera":"Municipal","municipio":"CARIACICA (ES)","area_ha":"436.28","situacao":"Ativo"}},
{"type":"Feature","geometry":{"type":"Polygon","coordinates":[[[-40.42852,-20.30073],[-40.42698,-20.30117],[-40.42636,-20.29925],[-40.42703,-20.29858],[-40.42663,-20.29669],[-40.4249,-20.29374],[-40.41896,-20.2912],[-40.4192,-20.28995],[-40.41809,-20.28804],[-40.41805,-20.28649],[-40.41941,-20.28653],[-40.42082,-20.28458],[-40.42205,-20.28421],[-40.42286,-20.28301],[-40.42416,-20.28297],[-40.42579,-20.2813],[-40.4271,-20.28116],[-40.42906,-20.28285],[-40.43138,-20.28283],[-40.43336,-20.28406],[-40.43521,-20.2803],[-40.43463,-20.27849],[-40.43608,-20.27518],[-40.44432,-20.27211],[-40.44484,-20.27142],[-40.44497,-20.27131],[-40.44516,-20.27118],[-40.44534,-20.2704],[-40.44644,-20.27083],[-40.44774,-20.27021],[-40.44803,-20.26882],[-40.44897,-20.26789],[-40.44946,-20.2676],[-40.45006,-20.26735],[-40.45078,-20.26729],[-40.4514,-20.2672],[-40.45211,-20.26677],[-40.45278,-20.26673],[-40.45312,-20.26609],[-40.45607,-20.26668],[-40.4566,-20.26694],[-40.4571,-20.2674],[-40.45864,-20.26767],[-40.45893,-20.26785],[-40.45956,-20.26849],[-40.45975,-20.26861],[-40.461,-20.26873],[-40.46298,-20.27008],[-40.46451,-20.26904],[-40.46628,-20.26617],[-40.46949,-20.26547],[-40.4757,-20.26997],[-40.47657,-20.27134],[-40.47682,-20.27215],[-40.47705,-20.27269],[-40.47737,-20.273],[-40.47603,-20.27418],[-40.47508,-20.27558],[-40.47417,-20.27638],[-40.4736,-20.27694],[-40.47343,-20.28027],[-40.47306,-20.28074],[-40.47281,-20.28106],[-40.47238,-20.28163],[-40.47201,-20.28229],[-40.47114,-20.28452],[-40.47074,-20.28523],[-40.47048,-20.28562],[-40.46991,-20.28629],[-40.46925,-20.28685],[-40.46881,-20.28709],[-40.46848,-20.28734],[-40.46829,-20.28759],[-40.47093,-20.29239],[-40.47183,-20.29591],[-40.47651,-20.29798],[-40.47877,-20.29977],[-40.48239,-20.3004],[-40.48653,-20.30485],[-40.49063,-20.30564],[-40.49607,-20.31026],[-40.49774,-20.31067],[-40.5002,-20.31011],[-40.50006,-20.31177],[-40.50139,-20.31433],[-40.49852,-20.31606],[-40.49847,-20.31824],[-40.49591,-20.32076],[-40.49538,-20.32023],[-40.49508,-20.32042],[-40.49492,-20.3207],[-40.49448,-20.32109],[-40.48844,-20.32215],[-40.48453,-20.32141],[-40.48234,-20.32386],[-40.47552,-20.32334],[-40.4705,-20.32105],[-40.46454,-20.32217],[-40.46404,-20.32222],[-40.46352,-20.32224],[-40.46322,-20.32222],[-40.46266,-20.32231],[-40.46183,-20.32227],[-40.46122,-20.3224],[-40.46084,-20.3231],[-40.45756,-20.3214],[-40.45553,-20.31941],[-40.45017,-20.31766],[-40.44917,-20.31595],[-40.44609,-20.31403],[-40.44294,-20.31479],[-40.44156,-20.3131],[-40.43685,-20.31351],[-40.43498,-20.31306],[-40.43405,-20.31222],[-40.42846,-20.31107],[-40.427,-20.31018],[-40.42743,-20.30898],[-40.4278,-20.30945],[-40.42878,-20.30944],[-40.43312,-20.30828],[-40.43657,-20.30867],[-40.4378,-20.31047],[-40.44071,-20.31021],[-40.44415,-20.30716],[-40.44497,-20.30598],[-40.44605,-20.30418],[-40.44723,-20.30171],[-40.44696,-20.29841],[-40.44736,-20.29731],[-40.44933,-20.29542],[-40.44926,-20.29374],[-40.44771,-20.29152],[-40.44381,-20.28859],[-40.44291,-20.28918],[-40.44184,-20.28831],[-40.43862,-20.28699],[-40.4378,-20.28618],[-40.43566,-20.28643],[-40.43476,-20.2874],[-40.43287,-20.28708],[-40.43248,-20.28862],[-40.43131,-20.28839],[-40.43038,-20.29074],[-40.42924,-20.29095],[-40.42889,-20.29554],[-40.4309,-20.29809],[-40.43222,-20.29837],[-40.43204,-20.30139],[-40.42852,-20.30073]]]},"properties":{"tipo":"unidade_conservacao","nome":"ÁREA DE PROTEÇÃO AMBIENTAL MUNICIPAL DO MONTE MOCHUARA","categoria":"Área de Proteção Ambiental","grupo":"Uso Sustentável","esfera":"Municipal","municipio":"CARIACICA (ES)","area_ha":"2618.81","situacao":"Ativo"}},
{"type":"Feature","geometry":{"type":"Polygon","coordinates":[[[-40.31487,-20.09127],[-40.31633,-20.09071],[-40.31584,-20.09616],[-40.31906,-20.09437],[-40.31995,-20.09711],[-40.32202,-20.09487],[-40.32338,-20.09677],[-40.3269,-20.09636],[-40.32888,-20.0947],[-40.32999,-20.09627],[-40.33088,-20.09592],[-40.33147,-20.0969],[-40.33308,-20.09636],[-40.33386,-20.09864],[-40.33294,-20.10124],[-40.32959,-20.10348],[-40.32782,-20.10381],[-40.32638,-20.10623],[-40.32347,-20.10834],[-40.32109,-20.10821],[-40.31971,-20.10594],[-40.31868,-20.10685],[-40.31844,-20.10491],[-40.31609,-20.10493],[-40.31574,-20.10365],[-40.31446,-20.10275],[-40.31442,-20.09884],[-40.31135,-20.10086],[-40.31098,-20.09837],[-40.30947,-20.09753],[-40.3097,-20.09583],[-40.31099,-20.09392],[-40.31189,-20.09372],[-40.31364,-20.0913],[-40.31487,-20.09127]]]},"properties":{"tipo":"unidade_conservacao","nome":"ÁREA DE PROTEÇÃO AMBIENTAL MUNICIPAL DO MORRO DO VILANTE","categoria":"Área de Proteção Ambiental","grupo":"Uso Sustentável","esfera":"Municipal","municipio":"SERRA (ES)","area_ha":"249.96","situacao":"Ativo"}},
{"type":"Feature","geometry":{"type":"MultiPolygon","coordinates":[[[[-40.36732,-20.31545],[-40.36557,-20.31954],[-40.36634,-20.31756],[-40.36591,-20.31654],[-40.367,-20.31578],[-40.36559,-20.3162],[-40.36506,-20.31342],[-40.36673,-20.31384],[-40.36759,-20.31475],[-40.36732,-20.31545]]],[[[-40.36831,-20.31574],[-40.36789,-20.3168],[-40.36716,-20.31618],[-40.36746,-20.3156],[-40.36831,-20.31574]]],[[[-40.36844,-20.31587],[-40.37194,-20.31819],[-40.37233,-20.31758],[-40.37645,-20.31927],[-40.37651,-20.31995],[-40.37782,-20.31977],[-40.37605,-20.32002],[-40.37499,-20.3211],[-40.37329,-20.32106],[-40.37228,-20.32016],[-40.37115,-20.32094],[-40.36793,-20.32122],[-40.36857,-20.32001],[-40.36793,-20.31871],[-40.36844,-20.31587]]]]},"properties":{"tipo":"unidade_conservacao","nome":"PARQUE NATURAL MUNICIPAL DO MANGUEZAL DE ITANGUÁ","categoria":"Parque","grupo":"Proteção Integral","esfera":"Municipal","municipio":"CARIACICA (ES)","area_ha":"37.56","situacao":"Ativo"}},
{"type":"Feature","geometry":{"type":"MultiPolygon","coordinates":[[[[-40.35922,-20.24174],[-40.35152,-20.24495],[-40.3481,-20.24498],[-40.34538,-20.24607],[-40.34465,-20.24846],[-40.34204,-20.25061],[-40.34116,-20.25407],[-40.34269,-20.26237],[-40.34355,-20.26393],[-40.34626,-20.26468],[-40.3478,-20.26763],[-40.34967,-20.26841],[-40.34863,-20.26663],[-40.3526,-20.27114],[-40.35169,-20.26645],[-40.35377,-20.26489],[-40.35574,-20.26441],[-40.3572,-20.265],[-40.35786,-20.26623],[-40.36056,-20.26588],[-40.3603,-20.26635],[-40.36124,-20.26667],[-40.36155,-20.26577],[-40.36289,-20.26606],[-40.36243,-20.26702],[-40.3649,-20.26681],[-40.36754,-20.27198],[-40.37314,-20.27647],[-40.37593,-20.28029],[-40.37672,-20.28395],[-40.37444,-20.28246],[-40.36878,-20.28147],[-40.36752,-20.28028],[-40.366,-20.28224],[-40.36488,-20.28213],[-40.36397,-20.28491],[-40.35811,-20.28575],[-40.3598,-20.29086],[-40.36308,-20.2922],[-40.36483,-20.29207],[-40.36738,-20.29461],[-40.3685,-20.29488],[-40.36871,-20.29594],[-40.36718,-20.2964],[-40.36731,-20.29752],[-40.36672,-20.2977],[-40.36529,-20.29693],[-40.36117,-20.29737],[-40.36096,-20.29826],[-40.3628,-20.2998],[-40.36057,-20.30095],[-40.35904,-20.29736],[-40.35957,-20.29416],[-40.35767,-20.29276],[-40.35711,-20.28763],[-40.35084,-20.27906],[-40.34928,-20.27514],[-40.34822,-20.27468],[-40.34632,-20.27519],[-40.34579,-20.27467],[-40.34584,-20.27089],[-40.34238,-20.26455],[-40.34258,-20.26333],[-40.34126,-20.26315],[-40.34056,-20.26401],[-40.34086,-20.2652],[-40.33925,-20.26457],[-40.33834,-20.26524],[-40.33936,-20.26048],[-40.34071,-20.25792],[-40.34086,-20.25508],[-40.33929,-20.2524],[-40.33976,-20.2501],[-40.34312,-20.24799],[-40.34663,-20.24441],[-40.35082,-20.24274],[-40.35392,-20.23911],[-40.3567,-20.23956],[-40.3604,-20.23744],[-40.36228,-20.23468],[-40.36423,-20.22698],[-40.36638,-20.22914],[-40.36582,-20.22969],[-40.36639,-20.23047],[-40.36545,-20.23553],[-40.36381,-20.23451],[-40.36327,-20.23518],[-40.36198,-20.23876],[-40.3608,-20.24011],[-40.3609,-20.24301],[-40.35922,-20.24174]]],[[[-40.37615,-20.28023],[-40.37495,-20.27806],[-40.37664,-20.27806],[-40.37933,-20.27676],[-40.37981,-20.27885],[-40.38116,-20.2791],[-40.3819,-20.27836],[-40.38454,-20.27803],[-40.38476,-20.27585],[-40.38657,-20.27546],[-40.38724,-20.27617],[-40.39042,-20.27646],[-40.39268,-20.27897],[-40.39162,-20.28084],[-40.38933,-20.27901],[-40.38833,-20.27982],[-40.38766,-20.27959],[-40.38237,-20.28319],[-40.37989,-20.28178],[-40.37813,-20.28199],[-40.37615,-20.28023]]]]},"properties":{"tipo":"unidade_conservacao","nome":"RESERVA DE DESENVOLVIMENTO SUSTENTÁVEL MUNICIPAL DO MANGUEZAL DE CARIACICA","categoria":"Reserva de Desenvolvimento Sustentável","grupo":"Uso Sustentável","esfera":"Municipal","municipio":"CARIACICA (ES)","area_ha":"740.57","situacao":"Ativo"}},
{"type":"Feature","geometry":{"type":"MultiPolygon","coordinates":[[[[-40.33109,-20.29646],[-40.33315,-20.29648],[-40.33512,-20.29779],[-40.3371,-20.29647],[-40.3399,-20.29852],[-40.34226,-20.30166],[-40.34369,-20.30146],[-40.34443,-20.30234],[-40.34354,-20.30382],[-40.34627,-20.30755],[-40.34373,-20.31137],[-40.34428,-20.31286],[-40.34217,-20.31341],[-40.34139,-20.31262],[-40.3407,-20.31301],[-40.33916,-20.31247],[-40.3364,-20.31018],[-40.33646,-20.30987],[-40.33666,-20.3096],[-40.33696,-20.30913],[-40.33744,-20.30809],[-40.33794,-20.30775],[-40.33796,-20.30762],[-40.338,-20.30717],[-40.3374,-20.30743],[-40.33613,-20.30728],[-40.33519,-20.30738],[-40.33503,-20.30717],[-40.33499,-20.30658],[-40.33513,-20.30634],[-40.33166,-20.30509],[-40.33227,-20.30455],[-40.33025,-20.30371],[-40.3297,-20.30302],[-40.32936,-20.30259],[-40.32799,-20.30492],[-40.32798,-20.30494],[-40.32639,-20.30492],[-40.32518,-20.30396],[-40.32711,-20.30221],[-40.33052,-20.29989],[-40.33115,-20.29815],[-40.3315,-20.29761],[-40.33109,-20.29646]]],[[[-40.33103,-20.31816],[-40.33093,-20.31718],[-40.33125,-20.31721],[-40.33141,-20.31707],[-40.33173,-20.31681],[-40.33185,-20.31672],[-40.33206,-20.31605],[-40.3321,-20.31314],[-40.33423,-20.31096],[-40.33523,-20.31089],[-40.33567,-20.31213],[-40.33569,-20.31221],[-40.33532,-20.31252],[-40.33568,-20.31291],[-40.335,-20.31393],[-40.33586,-20.31585],[-40.33419,-20.31674],[-40.33458,-20.31723],[-40.33402,-20.31812],[-40.33256,-20.31737],[-40.33136,-20.31839],[-40.33103,-20.31816]]]]},"properties":{"tipo":"unidade_conservacao","nome":"PARQUE ESTADUAL DA FONTE GRANDE","categoria":"Parque","grupo":"Proteção Integral","esfera":"Municipal","municipio":"VITÓRIA (ES)","area_ha":"217.24","situacao":"Ativo"}},
{"type":"Feature","geometry":{"type":"Polygon","coordinates":[[[-40.32416,-20.29296],[-40.32306,-20.29296],[-40.32411,-20.29174],[-40.32484,-20.29105],[-40.32614,-20.29],[-40.32662,-20.29011],[-40.3272,-20.2904],[-40.3261,-20.29118],[-40.32588,-20.29132],[-40.32541,-20.29174],[-40.3244,-20.29254],[-40.32435,-20.29277],[-40.32416,-20.29296]]]},"properties":{"tipo":"unidade_conservacao","nome":"PARQUE NATURAL MUNICIPAL DE TABUAZEIRO","categoria":"Parque","grupo":"Proteção Integral","esfera":"Municipal","municipio":"VITÓRIA (ES)","area_ha":"4.67","situacao":"Ativo"}},
{"type":"Feature","geometry":{"type":"Polygon","coordinates":[[[-40.32952,-20.31757],[-40.32873,-20.31711],[-40.32763,-20.31937],[-40.32776,-20.31529],[-40.32864,-20.3147],[-40.32898,-20.31473],[-40.32906,-20.31459],[-40.3293,-20.31455],[-40.32939,-20.31469],[-40.32945,-20.31488],[-40.32989,-20.31514],[-40.32952,-20.31757]]]},"properties":{"tipo":"unidade_conservacao","nome":"PARQUE NATURAL MUNICIPAL GRUTA DA ONÇA","categoria":"Parque","grupo":"Proteção Integral","esfera":"Municipal","municipio":"VITÓRIA (ES)","area_ha":"6.67","situacao":"Ativo"}},
{"type":"Feature","geometry":{"type":"MultiPolygon","coordinates":[[[[-40.28245,-20.23953],[-40.30839,-20.23944],[-40.30871,-20.24097],[-40.30866,-20.24166],[-40.31021,-20.24264],[-40.3103,-20.24366],[-40.30594,-20.24625],[-40.30459,-20.24881],[-40.30281,-20.2501],[-40.30042,-20.25353],[-40.29967,-20.2525],[-40.29856,-20.25292],[-40.29766,-20.25223],[-40.29821,-20.25295],[-40.29767,-20.25363],[-40.29936,-20.25347],[-40.29977,-20.25275],[-40.30067,-20.25486],[-40.29665,-20.25501],[-40.29338,-20.254],[-40.29459,-20.25329],[-40.28687,-20.24154],[-40.28474,-20.2428],[-40.28245,-20.23953]]],[[[-40.3164,-20.27809],[-40.31204,-20.27432],[-40.31094,-20.27202],[-40.31105,-20.26832],[-40.30847,-20.26315],[-40.30731,-20.26381],[-40.30463,-20.26133],[-40.30564,-20.26043],[-40.30656,-20.25727],[-40.30799,-20.25739],[-40.3065,-20.25637],[-40.30586,-20.25733],[-40.30278,-20.25608],[-40.3023,-20.25641],[-40.30137,-20.25468],[-40.3016,-20.25278],[-40.30547,-20.24895],[-40.30644,-20.24672],[-40.31092,-20.24485],[-40.31282,-20.24705],[-40.3132,-20.24966],[-40.31479,-20.25086],[-40.31828,-20.24994],[-40.32409,-20.25161],[-40.32447,-20.25279],[-40.3234,-20.25753],[-40.32373,-20.2616],[-40.32218,-20.2638],[-40.32219,-20.26382],[-40.32231,-20.26411],[-40.32244,-20.26473],[-40.32248,-20.26498],[-40.32235,-20.26521],[-40.32199,-20.26563],[-40.32191,-20.2658],[-40.32184,-20.26604],[-40.32185,-20.26667],[-40.32142,-20.26731],[-40.32131,-20.26742],[-40.32107,-20.26744],[-40.32085,-20.26735],[-40.32067,-20.26705],[-40.3199,-20.26676],[-40.31977,-20.26682],[-40.31956,-20.26692],[-40.31933,-20.2669],[-40.31907,-20.26687],[-40.31906,-20.26686],[-40.31865,-20.26678],[-40.31862,-20.26678],[-40.31847,-20.26685],[-40.31844,-20.26686],[-40.31832,-20.26683],[-40.31829,-20.26692],[-40.31821,-20.26699],[-40.31733,-20.26785],[-40.31733,-20.26791],[-40.31732,-20.26794],[-40.31731,-20.26819],[-40.31716,-20.26864],[-40.31714,-20.26867],[-40.31706,-20.26892],[-40.31702,-20.26913],[-40.31697,-20.26939],[-40.31687,-20.26961],[-40.31691,-20.27028],[-40.3169,-20.27033],[-40.31682,-20.27057],[-40.31681,-20.2706],[-40.31672,-20.27088],[-40.31672,-20.27089],[-40.31683,-20.27133],[-40.31684,-20.27135],[-40.31685,-20.27147],[-40.31683,-20.27159],[-40.31681,-20.27169],[-40.31676,-20.27184],[-40.31664,-20.27216],[-40.31663,-20.27223],[-40.31661,-20.27253],[-40.31648,-20.27308],[-40.31619,-20.27395],[-40.31614,-20.27424],[-40.31614,-20.27468],[-40.31616,-20.27479],[-40.31632,-20.2752],[-40.31652,-20.27548],[-40.31694,-20.27607],[-40.31695,-20.27609],[-40.31696,-20.27612],[-40.31694,-20.27616],[-40.31691,-20.27624],[-40.31689,-20.27632],[-40.31661,-20.27651],[-40.3167,-20.27653],[-40.31671,-20.27658],[-40.31671,-20.27659],[-40.31674,-20.27687],[-40.31675,-20.27692],[-40.31675,-20.27693],[-40.31676,-20.277],[-40.31672,-20.27703],[-40.3167,-20.27705],[-40.31669,-20.27717],[-40.31665,-20.27753],[-40.31661,-20.27765],[-40.31658,-20.27767],[-40.31666,-20.27786],[-40.31659,-20.27792],[-40.3164,-20.27809]]],[[[-40.30453,-20.25838],[-40.30518,-20.25846],[-40.3055,-20.25951],[-40.30462,-20.26006],[-40.30453,-20.25838]]],[[[-40.30924,-20.24112],[-40.30913,-20.24091],[-40.30885,-20.23981],[-40.30877,-20.23944],[-40.32802,-20.23957],[-40.32802,-20.23989],[-40.32786,-20.24037],[-40.32586,-20.2431],[-40.32478,-20.24379],[-40.32534,-20.2446],[-40.32427,-20.2461],[-40.32437,-20.24706],[-40.32068,-20.24935],[-40.31821,-20.24856],[-40.31546,-20.24921],[-40.3131,-20.24525],[-40.31351,-20.24445],[-40.31161,-20.24394],[-40.31086,-20.24234],[-40.30924,-20.24112]]]]},"properties":{"tipo":"unidade_conservacao","nome":"ESTAÇÃO ECOLÓGICA MUNICIPAL ILHA DO LAMEIRÃO","categoria":"Estação Ecológica","grupo":"Proteção Integral","esfera":"Municipal","municipio":"VITÓRIA (ES)","area_ha":"872.21","situacao":"Ativo"}},
{"type":"Feature","geometry":{"type":"Polygon","coordinates":[[[-40.32711,-20.30221],[-40.32354,-20.30235],[-40.32396,-20.3003],[-40.32628,-20.29931],[-40.32623,-20.29825],[-40.32737,-20.29671],[-40.32896,-20.29747],[-40.32916,-20.29877],[-40.32976,-20.29897],[-40.3298,-20.29778],[-40.33109,-20.29646],[-40.3315,-20.29761],[-40.33115,-20.29815],[-40.33052,-20.29989],[-40.32711,-20.30221]]]},"properties":{"tipo":"unidade_conservacao","nome":"PARQUE NATURAL MUNICIPAL PEDRA DOS OLHOS","categoria":"Parque","grupo":"Proteção Integral","esfera":"Municipal","municipio":"VITÓRIA (ES)","area_ha":"27.97","situacao":"Ativo"}},
{"type":"Feature","geometry":{"type":"Polygon","coordinates":[[[-40.29417,-20.30092],[-40.29554,-20.30163],[-40.2957,-20.30283],[-40.29306,-20.30402],[-40.29255,-20.30312],[-40.2936,-20.30281],[-40.29262,-20.30256],[-40.29363,-20.30212],[-40.29352,-20.30115],[-40.29417,-20.30092]]]},"properties":{"tipo":"unidade_conservacao","nome":"PARQUE NATURAL MUNICIPAL VON SCHILGEN","categoria":"Parque","grupo":"Proteção Integral","esfera":"Municipal","municipio":"VITÓRIA (ES)","area_ha":"7.13","situacao":"Ativo"}},
{"type":"Feature","geometry":{"type":"Polygon","coordinates":[[[-40.32218,-20.2638],[-40.32414,-20.26263],[-40.32687,-20.26424],[-40.32523,-20.26449],[-40.32405,-20.2632],[-40.32355,-20.26675],[-40.32626,-20.26946],[-40.32744,-20.2692],[-40.32815,-20.26731],[-40.32944,-20.2683],[-40.3302,-20.27357],[-40.33285,-20.27669],[-40.33099,-20.27776],[-40.32937,-20.27755],[-40.32917,-20.27426],[-40.32691,-20.27156],[-40.32593,-20.27092],[-40.32257,-20.27159],[-40.32108,-20.26808],[-40.32027,-20.26716],[-40.31895,-20.26703],[-40.31782,-20.26768],[-40.31715,-20.26989],[-40.31663,-20.27358],[-40.31702,-20.27368],[-40.31697,-20.2764],[-40.31675,-20.27692],[-40.31675,-20.27693],[-40.31676,-20.277],[-40.31669,-20.27717],[-40.31665,-20.27753],[-40.31707,-20.27871],[-40.3164,-20.27809],[-40.31659,-20.27792],[-40.31666,-20.27786],[-40.31658,-20.27767],[-40.31661,-20.27765],[-40.3167,-20.27705],[-40.31672,-20.27703],[-40.31674,-20.27687],[-40.31671,-20.27659],[-40.31671,-20.27658],[-40.3167,-20.27653],[-40.31661,-20.27651],[-40.31689,-20.27632],[-40.31691,-20.27624],[-40.31694,-20.27616],[-40.31696,-20.27612],[-40.31695,-20.27609],[-40.31694,-20.27607],[-40.31652,-20.27548],[-40.31632,-20.2752],[-40.31616,-20.27479],[-40.31614,-20.27468],[-40.31614,-20.27424],[-40.31619,-20.27395],[-40.31648,-20.27308],[-40.31661,-20.27253],[-40.31663,-20.27223],[-40.31664,-20.27216],[-40.31676,-20.27184],[-40.31681,-20.27169],[-40.31683,-20.27159],[-40.31685,-20.27147],[-40.31684,-20.27135],[-40.31683,-20.27133],[-40.31672,-20.27089],[-40.31672,-20.27088],[-40.31681,-20.2706],[-40.31682,-20.27057],[-40.3169,-20.27033],[-40.31691,-20.27028],[-40.31687,-20.26961],[-40.31697,-20.26939],[-40.31702,-20.26913],[-40.31706,-20.26892],[-40.31714,-20.26867],[-40.31716,-20.26864],[-40.31731,-20.26819],[-40.31732,-20.26794],[-40.31733,-20.26791],[-40.31733,-20.26785],[-40.31821,-20.26699],[-40.31829,-20.26692],[-40.31832,-20.26683],[-40.31844,-20.26686],[-40.31847,-20.26685],[-40.31862,-20.26678],[-40.31865,-20.26678],[-40.31906,-20.26686],[-40.31907,-20.26687],[-40.31933,-20.2669],[-40.31956,-20.26692],[-40.31977,-20.26682],[-40.3199,-20.26676],[-40.32067,-20.26705],[-40.32085,-20.26735],[-40.32107,-20.26744],[-40.32131,-20.26742],[-40.32142,-20.26731],[-40.32185,-20.26667],[-40.32184,-20.26604],[-40.32191,-20.2658],[-40.32199,-20.26563],[-40.32235,-20.26521],[-40.32248,-20.26498],[-40.32244,-20.26473],[-40.32231,-20.26411],[-40.32219,-20.26382],[-40.32218,-20.2638]]]},"properties":{"tipo":"unidade_conservacao","nome":"PARQUE NATURAL MUNICIPAL DOM LUIZ GONZAGA FERNANDES","categoria":"Parque","grupo":"Proteção Integral","esfera":"Municipal","municipio":"VITÓRIA (ES)","area_ha":"63.91","situacao":"Ativo"}},
{"type":"Feature","geometry":{"type":"Polygon","coordinates":[[[-40.32952,-20.31757],[-40.32803,-20.31985],[-40.32616,-20.32056],[-40.32065,-20.31234],[-40.32148,-20.31033],[-40.32149,-20.30695],[-40.32393,-20.30556],[-40.32256,-20.30155],[-40.32408,-20.29803],[-40.32154,-20.29555],[-40.3245,-20.29414],[-40.32287,-20.29289],[-40.32109,-20.29316],[-40.31689,-20.29143],[-40.31756,-20.28902],[-40.31511,-20.28816],[-40.31615,-20.28533],[-40.31441,-20.28465],[-40.31698,-20.27931],[-40.31918,-20.27761],[-40.32042,-20.27154],[-40.32147,-20.27344],[-40.32297,-20.27275],[-40.3242,-20.27316],[-40.32566,-20.27521],[-40.32528,-20.27738],[-40.3287,-20.27876],[-40.32905,-20.28285],[-40.33035,-20.28451],[-40.33228,-20.28442],[-40.33329,-20.28197],[-40.33539,-20.28216],[-40.33445,-20.28592],[-40.33614,-20.28674],[-40.33838,-20.28957],[-40.34055,-20.29052],[-40.34085,-20.29183],[-40.33989,-20.29523],[-40.34039,-20.29592],[-40.34292,-20.29297],[-40.34383,-20.29405],[-40.34407,-20.29595],[-40.34728,-20.29947],[-40.34846,-20.29966],[-40.34787,-20.30163],[-40.34594,-20.30289],[-40.34657,-20.3054],[-40.34838,-20.30622],[-40.34954,-20.30777],[-40.3497,-20.30951],[-40.34915,-20.31208],[-40.34845,-20.31212],[-40.34887,-20.31462],[-40.34737,-20.31568],[-40.34773,-20.31742],[-40.34639,-20.31902],[-40.34506,-20.31934],[-40.34449,-20.31834],[-40.34284,-20.31794],[-40.34251,-20.3162],[-40.34008,-20.31727],[-40.33981,-20.31599],[-40.3371,-20.31552],[-40.3348,-20.31681],[-40.33507,-20.31765],[-40.33299,-20.31938],[-40.33136,-20.31839],[-40.33256,-20.31737],[-40.33402,-20.31812],[-40.33458,-20.31723],[-40.33419,-20.31674],[-40.33586,-20.31585],[-40.335,-20.31393],[-40.33568,-20.31291],[-40.33532,-20.31252],[-40.33569,-20.31221],[-40.33567,-20.31213],[-40.33523,-20.31089],[-40.33423,-20.31096],[-40.3321,-20.31314],[-40.33206,-20.31605],[-40.33185,-20.31672],[-40.33173,-20.31681],[-40.33141,-20.31707],[-40.33125,-20.31721],[-40.33093,-20.31718],[-40.33103,-20.31816],[-40.33002,-20.31844],[-40.32952,-20.31757]],[[-40.32952,-20.31757],[-40.32989,-20.31514],[-40.32945,-20.31488],[-40.32939,-20.31469],[-40.3293,-20.31455],[-40.32906,-20.31459],[-40.32898,-20.31473],[-40.32864,-20.3147],[-40.32776,-20.31529],[-40.32763,-20.31937],[-40.32873,-20.31711],[-40.32952,-20.31757]],[[-40.31753,-20.28764],[-40.31703,-20.28717],[-40.31559,-20.28752],[-40.3155,-20.28812],[-40.31712,-20.28874],[-40.31753,-20.28764]],[[-40.32428,-20.29284],[-40.32434,-20.29286],[-40.32431,-20.29291],[-40.32403,-20.29317],[-40.32417,-20.2933],[-40.32702,-20.2937],[-40.32822,-20.2954],[-40.32931,-20.29542],[-40.32897,-20.29195],[-40.32802,-20.29061],[-40.33001,-20.28966],[-40.32936,-20.28693],[-40.33025,-20.28527],[-40.32848,-20.28362],[-40.32835,-20.27888],[-40.32716,-20.27941],[-40.32609,-20.27835],[-40.32514,-20.27942],[-40.32351,-20.27736],[-40.32232,-20.27757],[-40.32199,-20.27979],[-40.32075,-20.28043],[-40.32102,-20.28273],[-40.32036,-20.28395],[-40.31825,-20.28412],[-40.3181,-20.28507],[-40.32129,-20.28574],[-40.31875,-20.28633],[-40.31961,-20.29105],[-40.3203,-20.29147],[-40.3214,-20.29022],[-40.32376,-20.2899],[-40.32437,-20.29028],[-40.32382,-20.29116],[-40.32444,-20.29142],[-40.32411,-20.29174],[-40.32306,-20.29296],[-40.32416,-20.29296],[-40.32428,-20.29284]],[[-40.32276,-20.3129],[-40.32289,-20.31287],[-40.32352,-20.31281],[-40.32451,-20.31099],[-40.32443,-20.31077],[-40.3242,-20.31076],[-40.32392,-20.31058],[-40.32398,-20.31047],[-40.32395,-20.31045],[-40.32391,-20.31044],[-40.32325,-20.31097],[-40.32295,-20.31153],[-40.32264,-20.31195],[-40.3219,-20.31175],[-40.32172,-20.31158],[-40.3215,-20.3117],[-40.32138,-20.31149],[-40.32112,-20.31163],[-40.32117,-20.31217],[-40.32161,-20.31263],[-40.32169,-20.31262],[-40.32198,-20.31261],[-40.32217,-20.3125],[-40.32248,-20.31288],[-40.32276,-20.3129]],[[-40.32799,-20.30492],[-40.32936,-20.30259],[-40.3297,-20.30302],[-40.33025,-20.30371],[-40.33227,-20.30455],[-40.33166,-20.30509],[-40.33513,-20.30634],[-40.33499,-20.30658],[-40.33503,-20.30717],[-40.33519,-20.30738],[-40.33613,-20.30728],[-40.3374,-20.30743],[-40.338,-20.30717],[-40.33796,-20.30762],[-40.33794,-20.30775],[-40.33744,-20.30809],[-40.33696,-20.30913],[-40.33666,-20.3096],[-40.33646,-20.30987],[-40.3364,-20.31018],[-40.33916,-20.31247],[-40.3407,-20.31301],[-40.34139,-20.31262],[-40.34217,-20.31341],[-40.34428,-20.31286],[-40.34373,-20.31137],[-40.34627,-20.30755],[-40.34354,-20.30382],[-40.34443,-20.30234],[-40.34369,-20.30146],[-40.34226,-20.30166],[-40.3399,-20.29852],[-40.3371,-20.29647],[-40.33512,-20.29779],[-40.33315,-20.29648],[-40.33109,-20.29646],[-40.3298,-20.29778],[-40.32976,-20.29897],[-40.32916,-20.29877],[-40.32896,-20.29747],[-40.32737,-20.29671],[-40.32623,-20.29825],[-40.32628,-20.29931],[-40.32396,-20.3003],[-40.32354,-20.30235],[-40.32711,-20.30221],[-40.32518,-20.30396],[-40.32639,-20.30492],[-40.32798,-20.30494],[-40.32782,-20.30534],[-40.32877,-20.30571],[-40.32882,-20.30567],[-40.32876,-20.30543],[-40.32875,-20.3054],[-40.32928,-20.30486],[-40.32799,-20.30492]],[[-40.32675,-20.31247],[-40.32671,-20.31164],[-40.32686,-20.311],[-40.32671,-20.31096],[-40.32693,-20.3107],[-40.32692,-20.31034],[-40.3269,-20.30987],[-40.32679,-20.31001],[-40.32612,-20.30988],[-40.32533,-20.30985],[-40.32525,-20.30984],[-40.32517,-20.31006],[-40.32579,-20.31027],[-40.32588,-20.31063],[-40.32548,-20.31091],[-40.32513,-20.31083],[-40.32492,-20.31047],[-40.32487,-20.31095],[-40.32505,-20.31203],[-40.3251,-20.31204],[-40.32513,-20.31205],[-40.32519,-20.31191],[-40.32561,-20.31195],[-40.32557,-20.31219],[-40.32651,-20.31229],[-40.32675,-20.31247]],[[-40.32933,-20.30703],[-40.32825,-20.30629],[-40.32817,-20.30627],[-40.32808,-20.30626],[-40.32802,-20.30626],[-40.32793,-20.30626],[-40.32755,-20.30644],[-40.32753,-20.30651],[-40.32811,-20.3073],[-40.32866,-20.30775],[-40.32868,-20.30772],[-40.32872,-20.30774],[-40.32934,-20.30731],[-40.32955,-20.30731],[-40.32933,-20.30703]]]},"properties":{"tipo":"unidade_conservacao","nome":"ÁREA DE PROTEÇÃO AMBIENTAL DO MACIÇO CENTRAL","categoria":"Área de Proteção Ambiental","grupo":"Uso Sustentável","esfera":"Municipal","municipio":"VITÓRIA (ES)","area_ha":"638.93","situacao":"Ativo"}},
{"type":"Feature","geometry":{"type":"Polygon","coordinates":[[[-40.32444,-20.29142],[-40.32382,-20.29116],[-40.32437,-20.29028],[-40.32376,-20.2899],[-40.3214,-20.29022],[-40.3203,-20.29147],[-40.31961,-20.29105],[-40.31875,-20.28633],[-40.32129,-20.28574],[-40.3181,-20.28507],[-40.31825,-20.28412],[-40.32036,-20.28395],[-40.32102,-20.28273],[-40.32075,-20.28043],[-40.32199,-20.27979],[-40.32232,-20.27757],[-40.32351,-20.27736],[-40.32514,-20.27942],[-40.32609,-20.27835],[-40.32716,-20.27941],[-40.32835,-20.27888],[-40.32848,-20.28362],[-40.33025,-20.28527],[-40.32936,-20.28693],[-40.33001,-20.28966],[-40.32802,-20.29061],[-40.32897,-20.29195],[-40.32931,-20.29542],[-40.32822,-20.2954],[-40.32702,-20.2937],[-40.32417,-20.2933],[-40.32403,-20.29317],[-40.32431,-20.29291],[-40.32434,-20.29286],[-40.32428,-20.29284],[-40.32435,-20.29277],[-40.3244,-20.29254],[-40.32541,-20.29174],[-40.32588,-20.29132],[-40.3261,-20.29118],[-40.3272,-20.2904],[-40.32662,-20.29011],[-40.32614,-20.29],[-40.32484,-20.29105],[-40.32444,-20.29142]]]},"properties":{"tipo":"unidade_conservacao","nome":"PARQUE NATURAL MUNICIPAL VALE DO MULEMBÁ","categoria":"Parque","grupo":"Proteção Integral","esfera":"Municipal","municipio":"VITÓRIA (ES)","area_ha":"142.15","situacao":"Ativo"}},
{"type":"Feature","geometry":{"type":"Polygon","coordinates":[[[-40.29008,-20.23647],[-40.29464,-20.21907],[-40.31314,-20.22134],[-40.31377,-20.22285],[-40.31567,-20.22337],[-40.3151,-20.22568],[-40.31824,-20.23651],[-40.32282,-20.23457],[-40.32909,-20.23297],[-40.34042,-20.23178],[-40.34392,-20.23028],[-40.34483,-20.23304],[-40.3481,-20.23749],[-40.35218,-20.23936],[-40.35056,-20.24162],[-40.3462,-20.2432],[-40.34336,-20.24653],[-40.33967,-20.24825],[-40.33874,-20.25126],[-40.34019,-20.256],[-40.33835,-20.25989],[-40.33738,-20.26055],[-40.33537,-20.26028],[-40.33601,-20.2587],[-40.33367,-20.25704],[-40.33243,-20.2542],[-40.33075,-20.25358],[-40.33059,-20.24864],[-40.3293,-20.24939],[-40.3287,-20.249],[-40.32755,-20.24445],[-40.32853,-20.23985],[-40.29121,-20.23981],[-40.29087,-20.23961],[-40.29011,-20.23941],[-40.2894,-20.23922],[-40.29008,-20.23647]]]},"properties":{"tipo":"unidade_conservacao","nome":"ÁREA DE PROTEÇÃO AMBIENTAL MUNICÍPAL MANGUEZAL SUL DA SERRA","categoria":"Área de Proteção Ambiental","grupo":"Uso Sustentável","esfera":"Municipal","municipio":"SERRA (ES)","area_ha":"1061.5","situacao":"Ativo"}},
{"type":"Feature","geometry":{"type":"MultiPolygon","coordinates":[[[[-40.32834,-20.4185],[-40.32722,-20.41974],[-40.32631,-20.41927],[-40.32527,-20.42044],[-40.3259,-20.42071],[-40.32591,-20.42275],[-40.32487,-20.42441],[-40.32284,-20.42531],[-40.32273,-20.42486],[-40.32169,-20.42674],[-40.3204,-20.42668],[-40.32,-20.42572],[-40.31892,-20.42693],[-40.31902,-20.42341],[-40.32057,-20.42371],[-40.32223,-20.42257],[-40.3224,-20.41885],[-40.32065,-20.40938],[-40.31595,-20.39705],[-40.31879,-20.39607],[-40.32554,-20.40357],[-40.32834,-20.4185]]],[[[-40.32908,-20.41951],[-40.32629,-20.40414],[-40.31991,-20.39594],[-40.32186,-20.39742],[-40.32427,-20.3959],[-40.3364,-20.3969],[-40.336,-20.40021],[-40.33476,-20.40135],[-40.33009,-20.40233],[-40.33141,-20.40901],[-40.33307,-20.41274],[-40.33079,-20.41436],[-40.32908,-20.41951]]]]},"properties":{"tipo":"unidade_conservacao","nome":"PARQUE NATURAL MUNICIPAL DE JACARENEMA","categoria":"Parque","grupo":"Proteção Integral","esfera":"Municipal","municipio":"VILA VELHA (ES)","area_ha":"346.39","situacao":"Ativo"}},
{"type":"Feature","geometry":{"type":"Polygon","coordinates":[[[-40.32198,-20.32409],[-40.32194,-20.3228],[-40.32276,-20.3223],[-40.326,-20.32285],[-40.32749,-20.32389],[-40.3257,-20.32748],[-40.32448,-20.32663],[-40.32442,-20.32567],[-40.32198,-20.32409]]]},"properties":{"tipo":"unidade_conservacao","nome":"MONUMENTO NATURAL MUNICIPAL MORRO DO PENEDO","categoria":"Monumento Natural","grupo":"Proteção Integral","esfera":"Municipal","municipio":"VILA VELHA (ES)","area_ha":"18.8","situacao":"Ativo"}},
{"type":"Feature","geometry":{"type":"Polygon","coordinates":[[[-40.36265,-20.51853],[-40.36187,-20.51833],[-40.36088,-20.52023],[-40.35959,-20.52003],[-40.35923,-20.51923],[-40.3605,-20.51747],[-40.36074,-20.51261],[-40.35993,-20.50932],[-40.35156,-20.493],[-40.34698,-20.47646],[-40.33861,-20.46002],[-40.33521,-20.45492],[-40.33698,-20.45342],[-40.34383,-20.46045],[-40.35152,-20.45641],[-40.35431,-20.45572],[-40.35603,-20.45624],[-40.35849,-20.45959],[-40.36686,-20.46007],[-40.3725,-20.4673],[-40.37274,-20.47019],[-40.37948,-20.47257],[-40.38022,-20.47553],[-40.38405,-20.48008],[-40.39123,-20.48218],[-40.3941,-20.48337],[-40.3957,-20.48619],[-40.39615,-20.48847],[-40.39229,-20.49711],[-40.39164,-20.50036],[-40.39263,-20.50423],[-40.3889,-20.51747],[-40.37998,-20.51871],[-40.37933,-20.52312],[-40.37921,-20.52506],[-40.37827,-20.52688],[-40.37566,-20.52781],[-40.37527,-20.52963],[-40.37738,-20.53518],[-40.37643,-20.53661],[-40.37044,-20.52863],[-40.36875,-20.52385],[-40.365,-20.51961],[-40.36265,-20.51853]]]},"properties":{"tipo":"unidade_conservacao","nome":"ÁREA DE PROTEÇÃO AMBIENTAL DA LAGOA GRANDE","categoria":"Área de Proteção Ambiental","grupo":"Uso Sustentável","esfera":"Municipal","municipio":"VILA VELHA (ES)","area_ha":"2612.27","situacao":"Ativo"}},
{"type":"Feature","geometry":{"type":"Polygon","coordinates":[[[-40.47354,-20.65427],[-40.47359,-20.6551],[-40.47344,-20.65521],[-40.47354,-20.65427]]]},"properties":{"tipo":"unidade_conservacao","nome":"PARQUE NATURAL MUNICIPAL MORRO DA PESCARIA","categoria":"Parque","grupo":"Proteção Integral","esfera":"Municipal","municipio":"GUARAPARI (ES)","area_ha":"","situacao":"Ativo"}},
{"type":"Feature","geometry":{"type":"MultiPolygon","coordinates":[[[[-40.32121,-20.31217],[-40.32116,-20.31163],[-40.32136,-20.31153],[-40.32136,-20.31152],[-40.32143,-20.31148],[-40.32147,-20.31153],[-40.32152,-20.31163],[-40.32161,-20.31176],[-40.3218,-20.31212],[-40.32219,-20.31244],[-40.322,-20.31258],[-40.32193,-20.31262],[-40.32165,-20.31263],[-40.32121,-20.31217]]],[[[-40.3229,-20.3119],[-40.3231,-20.31131],[-40.3234,-20.31212],[-40.32328,-20.31249],[-40.32299,-20.31275],[-40.3229,-20.31284],[-40.32288,-20.31287],[-40.32279,-20.31299],[-40.32275,-20.31297],[-40.32273,-20.31294],[-40.32262,-20.3128],[-40.3222,-20.31239],[-40.32204,-20.31231],[-40.32183,-20.31206],[-40.322,-20.31193],[-40.32187,-20.31172],[-40.32196,-20.31167],[-40.32222,-20.31177],[-40.32254,-20.31185],[-40.32259,-20.31186],[-40.3227,-20.3119],[-40.3229,-20.3119]]],[[[-40.32405,-20.30675],[-40.32477,-20.30752],[-40.32467,-20.30996],[-40.3236,-20.31021],[-40.32305,-20.30674],[-40.32405,-20.30675]]],[[[-40.32316,-20.31132],[-40.32329,-20.31097],[-40.32383,-20.31062],[-40.32401,-20.31034],[-40.32483,-20.31011],[-40.32484,-20.3112],[-40.32509,-20.31231],[-40.32467,-20.31138],[-40.32426,-20.31272],[-40.32337,-20.31309],[-40.32308,-20.31275],[-40.32332,-20.31251],[-40.32347,-20.31208],[-40.32316,-20.31132]]],[[[-40.32456,-20.31222],[-40.32509,-20.31232],[-40.32482,-20.31321],[-40.32456,-20.31222]]],[[[-40.32536,-20.30987],[-40.32541,-20.30985],[-40.32547,-20.30984],[-40.32561,-20.30985],[-40.32584,-20.3099],[-40.32602,-20.30991],[-40.32629,-20.3099],[-40.32645,-20.3099],[-40.32676,-20.30996],[-40.32682,-20.31001],[-40.32614,-20.31042],[-40.32602,-20.31071],[-40.32613,-20.31127],[-40.32662,-20.31163],[-40.32673,-20.31222],[-40.32656,-20.31225],[-40.32667,-20.31238],[-40.32668,-20.31258],[-40.32659,-20.31258],[-40.3266,-20.31265],[-40.3251,-20.31212],[-40.32509,-20.31206],[-40.32507,-20.31192],[-40.32496,-20.3115],[-40.32492,-20.31116],[-40.32495,-20.31059],[-40.32494,-20.31045],[-40.32494,-20.31025],[-40.32498,-20.31013],[-40.32511,-20.31005],[-40.32524,-20.30995],[-40.32536,-20.30987]]],[[[-40.32873,-20.30377],[-40.3294,-20.3026],[-40.33029,-20.30371],[-40.33231,-20.30455],[-40.3317,-20.30509],[-40.33517,-20.30634],[-40.33503,-20.30659],[-40.33507,-20.30717],[-40.33523,-20.30739],[-40.33744,-20.30743],[-40.33804,-20.30717],[-40.33799,-20.30775],[-40.33748,-20.30809],[-40.337,-20.30913],[-40.33651,-20.30988],[-40.33647,-20.30986],[-40.33636,-20.30982],[-40.33594,-20.30986],[-40.33567,-20.31086],[-40.33527,-20.3109],[-40.33501,-20.31091],[-40.33427,-20.31096],[-40.33214,-20.31314],[-40.3321,-20.31605],[-40.33189,-20.31672],[-40.33129,-20.31721],[-40.33118,-20.3172],[-40.33097,-20.31718],[-40.32979,-20.31668],[-40.32993,-20.31514],[-40.32934,-20.31456],[-40.32924,-20.3146],[-40.3291,-20.31459],[-40.32902,-20.31473],[-40.32881,-20.31465],[-40.32868,-20.3147],[-40.3285,-20.31391],[-40.32903,-20.31258],[-40.32718,-20.31103],[-40.327,-20.30999],[-40.32682,-20.30989],[-40.32652,-20.30984],[-40.32547,-20.30978],[-40.32633,-20.3075],[-40.32708,-20.30712],[-40.32866,-20.3078],[-40.32751,-20.30905],[-40.32835,-20.30977],[-40.32898,-20.31008],[-40.32985,-20.30945],[-40.32955,-20.30899],[-40.33059,-20.30946],[-40.3298,-20.30739],[-40.32938,-20.30731],[-40.32876,-20.30775],[-40.3287,-20.30775],[-40.3286,-20.30768],[-40.32852,-20.30762],[-40.32846,-20.30756],[-40.32828,-20.30738],[-40.32815,-20.30731],[-40.328,-20.30702],[-40.32767,-20.30664],[-40.32756,-20.3065],[-40.32753,-20.30645],[-40.32757,-20.30643],[-40.32761,-20.30643],[-40.32797,-20.30627],[-40.32806,-20.30626],[-40.32821,-20.30627],[-40.3294,-20.30667],[-40.33019,-20.30737],[-40.33145,-20.3073],[-40.33212,-20.30584],[-40.33079,-20.30437],[-40.32928,-20.30461],[-40.32932,-20.30486],[-40.32876,-20.30543],[-40.32874,-20.30544],[-40.32808,-20.30535],[-40.32782,-20.30532],[-40.32793,-20.30519],[-40.32803,-20.30494],[-40.32813,-20.30479],[-40.32873,-20.30377]]],[[[-40.32613,-20.3111],[-40.32619,-20.31046],[-40.3269,-20.31013],[-40.32691,-20.31015],[-40.32692,-20.31017],[-40.32695,-20.3103],[-40.32695,-20.31065],[-40.32704,-20.31088],[-40.32689,-20.31109],[-40.32711,-20.31125],[-40.32684,-20.31125],[-40.32686,-20.31137],[-40.32681,-20.31149],[-40.32673,-20.31155],[-40.32669,-20.3116],[-40.32613,-20.3111]]]]},"properties":{"tipo":"unidade_conservacao","nome":"REFUGIO DA VIDA SILVESTRE MUNICIPAL ANDRE RUSCHI","categoria":"Refúgio de Vida Silvestre","grupo":"Proteção Integral","esfera":"Municipal","municipio":"VITÓRIA (ES)","area_ha":"92.67","situacao":"Ativo"}},
{"type":"Feature","geometry":{"type":"Polygon","coordinates":[[[-40.27436,-20.2414],[-40.27841,-20.23914],[-40.28001,-20.24152],[-40.27739,-20.24368],[-40.27548,-20.24306],[-40.27361,-20.24399],[-40.2729,-20.24734],[-40.27174,-20.24563],[-40.27351,-20.24259],[-40.27214,-20.24201],[-40.27308,-20.24082],[-40.27436,-20.2414]]]},"properties":{"tipo":"unidade_conservacao","nome":"REFUGIO DA VIDA SILVESTRE MUNICIPAL DA MATA PALUDOSA","categoria":"Refúgio de Vida Silvestre","grupo":"Proteção Integral","esfera":"Municipal","municipio":"VITÓRIA (ES)","area_ha":"28.7","situacao":"Ativo"}},
{"type":"Feature","geometry":{"type":"Polygon","coordinates":[[[-40.25727,-20.26513],[-40.26052,-20.26417],[-40.26158,-20.26521],[-40.26436,-20.26593],[-40.26471,-20.26541],[-40.2699,-20.26723],[-40.27874,-20.27234],[-40.28758,-20.27995],[-40.29065,-20.28624],[-40.29008,-20.29108],[-40.28891,-20.29312],[-40.2897,-20.29539],[-40.28758,-20.29543],[-40.28612,-20.29349],[-40.28532,-20.29503],[-40.2884,-20.29592],[-40.28877,-20.29817],[-40.29081,-20.29902],[-40.2909,-20.30121],[-40.29009,-20.30244],[-40.29094,-20.30639],[-40.28956,-20.3091],[-40.28624,-20.30959],[-40.28542,-20.31036],[-40.2854,-20.31158],[-40.28717,-20.31412],[-40.28716,-20.31536],[-40.28845,-20.31568],[-40.28902,-20.31823],[-40.2825,-20.31775],[-40.27828,-20.31673],[-40.26997,-20.31233],[-40.25921,-20.29787],[-40.25356,-20.28876],[-40.2471,-20.28456],[-40.24938,-20.27829],[-40.25195,-20.27442],[-40.25318,-20.27376],[-40.25351,-20.2719],[-40.25285,-20.26931],[-40.25727,-20.26513]]]},"properties":{"tipo":"unidade_conservacao","nome":"AREA DE PROTEÇÃO AMBIENTAL BAÍA DAS TARTARUGAS","categoria":"Área de Proteção Ambiental","grupo":"Uso Sustentável","esfera":"Municipal","municipio":"VITÓRIA (ES)","area_ha":"1686.07","situacao":"Ativo"}},
{"type":"Feature","geometry":{"type":"Polygon","coordinates":[[[-40.06787,-20.04337],[-40.07623,-20.07414],[-39.99665,-20.07083],[-39.95835,-19.98274],[-40.04683,-19.94959],[-40.05827,-19.97493],[-40.12737,-19.94782],[-40.14452,-19.95289],[-40.14707,-19.95437],[-40.141,-19.95462],[-40.13927,-19.9573],[-40.13612,-19.95897],[-40.13388,-19.96258],[-40.13399,-19.96404],[-40.13301,-19.96597],[-40.13355,-19.96678],[-40.13603,-19.96733],[-40.13731,-19.96912],[-40.13802,-19.97147],[-40.13484,-19.97151],[-40.1394,-19.98579],[-40.14834,-19.99915],[-40.1476,-20.00091],[-40.1492,-20.00325],[-40.14941,-20.00582],[-40.15233,-20.00701],[-40.15395,-20.01039],[-40.15374,-20.01188],[-40.06787,-20.04337]]]},"properties":{"tipo":"unidade_conservacao","nome":"REFÚGIO DE VIDA SILVESTRE DE SANTA CRUZ","categoria":"Refúgio de Vida Silvestre","grupo":"Proteção Integral","esfera":"Federal","municipio":"ARACRUZ (ES), FUNDÃO (ES), SERRA (ES)","area_ha":"17749.63","situacao":"Ativo"}},
{"type":"Feature","geometry":{"type":"Polygon","coordinates":[[[-39.70575,-19.89956],[-39.85745,-19.85937],[-39.96768,-19.93465],[-40.08987,-19.89174],[-40.09001,-19.89246],[-40.09239,-19.89384],[-40.09327,-19.89553],[-40.09469,-19.8948],[-40.09538,-19.89577],[-40.09601,-19.8956],[-40.0966,-19.8972],[-40.09507,-19.8999],[-40.09737,-19.90279],[-40.09864,-19.90584],[-40.09804,-19.90914],[-40.1004,-19.91035],[-40.09814,-19.91163],[-40.09965,-19.91854],[-40.10363,-19.91795],[-40.10781,-19.92106],[-40.10902,-19.92354],[-40.11234,-19.92369],[-40.11411,-19.92542],[-40.11342,-19.92611],[-40.11619,-19.92828],[-40.11655,-19.92786],[-40.12018,-19.92911],[-40.12067,-19.93108],[-40.12512,-19.93264],[-40.12636,-19.93186],[-40.14171,-19.94185],[-40.14324,-19.94351],[-40.14771,-19.94455],[-40.15135,-19.94715],[-40.15012,-19.95454],[-40.1422,-19.95585],[-40.13602,-19.95958],[-40.13448,-19.96514],[-40.13893,-19.96993],[-40.14415,-19.98409],[-40.14695,-19.98663],[-40.14884,-19.99036],[-40.14956,-20.00183],[-40.15971,-20.01775],[-40.16035,-20.02247],[-40.15955,-20.02551],[-40.15841,-20.02562],[-40.15983,-20.03328],[-40.16046,-20.0332],[-40.16166,-20.03614],[-40.16448,-20.03795],[-40.16678,-20.0364],[-40.16688,-20.03546],[-40.1679,-20.03524],[-40.1714,-20.03672],[-40.17375,-20.03644],[-40.17519,-20.03705],[-40.18123,-20.06689],[-40.18441,-20.06802],[-40.18351,-20.0696],[-40.17519,-20.07574],[-40.17658,-20.08269],[-40.17588,-20.10171],[-39.81012,-20.23385],[-39.70538,-19.94528],[-39.70575,-19.89956]],[[-40.06787,-20.04337],[-40.15374,-20.01188],[-40.15395,-20.01039],[-40.15233,-20.00701],[-40.14941,-20.00582],[-40.1492,-20.00325],[-40.1476,-20.00091],[-40.14834,-19.99915],[-40.1394,-19.98579],[-40.13484,-19.97151],[-40.13802,-19.97147],[-40.13731,-19.96912],[-40.13603,-19.96733],[-40.13355,-19.96678],[-40.13301,-19.96597],[-40.13399,-19.96404],[-40.13388,-19.96258],[-40.13612,-19.95897],[-40.13927,-19.9573],[-40.141,-19.95462],[-40.14707,-19.95437],[-40.14452,-19.95289],[-40.12737,-19.94782],[-40.05827,-19.97493],[-40.04683,-19.94959],[-39.95835,-19.98274],[-39.99665,-20.07083],[-40.07623,-20.07414],[-40.06787,-20.04337]]]},"properties":{"tipo":"unidade_conservacao","nome":"ÁREA DE PROTEÇÃO AMBIENTAL COSTA DAS ALGAS","categoria":"Área de Proteção Ambiental","grupo":"Uso Sustentável","esfera":"Federal","municipio":"ARACRUZ (ES), FUNDÃO (ES), SERRA (ES)","area_ha":"114994.94","situacao":"Ativo"}},
{"type":"Feature","geometry":{"type":"MultiPolygon","coordinates":[[[[-40.31703,-20.32472],[-40.31823,-20.32543],[-40.3182,-20.32665],[-40.32306,-20.32622],[-40.325,-20.3278],[-40.32565,-20.33027],[-40.32678,-20.33025],[-40.32724,-20.33134],[-40.32699,-20.33397],[-40.32631,-20.33439],[-40.32744,-20.33886],[-40.32247,-20.33705],[-40.31863,-20.33402],[-40.31764,-20.33489],[-40.31732,-20.33667],[-40.31316,-20.33573],[-40.31391,-20.33141],[-40.31139,-20.33064],[-40.31151,-20.32898],[-40.31341,-20.32808],[-40.31703,-20.32472]]],[[[-40.31276,-20.336],[-40.31072,-20.33595],[-40.31092,-20.33433],[-40.31183,-20.33352],[-40.31304,-20.33516],[-40.31276,-20.336]]]]},"properties":{"tipo":"unidade_conservacao","nome":"PARQUE NATURAL MUNICIPAL MORRO DA MANTEIGUEIRA","categoria":"Parque","grupo":"Proteção Integral","esfera":"Municipal","municipio":"VILA VELHA (ES)","area_ha":"161.47","situacao":"Ativo"}},
{"type":"Feature","geometry":{"type":"MultiPolygon","coordinates":[[[[-40.28283,-20.32685],[-40.28181,-20.32534],[-40.27972,-20.3242],[-40.27699,-20.32133],[-40.27553,-20.32126],[-40.27493,-20.32057],[-40.27335,-20.32173],[-40.27324,-20.32278],[-40.27303,-20.32212],[-40.2741,-20.3202],[-40.27692,-20.32095],[-40.28206,-20.32483],[-40.28283,-20.32685]]],[[[-40.28266,-20.32703],[-40.28167,-20.32854],[-40.2807,-20.32727],[-40.27993,-20.32847],[-40.27763,-20.32954],[-40.27741,-20.32912],[-40.27717,-20.3301],[-40.27611,-20.33022],[-40.2758,-20.3286],[-40.27509,-20.32797],[-40.27442,-20.32831],[-40.27437,-20.32717],[-40.27278,-20.32632],[-40.27327,-20.32585],[-40.2724,-20.32519],[-40.2726,-20.32413],[-40.27401,-20.32318],[-40.27345,-20.32256],[-40.2771,-20.32252],[-40.2776,-20.32307],[-40.27789,-20.32285],[-40.2786,-20.32317],[-40.27927,-20.3241],[-40.28176,-20.32541],[-40.28266,-20.32703]]]]},"properties":{"tipo":"unidade_conservacao","nome":"MONUMENTO NATURAL MORRO DO MORENO","categoria":"Monumento Natural","grupo":"Proteção Integral","esfera":"Municipal","municipio":"VILA VELHA (ES)","area_ha":"61.42","situacao":"Ativo"}},
{"type":"Feature","geometry":{"type":"Polygon","coordinates":[[[-40.51359,-20.25369],[-40.51376,-20.25483],[-40.5142,-20.25483],[-40.51461,-20.25524],[-40.51505,-20.25554],[-40.5154,-20.25563],[-40.51573,-20.25598],[-40.51607,-20.25611],[-40.5165,-20.2565],[-40.51671,-20.25693],[-40.51689,-20.25706],[-40.51723,-20.25724],[-40.51781,-20.25799],[-40.51816,-20.25848],[-40.51808,-20.25898],[-40.51802,-20.25937],[-40.51864,-20.26019],[-40.52141,-20.26143],[-40.5224,-20.26421],[-40.52197,-20.2645],[-40.52166,-20.26522],[-40.52058,-20.26603],[-40.521,-20.26635],[-40.52224,-20.26781],[-40.52249,-20.26912],[-40.52466,-20.27053],[-40.52497,-20.2709],[-40.52532,-20.27173],[-40.52555,-20.27207],[-40.52625,-20.27254],[-40.5264,-20.27278],[-40.52655,-20.27295],[-40.52668,-20.2735],[-40.52681,-20.2739],[-40.52707,-20.27411],[-40.52759,-20.27431],[-40.52841,-20.27428],[-40.52936,-20.27539],[-40.53001,-20.28004],[-40.53198,-20.28141],[-40.53317,-20.28004],[-40.53365,-20.28035],[-40.53421,-20.28104],[-40.53417,-20.28397],[-40.53616,-20.28588],[-40.53583,-20.28611],[-40.53532,-20.28645],[-40.53512,-20.28669],[-40.53498,-20.28691],[-40.53481,-20.28721],[-40.53504,-20.28757],[-40.53547,-20.28803],[-40.53551,-20.28826],[-40.53505,-20.29008],[-40.53413,-20.29109],[-40.53519,-20.2932],[-40.53487,-20.29312],[-40.53455,-20.2929],[-40.53379,-20.29258],[-40.53312,-20.29161],[-40.53275,-20.29164],[-40.53234,-20.29248],[-40.53219,-20.29292],[-40.53093,-20.29441],[-40.53049,-20.29415],[-40.53,-20.29416],[-40.52948,-20.29413],[-40.52909,-20.29409],[-40.5288,-20.2941],[-40.52898,-20.29459],[-40.52915,-20.29523],[-40.52912,-20.29555],[-40.52893,-20.29574],[-40.52864,-20.29578],[-40.52839,-20.29579],[-40.52802,-20.2959],[-40.52757,-20.29601],[-40.52667,-20.2951],[-40.52572,-20.29457],[-40.52367,-20.29439],[-40.52351,-20.29367],[-40.52339,-20.29353],[-40.52325,-20.29335],[-40.52338,-20.2929],[-40.5233,-20.29245],[-40.52303,-20.29233],[-40.52302,-20.29213],[-40.52297,-20.29168],[-40.52256,-20.29107],[-40.52242,-20.29078],[-40.52226,-20.29043],[-40.52186,-20.29035],[-40.52147,-20.29031],[-40.52037,-20.29182],[-40.51779,-20.29279],[-40.5174,-20.29316],[-40.51741,-20.29326],[-40.51759,-20.29356],[-40.51779,-20.2941],[-40.51832,-20.29481],[-40.51887,-20.29609],[-40.51792,-20.29669],[-40.51779,-20.29649],[-40.51754,-20.296],[-40.51489,-20.29576],[-40.51394,-20.29723],[-40.51374,-20.29719],[-40.51331,-20.29715],[-40.51284,-20.29708],[-40.51259,-20.2966],[-40.51233,-20.29643],[-40.51124,-20.29638],[-40.51126,-20.29752],[-40.50768,-20.29879],[-40.50793,-20.29996],[-40.50616,-20.30193],[-40.50693,-20.30392],[-40.50342,-20.3037],[-40.50199,-20.30464],[-40.50219,-20.30543],[-40.50241,-20.30564],[-40.50264,-20.30594],[-40.5021,-20.30665],[-40.50195,-20.30673],[-40.50142,-20.30654],[-40.50099,-20.30655],[-40.49747,-20.3091],[-40.49706,-20.30905],[-40.49656,-20.30873],[-40.49544,-20.30781],[-40.49525,-20.30743],[-40.49451,-20.30736],[-40.49182,-20.30433],[-40.49098,-20.30415],[-40.49059,-20.30332],[-40.49019,-20.3034],[-40.48995,-20.30366],[-40.48948,-20.30365],[-40.48842,-20.30374],[-40.48783,-20.30374],[-40.48721,-20.30381],[-40.48547,-20.30275],[-40.48548,-20.30071],[-40.48238,-20.29894],[-40.47807,-20.29843],[-40.47591,-20.29582],[-40.47288,-20.29486],[-40.47246,-20.29433],[-40.4729,-20.29207],[-40.47274,-20.29133],[-40.47296,-20.29071],[-40.47282,-20.29023],[-40.47267,-20.28946],[-40.47115,-20.28974],[-40.46965,-20.2889],[-40.46944,-20.28865],[-40.4692,-20.28697],[-40.46894,-20.28626],[-40.4689,-20.28615],[-40.4709,-20.28454],[-40.47121,-20.28298],[-40.47163,-20.2821],[-40.47272,-20.28104],[-40.47295,-20.28106],[-40.47332,-20.28108],[-40.47387,-20.2792],[-40.47374,-20.27787],[-40.47378,-20.27736],[-40.47401,-20.2771],[-40.47349,-20.27664],[-40.47301,-20.2765],[-40.47305,-20.27609],[-40.4732,-20.27574],[-40.47654,-20.27281],[-40.47646,-20.27164],[-40.47776,-20.27197],[-40.47836,-20.27223],[-40.47865,-20.2722],[-40.47932,-20.2713],[-40.47962,-20.2711],[-40.47989,-20.27081],[-40.48004,-20.2702],[-40.48036,-20.26997],[-40.48059,-20.26976],[-40.48063,-20.26939],[-40.48054,-20.26888],[-40.48028,-20.26823],[-40.47983,-20.26815],[-40.47952,-20.26808],[-40.48001,-20.26645],[-40.4833,-20.26173],[-40.48519,-20.26202],[-40.48624,-20.26078],[-40.48641,-20.26029],[-40.48632,-20.26001],[-40.48637,-20.25964],[-40.48655,-20.25949],[-40.4867,-20.25941],[-40.48739,-20.25792],[-40.48746,-20.25713],[-40.48905,-20.25456],[-40.48944,-20.25445],[-40.48971,-20.25338],[-40.48974,-20.25279],[-40.48973,-20.25139],[-40.48972,-20.25039],[-40.48979,-20.24978],[-40.48932,-20.24859],[-40.48885,-20.2479],[-40.48873,-20.24726],[-40.48872,-20.24711],[-40.48975,-20.24685],[-40.49,-20.24639],[-40.49002,-20.24579],[-40.48961,-20.24514],[-40.49063,-20.24342],[-40.49025,-20.24257],[-40.48941,-20.24199],[-40.49016,-20.24166],[-40.48971,-20.24015],[-40.48951,-20.23956],[-40.48917,-20.23895],[-40.49048,-20.23901],[-40.49279,-20.24027],[-40.49312,-20.23927],[-40.49415,-20.23838],[-40.49449,-20.23799],[-40.4947,-20.23754],[-40.49466,-20.237],[-40.49539,-20.23578],[-40.49571,-20.23469],[-40.4973,-20.23549],[-40.49764,-20.23716],[-40.4988,-20.23808],[-40.49976,-20.23979],[-40.50006,-20.24086],[-40.49999,-20.24171],[-40.50099,-20.24247],[-40.50177,-20.2429],[-40.50308,-20.24293],[-40.50658,-20.24419],[-40.50768,-20.24432],[-40.50862,-20.24469],[-40.50956,-20.24429],[-40.50983,-20.24399],[-40.51002,-20.24383],[-40.51073,-20.24402],[-40.51188,-20.24452],[-40.51193,-20.24447],[-40.51227,-20.24458],[-40.51256,-20.24495],[-40.513,-20.24562],[-40.51328,-20.24587],[-40.51365,-20.24687],[-40.51474,-20.24774],[-40.51473,-20.25079],[-40.51359,-20.25369]]]},"properties":{"tipo":"unidade_conservacao","nome":"RESERVA BIOLÓGICA DE DUAS BOCAS","categoria":"Reserva Biológica","grupo":"Proteção Integral","esfera":"Estadual","municipio":"CARIACICA (ES), SANTA LEOPOLDINA (ES), VIANA (ES)","area_ha":"13053.67","situacao":"Ativo"}},
{"type":"Feature","geometry":{"type":"Polygon","coordinates":[[[-40.44926,-20.29374],[-40.45039,-20.29037],[-40.45222,-20.28874],[-40.45012,-20.2883],[-40.44882,-20.2888],[-40.44958,-20.28618],[-40.44815,-20.28568],[-40.4471,-20.28395],[-40.44911,-20.28129],[-40.44783,-20.28168],[-40.44696,-20.28085],[-40.44591,-20.28102],[-40.44384,-20.28395],[-40.44033,-20.28443],[-40.44026,-20.28422],[-40.44022,-20.2839],[-40.44012,-20.28366],[-40.43983,-20.28329],[-40.43677,-20.28233],[-40.438,-20.28176],[-40.43729,-20.28103],[-40.43921,-20.27895],[-40.44108,-20.2794],[-40.44088,-20.27876],[-40.44111,-20.27891],[-40.44129,-20.27884],[-40.44139,-20.27879],[-40.44167,-20.27817],[-40.4428,-20.27811],[-40.44249,-20.2779],[-40.44247,-20.27777],[-40.44213,-20.27744],[-40.442,-20.27726],[-40.44192,-20.27714],[-40.44183,-20.27702],[-40.44158,-20.27677],[-40.44158,-20.27645],[-40.44175,-20.27619],[-40.44197,-20.27635],[-40.44224,-20.27649],[-40.44239,-20.27657],[-40.44523,-20.27415],[-40.44508,-20.27298],[-40.44833,-20.27414],[-40.44871,-20.27172],[-40.44774,-20.2708],[-40.44901,-20.2698],[-40.44829,-20.2687],[-40.44961,-20.26777],[-40.44937,-20.26734],[-40.45006,-20.2671],[-40.45027,-20.26732],[-40.45044,-20.2675],[-40.45126,-20.26774],[-40.45168,-20.26838],[-40.45425,-20.26883],[-40.45573,-20.26697],[-40.45706,-20.26739],[-40.45712,-20.26739],[-40.4572,-20.26739],[-40.45735,-20.26735],[-40.45776,-20.26722],[-40.45795,-20.26725],[-40.4586,-20.26762],[-40.45866,-20.26767],[-40.45874,-20.26776],[-40.45902,-20.26816],[-40.45912,-20.26825],[-40.45924,-20.26824],[-40.45936,-20.26822],[-40.45946,-20.26819],[-40.46075,-20.26658],[-40.46257,-20.26731],[-40.46387,-20.26643],[-40.46494,-20.26392],[-40.46485,-20.26314],[-40.46363,-20.26298],[-40.46267,-20.26094],[-40.46273,-20.25986],[-40.46426,-20.25798],[-40.46374,-20.25672],[-40.46465,-20.25574],[-40.46438,-20.25462],[-40.46173,-20.2556],[-40.46099,-20.25657],[-40.45959,-20.25649],[-40.45632,-20.25479],[-40.45469,-20.25448],[-40.45459,-20.25443],[-40.45435,-20.25425],[-40.45418,-20.25414],[-40.454,-20.25408],[-40.453,-20.25418],[-40.452,-20.24922],[-40.45609,-20.25004],[-40.45582,-20.24817],[-40.45654,-20.24841],[-40.45893,-20.24735],[-40.45936,-20.24727],[-40.45963,-20.24726],[-40.45943,-20.24661],[-40.45925,-20.246],[-40.45913,-20.24507],[-40.46017,-20.24175],[-40.46047,-20.24131],[-40.46076,-20.24088],[-40.46085,-20.24044],[-40.46083,-20.24012],[-40.46069,-20.24008],[-40.46052,-20.24004],[-40.4603,-20.23997],[-40.46018,-20.23977],[-40.45988,-20.23753],[-40.46042,-20.2372],[-40.46148,-20.23656],[-40.46234,-20.23609],[-40.46366,-20.23497],[-40.46797,-20.23539],[-40.47103,-20.23722],[-40.47557,-20.23826],[-40.47702,-20.23766],[-40.47801,-20.23621],[-40.479,-20.23174],[-40.48064,-20.23369],[-40.48337,-20.23374],[-40.48304,-20.23027],[-40.48419,-20.22701],[-40.48374,-20.22482],[-40.48695,-20.22346],[-40.49056,-20.21965],[-40.49179,-20.21536],[-40.49413,-20.21418],[-40.49371,-20.21252],[-40.49436,-20.21171],[-40.49517,-20.21322],[-40.49939,-20.21409],[-40.50087,-20.21505],[-40.5001,-20.2169],[-40.50106,-20.21818],[-40.50006,-20.2184],[-40.50225,-20.22248],[-40.50128,-20.22473],[-40.50379,-20.22593],[-40.50339,-20.22666],[-40.51176,-20.23056],[-40.51542,-20.23105],[-40.51669,-20.23283],[-40.51925,-20.23333],[-40.52494,-20.23862],[-40.52641,-20.23823],[-40.52705,-20.23871],[-40.53313,-20.24499],[-40.53607,-20.24558],[-40.53848,-20.2435],[-40.5395,-20.24557],[-40.54139,-20.2468],[-40.54187,-20.25117],[-40.54579,-20.25241],[-40.54651,-20.25431],[-40.54894,-20.25671],[-40.5505,-20.25931],[-40.55071,-20.26203],[-40.54948,-20.26438],[-40.55032,-20.26695],[-40.54837,-20.2678],[-40.54837,-20.26943],[-40.54926,-20.27065],[-40.54891,-20.27203],[-40.55145,-20.27348],[-40.5529,-20.27613],[-40.55198,-20.27816],[-40.55261,-20.27968],[-40.55432,-20.28041],[-40.55453,-20.28386],[-40.5566,-20.28944],[-40.55729,-20.29512],[-40.55819,-20.29654],[-40.55797,-20.29868],[-40.55949,-20.30105],[-40.55832,-20.30187],[-40.55338,-20.3012],[-40.55203,-20.30315],[-40.55166,-20.30577],[-40.55077,-20.30611],[-40.55087,-20.30717],[-40.54853,-20.30731],[-40.54583,-20.31019],[-40.54472,-20.31288],[-40.5476,-20.31612],[-40.54766,-20.31622],[-40.54773,-20.31638],[-40.54811,-20.31717],[-40.54847,-20.31792],[-40.54913,-20.31966],[-40.55041,-20.32174],[-40.55114,-20.32508],[-40.55049,-20.32709],[-40.54574,-20.32489],[-40.54433,-20.32505],[-40.54111,-20.32384],[-40.53822,-20.32505],[-40.53551,-20.32516],[-40.53011,-20.32389],[-40.52953,-20.3258],[-40.52842,-20.32573],[-40.5279,-20.32685],[-40.52586,-20.32727],[-40.52519,-20.32901],[-40.52247,-20.3282],[-40.52066,-20.32947],[-40.51785,-20.32931],[-40.51779,-20.32929],[-40.51745,-20.32922],[-40.51694,-20.32918],[-40.51434,-20.32852],[-40.5124,-20.32969],[-40.51032,-20.33259],[-40.50673,-20.32978],[-40.50565,-20.32737],[-40.50229,-20.32551],[-40.50208,-20.32412],[-40.49713,-20.32184],[-40.49607,-20.32092],[-40.49509,-20.32048],[-40.49495,-20.32041],[-40.49476,-20.32029],[-40.49438,-20.32009],[-40.49226,-20.32025],[-40.49313,-20.31855],[-40.49216,-20.31906],[-40.48971,-20.31848],[-40.48694,-20.31994],[-40.48624,-20.31845],[-40.48462,-20.31928],[-40.47902,-20.31852],[-40.47511,-20.31287],[-40.47193,-20.31573],[-40.46919,-20.31699],[-40.46545,-20.31578],[-40.46392,-20.3188],[-40.46042,-20.31781],[-40.46015,-20.31629],[-40.45903,-20.31755],[-40.45861,-20.3178],[-40.45833,-20.31804],[-40.45794,-20.31837],[-40.45775,-20.31857],[-40.45512,-20.31909],[-40.45387,-20.31852],[-40.45297,-20.31761],[-40.45309,-20.31668],[-40.45437,-20.31672],[-40.45476,-20.31646],[-40.45493,-20.31616],[-40.45497,-20.31574],[-40.45303,-20.31389],[-40.45318,-20.31338],[-40.45765,-20.31129],[-40.45755,-20.30713],[-40.45954,-20.30605],[-40.45781,-20.30484],[-40.45504,-20.30551],[-40.45237,-20.30496],[-40.45253,-20.30408],[-40.4518,-20.30412],[-40.45211,-20.30311],[-40.44733,-20.29902],[-40.44697,-20.29845],[-40.44738,-20.29729],[-40.44932,-20.29542],[-40.44926,-20.29374]]]},"properties":{"tipo":"unidade_conservacao","nome":"RESERVA BIOLÓGICA DE DUAS BOCAS","categoria":"Reserva Biológica","grupo":"Proteção Integral","esfera":"Estadual","municipio":"CARIACICA (ES), SANTA LEOPOLDINA (ES), VIANA (ES)","area_ha":"13053.67","situacao":"Ativo"}},
{"type":"Feature","geometry":{"type":"Polygon","coordinates":[[[-40.41605,-20.45552],[-40.41581,-20.45297],[-40.41673,-20.45265],[-40.4186,-20.45581],[-40.41979,-20.45539],[-40.42042,-20.45322],[-40.422,-20.45312],[-40.42444,-20.45724],[-40.42567,-20.45735],[-40.42769,-20.45584],[-40.43032,-20.45544],[-40.43337,-20.45776],[-40.43942,-20.46057],[-40.44067,-20.4643],[-40.44393,-20.46381],[-40.4485,-20.4568],[-40.45286,-20.45541],[-40.45728,-20.45594],[-40.4603,-20.45966],[-40.46248,-20.46386],[-40.46749,-20.46115],[-40.47093,-20.45825],[-40.47189,-20.45832],[-40.47487,-20.46456],[-40.47464,-20.46818],[-40.47538,-20.47283],[-40.47908,-20.4757],[-40.48115,-20.48025],[-40.48336,-20.48129],[-40.483,-20.482],[-40.47973,-20.48156],[-40.47807,-20.4826],[-40.47777,-20.48741],[-40.47705,-20.4881],[-40.47554,-20.48791],[-40.47518,-20.4887],[-40.48274,-20.49722],[-40.48504,-20.50194],[-40.4852,-20.50718],[-40.48649,-20.50882],[-40.48846,-20.50919],[-40.48995,-20.51157],[-40.48925,-20.51502],[-40.48458,-20.51972],[-40.48439,-20.52175],[-40.48574,-20.52305],[-40.48877,-20.52362],[-40.49168,-20.52502],[-40.49344,-20.52874],[-40.49206,-20.53457],[-40.49676,-20.5385],[-40.49311,-20.54545],[-40.49694,-20.54889],[-40.49759,-20.55022],[-40.49652,-20.55519],[-40.49269,-20.55894],[-40.49361,-20.56372],[-40.49265,-20.5636],[-40.49123,-20.56127],[-40.48542,-20.55925],[-40.48083,-20.56034],[-40.47932,-20.56249],[-40.48125,-20.56406],[-40.48135,-20.56487],[-40.47973,-20.56812],[-40.4802,-20.57104],[-40.48436,-20.5794],[-40.48678,-20.58226],[-40.48514,-20.58462],[-40.48547,-20.58933],[-40.48486,-20.59158],[-40.48245,-20.59298],[-40.4777,-20.5939],[-40.47787,-20.59465],[-40.47988,-20.59472],[-40.4795,-20.59568],[-40.47687,-20.59697],[-40.47429,-20.59946],[-40.47228,-20.59937],[-40.47154,-20.60316],[-40.46851,-20.60277],[-40.4656,-20.60758],[-40.46259,-20.60967],[-40.46172,-20.61251],[-40.4636,-20.61597],[-40.46289,-20.61803],[-40.46317,-20.62163],[-40.45625,-20.62063],[-40.4535,-20.6187],[-40.4526,-20.61819],[-40.45133,-20.61768],[-40.4483,-20.6214],[-40.44849,-20.6225],[-40.44606,-20.62236],[-40.4468,-20.62362],[-40.44659,-20.62382],[-40.44559,-20.62355],[-40.44381,-20.62393],[-40.44356,-20.62503],[-40.44402,-20.62707],[-40.44387,-20.63013],[-40.44475,-20.63139],[-40.44907,-20.63385],[-40.45051,-20.63518],[-40.45074,-20.63628],[-40.45109,-20.66963],[-40.44936,-20.66968],[-40.44903,-20.66984],[-40.44861,-20.67027],[-40.44839,-20.67063],[-40.44824,-20.67103],[-40.44812,-20.67163],[-40.44816,-20.6724],[-40.4484,-20.67317],[-40.45003,-20.67715],[-40.45005,-20.67843],[-40.44987,-20.67901],[-40.44929,-20.67996],[-40.44685,-20.68063],[-40.4456,-20.68065],[-40.44489,-20.68057],[-40.44412,-20.68022],[-40.44266,-20.67947],[-40.4413,-20.67805],[-40.44048,-20.677],[-40.43482,-20.66369],[-40.43204,-20.66017],[-40.41395,-20.6513],[-40.4136,-20.65104],[-40.41225,-20.64945],[-40.40972,-20.64556],[-40.40179,-20.63883],[-40.4014,-20.63773],[-40.40129,-20.6367],[-40.40129,-20.63581],[-40.4013,-20.63547],[-40.40168,-20.63426],[-40.40177,-20.63359],[-40.40116,-20.6328],[-40.40077,-20.63256],[-40.40039,-20.63251],[-40.39997,-20.63257],[-40.3994,-20.63297],[-40.39202,-20.63976],[-40.39044,-20.64038],[-40.38827,-20.64041],[-40.38803,-20.64039],[-40.38744,-20.64029],[-40.38145,-20.63861],[-40.37778,-20.6359],[-40.37574,-20.63007],[-40.36797,-20.62213],[-40.36402,-20.61448],[-40.36424,-20.61291],[-40.36646,-20.60955],[-40.36718,-20.60526],[-40.3649,-20.59619],[-40.36301,-20.59144],[-40.36256,-20.57893],[-40.36175,-20.57749],[-40.35607,-20.57429],[-40.35424,-20.5722],[-40.34451,-20.5572],[-40.34261,-20.55524],[-40.3421,-20.55494],[-40.34143,-20.55485],[-40.34077,-20.55478],[-40.34011,-20.55464],[-40.33964,-20.55449],[-40.33877,-20.55421],[-40.33705,-20.55224],[-40.33593,-20.54359],[-40.33192,-20.53739],[-40.36846,-20.52458],[-40.37335,-20.52283],[-40.375,-20.52225],[-40.37672,-20.51514],[-40.37436,-20.50067],[-40.37629,-20.49751],[-40.37657,-20.49245],[-40.3808,-20.49175],[-40.38428,-20.48707],[-40.38645,-20.48524],[-40.38734,-20.48166],[-40.38743,-20.47941],[-40.38741,-20.47752],[-40.3875,-20.47501],[-40.38779,-20.47018],[-40.3924,-20.46979],[-40.39661,-20.46766],[-40.39876,-20.46498],[-40.39992,-20.46051],[-40.40251,-20.45803],[-40.40516,-20.4575],[-40.41299,-20.45877],[-40.41509,-20.45773],[-40.41605,-20.45552]],[[-40.39611,-20.56512],[-40.40019,-20.57433],[-40.40271,-20.58207],[-40.40374,-20.58754],[-40.40397,-20.59621],[-40.40426,-20.59787],[-40.40475,-20.59942],[-40.4074,-20.60353],[-40.41588,-20.61455],[-40.41622,-20.6162],[-40.4171,-20.61645],[-40.41715,-20.61643],[-40.41738,-20.61648],[-40.41795,-20.6164],[-40.41833,-20.61684],[-40.41917,-20.61815],[-40.41925,-20.61835],[-40.41958,-20.61891],[-40.42119,-20.62162],[-40.42253,-20.6237],[-40.42594,-20.63048],[-40.42597,-20.63044],[-40.42665,-20.6296],[-40.4314,-20.62375],[-40.43307,-20.62167],[-40.42725,-20.60764],[-40.42421,-20.58754],[-40.42359,-20.58652],[-40.42327,-20.58612],[-40.42297,-20.58578],[-40.42265,-20.58551],[-40.42228,-20.58524],[-40.42181,-20.58487],[-40.42098,-20.58428],[-40.41858,-20.58234],[-40.41831,-20.58207],[-40.41797,-20.58172],[-40.41762,-20.58136],[-40.4171,-20.58066],[-40.41663,-20.57999],[-40.41636,-20.5795],[-40.41595,-20.5787],[-40.41567,-20.57814],[-40.41521,-20.57726],[-40.41425,-20.57534],[-40.4115,-20.56995],[-40.41073,-20.56839],[-40.40905,-20.56511],[-40.4089,-20.56511],[-40.40879,-20.56502],[-40.40868,-20.56478],[-40.40864,-20.56467],[-40.40841,-20.56388],[-40.40793,-20.56291],[-40.40735,-20.56179],[-40.40691,-20.56095],[-40.4066,-20.56044],[-40.38951,-20.53867],[-40.38934,-20.5384],[-40.38672,-20.53504],[-40.3797,-20.53949],[-40.37982,-20.53964],[-40.38009,-20.54005],[-40.38048,-20.54059],[-40.38092,-20.5411],[-40.381,-20.54124],[-40.38115,-20.54143],[-40.38133,-20.5417],[-40.38151,-20.54196],[-40.38165,-20.54209],[-40.38182,-20.54231],[-40.38273,-20.54359],[-40.38279,-20.54376],[-40.38297,-20.54407],[-40.38309,-20.54423],[-40.38321,-20.54433],[-40.38363,-20.5448],[-40.38378,-20.54502],[-40.38403,-20.54528],[-40.38417,-20.54558],[-40.38427,-20.54571],[-40.38453,-20.54615],[-40.38471,-20.54645],[-40.38509,-20.54697],[-40.38523,-20.54711],[-40.38542,-20.54735],[-40.38594,-20.54793],[-40.38601,-20.54798],[-40.38686,-20.54908],[-40.39003,-20.55398],[-40.39113,-20.55573],[-40.39141,-20.55621],[-40.39221,-20.55751],[-40.39364,-20.56001],[-40.39611,-20.56512]]]},"properties":{"tipo":"zona_amortecimento","nome":"Zona de amortecimento - PE Paulo César Vinha","categoria":"Plano de manejo","grupo":null,"esfera":null,"municipio":null,"area_ha":null,"situacao":null}},
{"type":"Feature","geometry":{"type":"Polygon","coordinates":[[[-40.56388,-20.29256],[-40.56341,-20.29837],[-40.56176,-20.30359],[-40.55903,-20.3084],[-40.55533,-20.3126],[-40.55082,-20.31601],[-40.54567,-20.3185],[-40.54326,-20.31913],[-40.53916,-20.32114],[-40.53286,-20.32266],[-40.52723,-20.32307],[-40.5223,-20.32688],[-40.51929,-20.32832],[-40.51637,-20.33025],[-40.51622,-20.33033],[-40.50882,-20.33407],[-40.50381,-20.33561],[-40.49859,-20.33625],[-40.49333,-20.33599],[-40.4867,-20.33439],[-40.47169,-20.32666],[-40.46712,-20.32346],[-40.46599,-20.32308],[-40.46131,-20.3205],[-40.45901,-20.31861],[-40.45826,-20.31828],[-40.45736,-20.31773],[-40.45335,-20.3148],[-40.44953,-20.31071],[-40.44669,-20.30636],[-40.44551,-20.30342],[-40.4432,-20.29971],[-40.44044,-20.28985],[-40.44024,-20.28452],[-40.44115,-20.27926],[-40.44313,-20.27426],[-40.44507,-20.27131],[-40.44642,-20.26602],[-40.44657,-20.26568],[-40.44895,-20.2613],[-40.45443,-20.25443],[-40.45557,-20.25229],[-40.45763,-20.24967],[-40.45833,-20.24843],[-40.46016,-20.246],[-40.46068,-20.24202],[-40.4606,-20.24163],[-40.4606,-20.23637],[-40.46168,-20.23121],[-40.4638,-20.22634],[-40.46688,-20.22195],[-40.47079,-20.21821],[-40.48101,-20.21148],[-40.48591,-20.20929],[-40.49116,-20.208],[-40.49658,-20.20767],[-40.50196,-20.2083],[-40.50712,-20.20988],[-40.5142,-20.21364],[-40.51927,-20.21821],[-40.52708,-20.22143],[-40.53147,-20.2245],[-40.53719,-20.23073],[-40.54069,-20.2362],[-40.54302,-20.24377],[-40.54703,-20.24923],[-40.54972,-20.2562],[-40.55705,-20.26468],[-40.56006,-20.26929],[-40.56404,-20.2794],[-40.56486,-20.28467],[-40.56388,-20.29256]],[[-40.51325,-20.25407],[-40.51446,-20.24756],[-40.51347,-20.24675],[-40.51314,-20.24621],[-40.51297,-20.24575],[-40.51262,-20.24503],[-40.51227,-20.24465],[-40.51198,-20.24445],[-40.51188,-20.24451],[-40.51074,-20.24409],[-40.51003,-20.2439],[-40.50973,-20.24404],[-40.50935,-20.24423],[-40.50892,-20.24445],[-40.50852,-20.24468],[-40.50068,-20.24272],[-40.50009,-20.24215],[-40.49982,-20.24113],[-40.49972,-20.24016],[-40.49862,-20.238],[-40.49757,-20.2373],[-40.49701,-20.23543],[-40.49572,-20.23476],[-40.49537,-20.23537],[-40.49473,-20.23675],[-40.49454,-20.2376],[-40.49437,-20.23819],[-40.49279,-20.24034],[-40.49048,-20.23908],[-40.48972,-20.23928],[-40.48921,-20.23901],[-40.48957,-20.23956],[-40.48979,-20.24023],[-40.49016,-20.24173],[-40.48958,-20.24199],[-40.48955,-20.24213],[-40.49052,-20.24346],[-40.48943,-20.24519],[-40.48999,-20.24613],[-40.48978,-20.24679],[-40.48872,-20.24716],[-40.48874,-20.24733],[-40.48886,-20.24784],[-40.48954,-20.24859],[-40.48972,-20.24956],[-40.48968,-20.25006],[-40.48973,-20.25046],[-40.4898,-20.25276],[-40.48964,-20.254],[-40.48943,-20.25448],[-40.48905,-20.25463],[-40.48855,-20.25538],[-40.48823,-20.25633],[-40.48746,-20.2572],[-40.48722,-20.25789],[-40.48685,-20.25867],[-40.48658,-20.25943],[-40.48638,-20.25971],[-40.48633,-20.26008],[-40.48634,-20.26036],[-40.48616,-20.26072],[-40.4852,-20.26209],[-40.48329,-20.26186],[-40.48001,-20.26652],[-40.47982,-20.26709],[-40.47977,-20.26726],[-40.47958,-20.26792],[-40.47952,-20.26815],[-40.48029,-20.2683],[-40.48055,-20.26895],[-40.48063,-20.26942],[-40.48049,-20.26974],[-40.48032,-20.27001],[-40.48011,-20.27028],[-40.48,-20.27047],[-40.4799,-20.27088],[-40.47961,-20.27129],[-40.4786,-20.27225],[-40.47834,-20.27228],[-40.47776,-20.27204],[-40.47647,-20.27171],[-40.47655,-20.27288],[-40.47323,-20.27585],[-40.47306,-20.27616],[-40.47302,-20.27654],[-40.47332,-20.27657],[-40.47402,-20.27717],[-40.47403,-20.27953],[-40.47357,-20.28102],[-40.47282,-20.28129],[-40.47258,-20.28145],[-40.47208,-20.28205],[-40.47168,-20.28229],[-40.47106,-20.28387],[-40.47105,-20.28467],[-40.46925,-20.28617],[-40.46894,-20.28631],[-40.4691,-20.28652],[-40.46934,-20.28727],[-40.46949,-20.28824],[-40.46959,-20.28855],[-40.46965,-20.28897],[-40.47122,-20.28989],[-40.47169,-20.28981],[-40.47224,-20.28963],[-40.47283,-20.2895],[-40.47308,-20.29094],[-40.47305,-20.29259],[-40.47268,-20.29375],[-40.47263,-20.2941],[-40.47258,-20.29451],[-40.47289,-20.29493],[-40.47592,-20.29589],[-40.47802,-20.29857],[-40.48199,-20.29895],[-40.48529,-20.3008],[-40.48522,-20.30279],[-40.48721,-20.30388],[-40.48983,-20.30371],[-40.49005,-20.30346],[-40.49048,-20.30332],[-40.4907,-20.30387],[-40.49081,-20.30419],[-40.49213,-20.30474],[-40.49397,-20.30724],[-40.49518,-20.30765],[-40.49541,-20.30813],[-40.49657,-20.3088],[-40.49712,-20.30898],[-40.49747,-20.30917],[-40.501,-20.30662],[-40.50149,-20.30651],[-40.50214,-20.30657],[-40.50241,-20.30571],[-40.5022,-20.30532],[-40.50211,-20.30507],[-40.50214,-20.30479],[-40.50343,-20.30377],[-40.50591,-20.30432],[-40.50717,-20.30388],[-40.50643,-20.30218],[-40.50834,-20.29992],[-40.50803,-20.29876],[-40.51146,-20.2975],[-40.51157,-20.29644],[-40.51233,-20.2965],[-40.51259,-20.29667],[-40.51302,-20.29698],[-40.51332,-20.29722],[-40.51409,-20.29752],[-40.5149,-20.29582],[-40.51715,-20.29603],[-40.51775,-20.29693],[-40.5179,-20.29672],[-40.518,-20.29638],[-40.51862,-20.29617],[-40.51762,-20.29411],[-40.51741,-20.29333],[-40.51741,-20.29323],[-40.51746,-20.29312],[-40.52037,-20.29189],[-40.52148,-20.29038],[-40.52186,-20.29034],[-40.52241,-20.29036],[-40.52245,-20.29066],[-40.52257,-20.29114],[-40.52297,-20.29175],[-40.52319,-20.29234],[-40.52331,-20.29252],[-40.52339,-20.29297],[-40.52326,-20.29342],[-40.52367,-20.29446],[-40.52573,-20.29463],[-40.52738,-20.29602],[-40.52802,-20.29597],[-40.52837,-20.29593],[-40.52865,-20.29585],[-40.52885,-20.29574],[-40.5286,-20.29421],[-40.52877,-20.29413],[-40.52904,-20.29407],[-40.52953,-20.2941],[-40.53002,-20.29416],[-40.5305,-20.29421],[-40.53083,-20.29419],[-40.53248,-20.29135],[-40.5329,-20.29202],[-40.53346,-20.29256],[-40.53416,-20.29291],[-40.53455,-20.29297],[-40.53475,-20.29292],[-40.53399,-20.291],[-40.5355,-20.28828],[-40.53505,-20.28776],[-40.53476,-20.28709],[-40.5349,-20.2869],[-40.53513,-20.28676],[-40.53535,-20.28655],[-40.536,-20.28625],[-40.53592,-20.28607],[-40.5354,-20.28593],[-40.53489,-20.28562],[-40.53381,-20.28407],[-40.53408,-20.2811],[-40.53366,-20.28042],[-40.53341,-20.2801],[-40.53302,-20.28026],[-40.5319,-20.28157],[-40.52984,-20.28006],[-40.52935,-20.27572],[-40.52839,-20.27443],[-40.52759,-20.27437],[-40.52708,-20.27418],[-40.52689,-20.27395],[-40.52669,-20.27357],[-40.52656,-20.27302],[-40.52645,-20.27276],[-40.52603,-20.27227],[-40.52556,-20.27198],[-40.52533,-20.2718],[-40.52467,-20.2706],[-40.5227,-20.26951],[-40.52232,-20.26896],[-40.52225,-20.26788],[-40.52054,-20.26623],[-40.52081,-20.26598],[-40.52107,-20.26581],[-40.52128,-20.26557],[-40.52165,-20.26527],[-40.52198,-20.26457],[-40.52241,-20.26428],[-40.52192,-20.26386],[-40.52115,-20.26164],[-40.51864,-20.26026],[-40.51811,-20.25964],[-40.51796,-20.25926],[-40.51816,-20.25855],[-40.51782,-20.25806],[-40.51769,-20.25786],[-40.51741,-20.25751],[-40.51723,-20.25731],[-40.51706,-20.25712],[-40.51673,-20.25677],[-40.51652,-20.25648],[-40.51616,-20.2561],[-40.51567,-20.25591],[-40.51541,-20.2557],[-40.51506,-20.25561],[-40.51417,-20.25503],[-40.51377,-20.2549],[-40.51325,-20.25407]]]},"properties":{"tipo":"zona_amortecimento","nome":"Zona de amortecimento - REBIO de Duas Bocas","categoria":"Resolução CONAMA 428/2010 - Com EIA/RIMA","grupo":null,"esfera":null,"municipio":null,"area_ha":null,"situacao":null}}
]}